latitude,longitude,name,url,postcode,Registered_accounts_type,subactivity
53.68821,-1.60817,FILLTEX LIMITED,www.filtex.co.uk,WF12 8HX,Total Exemption Small,Other textiles nec
53.72824,-1.86398,A.W. (EUROPE) LIMITED,www.carpetyourlife.com,HX3 5AX,Full accounts,Carpets and rugs
54.52355,-1.59212,MONBELLO BLINDS & INTERIORS LIMITED,,DL3 8AZ,Not Available,Made-up textile exc apparel
54.09897,-1.19565,CROMARTY LIMITED,,YO61 3EQ,Total Exemption Small,Other products
53.97548,-1.56692,AUGUSTUS HARE LIMITED,www.augustushare.com,HG3 1GY,Total Exemption Small,Finishing of textiles
54.24267,-1.0535,LAND ENERGY GIRVAN LIMITED,www.land-energy.com,YO62 5DQ,Group,Other products
53.51955,-1.16625,PRISTINE TRADING COMPANY LIMITED,,DN5 7AA,Micro-entity accounts,Other products
53.79822,-0.99066,JUST PAPER TUBES LTD,www.jptcores.com,YO8 6EF,Total Exemption Small,"Corrugated paper, containers"
53.66385,-1.68095,CAMIRA YARNS LIMITED,www.storkbrothers.co.uk,WF14 8HE,Full accounts,"Textile fibres preparation, spinning"
53.72976,-1.84904,THE LOOSE COVER COMPANY LIMITED,www.loosecovercompany.com,HX3 6AS,Total Exemption Small,Made-up textile exc apparel
53.63036,-1.84795,HUDDERSFIELD PALLETS LIMITED,www.huddersfieldpallets.co.uk,HD7 5QX,Total Exemption Small,Wooden containers
53.86951,-1.706,W.MACHELL JOINERY LIMITED,www.machells.co.uk,LS20 9LT,Total Exemption Small,Other products
53.84992,-1.83498,I.M.T. (U.K.) LIMITED,www.laycockinternational.com,BD16 4JH,Total Exemption Small,"Textile fibres preparation, spinning"
53.58995,-1.30994,PERRY SCENIC CREATIVE LIMITED,www.perryscenic.co.uk,WF9 3AP,Full accounts,Other textiles nec
53.53078,-0.65359,EMPIRE TAPES PLC,www.empiretapes.com,DN17 3RY,Full accounts,Other textiles nec
53.64006,-1.80205,BARGAIN BOX (UK) LIMITED,www.bargainbox.co.uk,HD4 5AA,Total Exemption Small,Wooden containers
53.97548,-1.56692,HARRISON GARDNER DYERS & WINDERS LIMITED,,HG3 1GY,Total Exemption Small,Finishing of textiles
53.75939,-1.73932,JOHN COTTON GROUP LIMITED,www.johncotton.co.uk,BD4 6SG,Group,Non-wovens exc. apparel
53.5815,-1.78095,S D C ENTERPRISES LIMITED,www.sdcenterprises.co.uk,HD9 3JL,Small company,Other textiles nec
53.62285,-1.81704,CHARIS RESOURCES LTD,,HD4 7AS,Total Exemption Full,Made-up textile exc apparel
53.86318,-1.91366,BRONTE GLEN LIMITED,www.bronteglen.co.uk,BD21 1PH,Total Exemption Small,Other textiles nec
53.45904,-1.00587,BAWTRY SAWDUST COMPANY LIMITED,,DN10 6HD,Total Exemption Small,Other products
53.77341,-1.72837,LINKOGEL AND FREEMAN LIMITED,,BD4 9NW,Total Exemption Small,Other textiles nec
54.27321,-0.41711,POLARIS BLINDS LIMITED,,YO12 4DX,Total Exemption Small,Other textiles nec
53.70126,-0.86999,WOODLAND FUELS LIMITED,,DN14 5QW,Not Available,Other products
53.79779,-1.71327,VR THE BLINDS COMPANY LTD,,BD3 8HY,Total Exemption Small,Other textiles nec
53.76936,-1.71271,MULTIPLE FABRIC COMPANY LIMITED,www.arville.com,BD4 9QX,Small company,Finishing of textiles
54.56854,-1.23911,LAURA DAY BRIDALWEAR LIMITED,www.lauraday-bridalwear.co.uk,TS1 3QS,Total Exemption Small,Other textiles nec
53.746,-2.013809,DOWER LIMITED,,HX7 8LN,Not Available,Other products
53.71779,-1.88659,R.E. DICKIE LIMITED,www.dickie.co.uk,HX1 3UB,Total Exemption Small,"Textile fibres preparation, spinning"
53.73252,-1.98655,CUSTOMISED SEWING SERVICES LTD,www.customisedsewingservices.co.uk,HX7 5AD,Micro-entity accounts,Finishing of textiles
53.8331,-1.8224,G. MODIANO LIMITED,www.gmodiano.com,BD16 1PE,Group,"Textile fibres preparation, spinning"
53.68557,-1.72506,JOHN COTTON GROUP LIMITED,www.johncotton.co.uk,WF14 0EH,Group,Non-wovens exc. apparel
53.60711,-1.79714,D.P. DYERS LIMITED,www.dpdyers.co.uk,HD9 6JL,Small company,Finishing of textiles
53.83988,-0.40088,CAPITAL PALLET SOLUTIONS LTD,www.capitalpalletsolutions.co.uk,HU17 0LF,Total Exemption Small,Other products
53.75735,-0.38868,PRENTICE & JACKSON LIMITED,www.pjpallets.co.uk,HU5 4HF,Total Exemption Small,Other products
53.61267,-1.15184,ASKERN UK LIMITED,www.aludraught.co.uk,DN6 0AA,Full accounts,Other products
53.77531,-0.32832,GARTHWEST LIMITED,www.garthwest.com,HU7 0XA,Full accounts,"Corrugated paper, containers"
53.98622,-1.10025,D H WRIGHT JOINERY LIMITED,,YO30 4XG,Total Exemption Small,Other products
53.82674,-1.73243,COS PRESENTATIONS LIMITED,,BD10 8SQ,Total Exemption Small,Carpets and rugs
53.59246,-1.64787,YORKSHIRE FUR FABRICS LIMITED,www.yorkshirefurfabrics.co.uk,HD8 9DZ,Group,Other textiles nec
53.75489,-0.33293,KINGSTON CARTON COMPANY LIMITED(THE),www.kingstoncarton.co.uk,HU2 0PS,Group,"Corrugated paper, containers"
53.81568,-0.37059,T. A. BARTLETT (PALLETS) LIMITED,www.tabartlettpallets.co.uk,HU17 0SF,Total Exemption Small,Wooden containers
53.81275,-1.54213,THE BLIND FACTORY (LEEDS) LIMITED,www.theblindfactoryleeds.co.uk,LS7 2AW,Total Exemption Small,Other textiles nec
53.59065,-1.85757,MELPACK LIMITED,,HD9 5LP,Total Exemption Small,"Corrugated paper, containers"
53.79589,-1.55832,NORTHERN DYERS LIMITED,,LS1 4BZ,Small company,"Other technical, industrial textiles"
53.70782,-1.68431,C A ENGLISH TEXTILE RECYCLING LIMITED,www.english-textiles.co.uk,WF15 6AR,Total Exemption Small,Other textiles nec
53.87989,-1.71927,THOMAS B. RAMSDEN & CO. (BRADFORD) LIMITED,www.tbramsden.co.uk,LS20 9PD,Full accounts,Finishing of textiles
53.63667,-1.66495,SMIRTHWAITE LIMITED,www.smirthwaite.com,WF4 4TD,,Other products
53.85287,-1.82981,MILTEX (UK) LIMITED,,BD16 4TE,Total Exemption Small,Other textiles nec
53.71209,-1.63983,DEEPSLEEP BEDS UK LTD,,WF17 5TH,Total Exemption Small,Other textiles nec
53.78607,-1.78107,FALLERBARS LIMITED,,BD7 3JG,Total Exemption Small,"Textile fibres preparation, spinning"
53.65846,-1.51622,ZIPPERTECH LIMITED,www.jomu.co.uk,WF2 7BJ,Total Exemption Small,Non-wovens exc. apparel
53.99109,-1.53351,ANTIFORM LTD,,HG1 5PR,Total Exemption Small,Other textiles nec
53.72346,-1.70928,WILSON INTERNATIONAL LIMITED,www.wilsontool.com,BD19 3RY,Total Exemption Small,Weaving of textiles
53.5207,-1.12343,MISSON PALLETS SERVICES LIMITED,,DN1 2EG,Total Exemption Small,Wooden containers
53.84301,-0.40266,BEVERLEY VENEERS LIMITED,www.beverleyveneers.com,HU17 0JJ,Small company,Other products
54.52355,-1.59212,MONBELLO BLINDS (NORTHERN) LIMITED,,DL3 8AZ,Not Available,Made-up textile exc apparel
53.68126,-1.83492,TEXFELT LIMITED,www.texfelt.co.uk,HX5 0HQ,Small company,"Textile fibres preparation, spinning"
53.93763,-1.3832,MULTIPLE FABRIC COMPANY LIMITED,www.arville.com,LS22 7DQ,Small company,Finishing of textiles
53.88365,-2.04563,THREE BEARS YARN LTD,,BD22 0DR,Total Exemption Small,Other textiles nec
53.66929,-1.4912,W.E.RAWSON LIMITED,www.rawsoncarpets.co.uk,WF1 5PS,Full accounts,Non-wovens exc. apparel
53.86295,-1.91375,KEIGHLEY TIMBER LIMITED,www.keighleytimber.co.uk,BD21 1PG,Total Exemption Small,Other products
53.67672,-1.37609,DS SMITH PACKAGING LIMITED,www.dssmith.com,WF7 5DF,Full accounts,"Corrugated paper, containers"
53.79741,-1.76397,WAULKMILLER LIMITED,,BD1 2RY,Not Available,Made-up textile exc apparel
53.93763,-1.3832,P & S TEXTILES LIMITED,www.pstextiles.co.uk,LS22 7DQ,Small company,Weaving of textiles
53.72595,-1.86599,MCANDREW (TEXTILES) LIMITED,www.mcandrewtextiles.co.uk,HX1 5DJ,Total Exemption Small,Carpets and rugs
53.95969,-2.0238,TAKARO SPORTSWEAR LIMITED,,BD23 1FL,Not Available,Other textiles nec
53.75806,-1.44385,RJB PAC LIMITED,www.rjbpac.com,LS26 8PS,Total Exemption Small,"Corrugated paper, containers"
53.66929,-1.4912,A CLEGG & SON LIMITED,www.rawsoncarpets.co.uk,WF1 5PS,Total Exemption Small,Non-wovens exc. apparel
53.69893,-1.52469,PENTEL CONTRACTS LIMITED,www.pentel-contracts.com,WF2 0JN,Total Exemption Small,Made-up textile exc apparel
53.75939,-1.73932,JAMES ROBINSON FIBRES LIMITED,www.jrfibres.co.uk,BD4 6SG,Group,"Textile fibres preparation, spinning"
53.713883,-1.917463,BRIDGE TIMBER PRODUCTS LIMITED,www.bridgetimber.com,HX6 2TN,Total Exemption Small,Other products
53.62086,-1.88635,MARLING & EVANS LIMITED,www.englishweavers.co.uk,HD7 5HA,Total Exemption Small,Other textiles nec
53.81924,-0.91724,HARMONY BLINDS LIMITED,www.blindsbyharmony.co.uk,YO8 6NF,Total Exemption Small,Made-up textile exc apparel
53.79338,-1.79326,FABRICISM UK LIMITED,,BD7 2QA,Not Available,Weaving of textiles
53.73406,-1.30035,HYPADAN LIMITED,www.hypadan.com,WF10 2RD,Total Exemption Small,Wooden containers
54.13581,-1.52359,SEW NEW LTD,,HG4 1BZ,Not Available,Made-up textile exc apparel
53.71199,-1.62798,EUROPA TRADING (GB) LTD,www.beds4less.net,WF17 5TD,Total Exemption Small,Other textiles nec
53.68522,-1.83143,CEL GLASS LTD,,HX5 9AU,Total Exemption Small,Weaving of textiles
54.5362,-1.5403,EVERGREEN PALLET SOLUTIONS (UK) LIMITED,www.evergreen-pallets.co.uk,DL1 2NG,Total Exemption Small,Wooden containers
53.79136,-1.3817,TRIPAK LTD,www.tripakltd.com,LS25 1HQ,Full accounts,"Corrugated paper, containers"
53.93262,-1.38161,WATERLINKS INVESTMENTS LIMITED,www.hwhinvestments.co.uk,LS22 7NS,Full accounts,"Other technical, industrial textiles"
53.74796,-1.76392,M & N PALLETS LTD,,BD12 0RY,Total Exemption Small,Wooden containers
53.56018,-0.68197,SPAVIN PALLETS LIMITED,,DN17 2BN,Total Exemption Small,Wooden containers
53.58296,-1.1813,FIREENGINES 4 SALE LIMITED,www.fireengines4sale.co.uk,DN6 8DP,Total Exemption Small,Finishing of textiles
53.74681,-0.25549,JAMES P SIM & CO. LIMITED,www.simpac.co.uk,HU9 5NL,Full accounts,"Corrugated paper, containers"
53.43252,-1.11575,BAWTRY SAWDUST COMPANY LIMITED,,DN11 9PL,Total Exemption Small,Other products
53.78025,-1.07393,BLINDS 2 U LIMITED,,YO8 4AU,Not Available,Made-up textile exc apparel
53.75256,-1.62779,GNE PACKAGING LIMITED,,LS27 7JU,Not Available,"Corrugated paper, containers"
53.77341,-1.72837,MILANO SOFT FURNISHINGS LTD,,BD4 9NW,Not Available,Made-up textile exc apparel
53.87613,-1.89614,EASTBURN FIREPLACES LIMITED,www.eastburnfireplaces.com,BD21 4BZ,Total Exemption Small,Other products
53.98861,-1.55198,J H ROLPH & SON LTD,www.jhrolphandson-harrogate.co.uk,HG2 0JX,Total Exemption Small,Other textiles nec
53.68389,-1.38275,SKH PALLETS LIMITED,www.skhpallets.co.uk,WF7 6HE,Total Exemption Small,Other products
53.6424,-1.76444,MTIX LTD,,HD5 9BB,Total Exemption Small,Finishing of textiles
53.47214,-1.05525,DESIGN AMBITION INTERIORS LIMITED,,DN11 0YG,Total Exemption Small,Made-up textile exc apparel
53.86478,-1.91686,PENNINE WEAVERS LIMITED,www.pennineweavers.co.uk,BD21 1SD,,Weaving of textiles
53.86111,-1.5465,ESS TEXTILES LIMITED,,LS17 7PD,Total Exemption Small,Other textiles nec
53.63851,-1.82694,LOREHOPE LIMITED,www.pennineblending.co.uk,HD3 4LN,Total Exemption Small,"Textile fibres preparation, spinning"
53.76708,-1.75006,DAVISON FENCING LIMITED,www.davisonfencing.co.uk,BD6 1YA,Total Exemption Small,Other products
53.67941,-1.78008,LINGCROFT ASSOCIATES LIMITED,www.uniformfabrics.co.uk,HD2 2JJ,Total Exemption Small,Other textiles nec
54.06689,-1.28864,LEEDS TEXTILE COMPANY LTD,,YO61 1UB,Total Exemption Small,Other textiles nec
53.56281,-0.03498,INDUSTRIAL BAGS AND COVERS LTD,,DN35 8BL,Total Exemption Small,Other textiles nec
53.67944,-1.58052,DEAN AUSTERFIELD FLOORING LTD,www.deanausterfieldflooring.co.uk,WF5 8NS,Total Exemption Small,Carpets and rugs
53.66005,-1.76844,BOLAM & SHAW LIMITED,www.bolamandshaw.co.uk,HD2 1YF,Total Exemption Small,Wooden containers
53.85232,-1.68459,BESPOKE CURTAIN COMPANY LIMITED,,LS19 6AX,Total Exemption Small,Finishing of textiles
53.75256,-1.62779,GREAT NORTHERN ENVELOPE COMPANY LIMITED,www.gne.co.uk,LS27 7JU,Full accounts,"Corrugated paper, containers"
53.64697,-1.84067,WHITEFORD (FELT & FILLINGS) LIMITED,,HD3 4TH,Total Exemption Small,Non-wovens exc. apparel
53.78607,-1.78107,A. & N. VEVERS LIMITED,www.anvevers.com,BD7 3JG,Total Exemption Small,"Textile fibres preparation, spinning"
53.75048,-1.74729,STEADFAST MANUFACTURING AND STORAGE LIMITED,www.steadfastworks.com,BD12 7BH,Total Exemption Small,Other products
53.68781,-1.6092,SKOPOS DESIGN LIMITED,www.skoposfabrics.com,WF12 8HT,Small company,Other textiles nec
53.73921,-1.87354,LADYSHIP CARPETS LIMITED,www.ladyshipcarpets.co.uk,HX3 5QN,Total Exemption Small,Carpets and rugs
53.65819,-1.83978,HUDDERSFIELD PALLETS (HUDDERSFIELD) LIMITED,,HD3 3SQ,Not Available,Wooden containers
53.70669,-1.91427,FAIRBANK TEXTILES LIMITED,www.fairbanktextiles.co.uk,HX6 3AN,Total Exemption Small,Other textiles nec
53.892592,-1.992006,THOMAS B. RAMSDEN & CO. (BRADFORD) LIMITED,www.tbramsden.co.uk,BD20 7NG,Full accounts,Finishing of textiles
53.59634,-1.83802,NORTHERN DYERS LIMITED,,HD9 4AN,Small company,"Other technical, industrial textiles"
53.73503,-1.88175,INTERFACE EUROPE LTD.,www.interfaceeurope.com,HX3 5LT,Group,Carpets and rugs
53.70397,-1.10571,GMT & CT LIMITED,,DN14 0QZ,Total Exemption Small,Other products
53.7744,-0.32833,CRATING SOLUTIONS UK LIMITED,www.cratingsolutions.co.uk,HU7 0XD,Total Exemption Small,Wooden containers
53.55746,-0.02517,P & L INTERIORS LIMITED,www.plinteriors.co.uk,DN35 8EX,Total Exemption Small,Made-up textile exc apparel
53.99211,-2.15208,OFFTREE LIMITED,www.offtree.co.uk,BD23 4EA,Total Exemption Full,"Textile fibres preparation, spinning"
53.56913,-1.79347,WINTERMANS RUGS LIMITED,,HD9 3BQ,Total Exemption Full,Carpets and rugs
53.77341,-1.72837,ARKOSE LIMITED,,BD4 9NW,Total Exemption Small,"Other technical, industrial textiles"
54.56314,-1.32554,FILTER SERVICES LIMITED,www.filterservices.co.uk,TS18 4AH,Total Exemption Small,Other textiles nec
53.48817,-1.01211,THE PALLET DOCTOR LIMITED,,DN9 3GA,Not Available,Wooden containers
54.52843,-1.54795,RATED UPHOLSTERY LTD,,DL1 1TD,Not Available,Made-up textile exc apparel
53.55577,-0.68123,SPAVIN PALLETS LIMITED,,DN17 2BW,Total Exemption Small,Wooden containers
53.68857,-1.85304,J. SPEAK & CO. LIMITED,www.jspeak.co.uk,HX4 8LT,Total Exemption Small,"Textile fibres preparation, spinning"
54.00355,-1.44997,CUT-TEX LIMITED,,HG5 8BS,Not Available,Other textiles nec
53.78005,-1.72104,SPINNERS (BRADFORD) LIMITED,,BD4 8RZ,Total Exemption Small,"Textile fibres preparation, spinning"
53.67015,-1.75862,TAG TOGS LTD,www.bencrossdev.co.uk,HD2 1HX,Total Exemption Small,Made-up textile exc apparel
54.08486,-0.20088,CRATES4YOU LIMITED,,YO16 4LZ,Total Exemption Small,Wooden containers
53.84027,-1.94425,LINEAR COMPOSITES LIMITED,www.linearcomposites.com,BD22 0EB,Full accounts,"Textile fibres preparation, spinning"
53.99998,-0.46238,MWE WOODWORKING LIMITED,,YO25 9DJ,Total Exemption Small,Assembled parquet floors
54.52756,-1.56138,EMMTEX LIMITED,www.emmtex.com,DL3 7BJ,Total Exemption Small,Non-wovens exc. apparel
53.67755,-1.8964,PETER JACKSON & SONS LIMITED,www.jacksontextiles.co.uk,HX4 0AD,Total Exemption Small,Other textiles nec
53.65938,-1.83513,VIECURA MEDICAL UK LIMITED,www.viecuragroup.com,HD3 3PW,Total Exemption Small,Other textiles nec
54.50852,-1.35446,AVA KNIT (G.B.) LIMITED,,TS15 9BH,Total Exemption Small,Knitted and crocheted fabrics
53.72304,-1.35292,GENERAL PATTERNS LIMITED,,WF10 4AL,Total Exemption Small,Other products
53.62285,-1.81704,VERY ENGLISH WEAVING COMPANY LTD.,,HD4 7AS,Not Available,Weaving of textiles
53.91158,-1.93539,SNUGPAK LIMITED,www.snugpak.com,BD20 0HA,Total Exemption Small,Other textiles nec
53.718484,-1.639439,D&K PALLETS LIMITED,www.dkpallets.co.uk,WF17 8LN,Total Exemption Small,Wooden containers
53.70956,-1.65889,THOMAS SCATCHARD & SONS LIMITED,www.scatchard.co.uk,WF16 0EQ,Total Exemption Small,Carpets and rugs
54.00239,-0.4423,GALTOPIA LIMITED,,YO25 6RP,Micro-entity accounts,Other products
53.56548,-1.06716,MARK PASHLEY LIMITED,www.markpashley.co.uk,DN3 1NR,Total Exemption Small,Made-up textile exc apparel
53.56904,-1.785,HOLMFIRTH DYERS LIMITED,www.holmfirthdyers.com,HD9 2DP,Full accounts,Finishing of textiles
53.71984,-1.85949,J.A.M.STANNERS LIMITED,,HX1 2HX,Total Exemption Small,Weaving of textiles
53.99109,-1.53351,SASHLESS WINDOW CO. LIMITED,www.sashless.com,HG1 5PR,Total Exemption Small,Other products
53.78401,-1.71607,JONATHAN HEALEY CURTAINS LTD,,BD4 8NZ,Total Exemption Small,Other textiles nec
53.78548,-1.7443,LUXURY CONTRACT FURNISHINGS LIMITED,www.abbotsford2010.co.uk,BD4 7DF,Full accounts,Made-up textile exc apparel
53.72418,-1.779,GMDENGINEERING SOLUTIONS LIMITED,,HD6 4DD,Not Available,Finishing of textiles
53.55755,-0.02532,P & L INTERIORS LIMITED,www.plinteriors.co.uk,DN35 8EU,Total Exemption Small,Made-up textile exc apparel
54.56502,-0.9647,TEXON NON WOVEN LTD,www.texon.com,TS12 2LH,Full accounts,Non-wovens exc. apparel
53.79876,-1.76965,P K TEXTILES LIMITED,,BD8 8JS,Not Available,Finishing of textiles
53.70669,-1.91427,FAIRBANK TRADING CO LIMITED,,HX6 3AN,Total Exemption Small,Other textiles nec
53.5722,-1.66098,TAYLORS CLOTH (HUDDERSFIELD) LTD,,HD8 8QH,Not Available,Other textiles nec
53.68144,-1.63806,CALDER TEXTILES LIMITED,www.atlanticyarns.co.uk,WF12 9QE,Full accounts,"Textile fibres preparation, spinning"
53.59435,-1.84942,LIGHTOWLERS YARNS LIMITED,www.lightowlersyarns.fusiveweb.co.uk,HD9 5QQ,Total Exemption Small,"Textile fibres preparation, spinning"
53.5815,-1.78095,SAM WELLER & SONS LIMITED,www.samwellerltd.co.uk,HD9 3JL,Total Exemption Small,"Textile fibres preparation, spinning"
53.72502,-1.72339,TANGO ALGINATE STITCHES LAUNDRY BAGS LIMITED,,BD19 3ER,Total Exemption Small,Other textiles nec
53.63969,-1.82116,R. HARDAKER & CO. LIMITED,www.hardakers.com,HD3 4GU,Total Exemption Small,Finishing of textiles
53.72849,-1.71182,WESTEX (CARPETS) LIMITED,www.westexcarpets.co.uk,BD19 3PS,Full accounts,Carpets and rugs
53.72502,-1.36817,CIRRUS LAMINATIONS LIMITED,,WF10 1NS,Small company,Other products
53.7321,-1.97938,"SUTCLIFFE,FARRAR & CO.LIMITED",www.fieldclassics.co.uk,HX7 5LT,Total Exemption Small,Finishing of textiles
53.72724,-1.58566,DRK PATTERNS & ENGINEERING SERVICES LIMITED,,WF3 1JJ,Total Exemption Small,Other products
53.73024,-1.66424,A1 QUILTING LTD,,WF17 9JX,Total Exemption Small,Made-up textile exc apparel
53.79749,-1.51834,LEEDS TEXTILE COMPANY LTD,,LS9 9LF,Total Exemption Small,Other textiles nec
53.70669,-1.91427,FAIRBANK TRADING CO LIMITED,,HX6 3AN,Total Exemption Small,Other textiles nec
53.89057,-1.73401,WOOL MATTERS LIMITED,,LS29 6JN,Total Exemption Small,Carpets and rugs
53.67051,-1.57715,RYALUX CARPETS LIMITED,www.ryalux.com,WF5 0AN,Full accounts,Carpets and rugs
53.77088,-1.54841,NORTHERN FLAGS LIMITED,www.northernflags.com,LS11 5WB,Total Exemption Small,Finishing of textiles
53.72525,-1.79277,BRAMBROOK TEXTILES LTD,,HX3 8RY,Total Exemption Small,Weaving of textiles
53.71804,-1.32212,POSKITT PALLETS LIMITED,www.poskitts.com,WF10 3HJ,Total Exemption Small,Other products
53.73682,-1.64945,DRANSFIELD CABINETS LIMITED,,WF17 9NE,Total Exemption Small,Other products
54.52908,-1.35871,COVERALL (PVC & CANVAS) LIMITED,www.coverall-pvc.co.uk,TS16 0RE,Total Exemption Small,Made-up textile exc apparel
53.74794,-1.47712,HOWARD MANUFACTURING LIMITED,,LS26 0BB,Total Exemption Small,Non-wovens exc. apparel
53.70101,-1.8667,QUILLNORTH LIMITED,www.quillnorth.com,HX3 0TJ,Total Exemption Small,Other textiles nec
53.90502,-1.64083,MARTON MILLS COMPANY LIMITED,www.martonmills.com,LS21 1TA,Medium Company,Weaving of textiles
53.72456,-1.71357,JDS SUPPLIES UK LTD,,BD19 5AE,Total Exemption Small,"Cordage, rope, twine, netting"
53.58075,-0.11548,GRIMSBY PALLET COMPANY LIMITED,,DN31 2TB,Not Available,Wooden containers
53.92982,-0.77991,THE WRIGHT TIMBER PRODUCTS LTD,,YO42 2QR,Total Exemption Small,Other products
53.68144,-1.63806,CALDER DYEING LIMITED,www.caldertextiles.co.uk,WF12 9QE,Small company,Finishing of textiles
53.75392,-1.81392,INTERFACE UK MANUFACTURING LIMITED,www.interfaceeurope.com,HX3 7PA,Full accounts,Carpets and rugs
54.28595,-1.5997,CARPRUG LIMITED,,DL8 1ET,Total Exemption Small,Other products
53.6225,-1.87998,BESP-OAK STRUCTURES LIMITED,,HD7 5JN,Not Available,Other products
53.73885,-1.72089,LEEDS PALLET COMPANY LIMITED,www.leedspallet.co.uk,BD19 4TT,Total Exemption Small,Other products
53.60983,-0.17247,WATSON PALLETS LIMITED,,DN41 8DS,Total Exemption Small,Wooden containers
53.62086,-1.88635,JOHN CAVENDISH LIMITED,www.johncavendish.co.uk,HD7 5HA,Total Exemption Small,"Textile fibres preparation, spinning"
53.79739,-1.5491,BRITANNIA TEXTILE CO. LIMITED,,LS1 2JP,Total Exemption Small,Other textiles nec
53.76244,-1.55682,BETTER BOUNCE LIMITED,www.betterbouncedirect.com,LS11 5SG,Total Exemption Small,Other textiles nec
54.23256,-1.34374,COLIN ALMACK LIMITED,,YO7 1HD,Total Exemption Small,Other products
53.72647,-1.36075,J W BROWNLEY LIMITED,www.brownleys.co.uk,WF10 1PE,Total Exemption Small,Other products
53.56237,-0.09523,S P MANUFACTURING COMPANY LIMITED,,DN34 4UE,Total Exemption Small,Other textiles nec
53.79446,-1.07933,CORINNE MOUNTAIN LTD,,YO8 3LZ,Total Exemption Small,Made-up textile exc apparel
53.99272,-1.54338,NEIL FIRTH SERVICES LTD,,HG1 2TJ,Not Available,"Other technical, industrial textiles"
53.68986,-1.32178,A R JOINERY (DESIGN & MANUFACTURE) LIMITED,,WF8 4AW,Total Exemption Small,Other products
53.79632,-1.5373,WORLD OF FIREWOOD LIMITED,,LS2 7DF,Not Available,Other products
53.68772,-1.63787,K & H ELLIS LIMITED,www.ellisjute.co.uk,WF12 9QB,Total Exemption Small,Other textiles nec
53.86137,-1.90954,GEORGE HATTERSLEY LIMITED,www.hattersley.co.uk,BD21 5JL,Total Exemption Full,Weaving of textiles
53.72774,-1.98162,CALDER WEAVING COMPANY LIMITED,www.calderweaving.com,HX7 5HZ,Total Exemption Small,Weaving of textiles
53.85958,-1.68849,OUTSIDE THE BOX (LEEDS) LTD,,LS19 7DB,Total Exemption Small,Finishing of textiles
54.56502,-0.9647,TEXON INTERNATIONAL GROUP LIMITED,www.texon.com,TS12 2LH,Group,Non-wovens exc. apparel
53.77445,-1.53287,GREYHOUND BOX LIMITED,www.greyhoundbox.co.uk,LS10 2BR,Total Exemption Small,"Corrugated paper, containers"
54.53642,-1.06794,EMERGENCY PREPAREDNESS SOLUTIONS LTD,,TS14 6LJ,Micro-entity accounts,"Other technical, industrial textiles"
53.86598,-1.90281,J.T.S. (CUSHIONS) LTD,www.jtscushions.co.uk,BD21 5JG,Total Exemption Small,Made-up textile exc apparel
53.70208,-1.67316,EDWARD KNEEN SONS & COMPANY LIMITED,,WF16 0NQ,Total Exemption Small,"Textile fibres preparation, spinning"
53.75796,-1.65876,STAR COVERS (LEEDS) LIMITED,www.starcovers-leeds.co.uk,BD11 1LN,Total Exemption Small,Made-up textile exc apparel
53.79131,-1.72002,BL11NDS LTD,,BD4 8AG,Total Exemption Small,Made-up textile exc apparel
53.79124,-1.76623,MASTER TECHNOLOGIES LTD,www.mastertechnologies.co.uk,BD7 1DP,Total Exemption Small,"Textile fibres preparation, spinning"
53.58357,-1.77762,THE RAG MAKERS LTD,,HD9 7RY,Total Exemption Small,Made-up textile exc apparel
53.79779,-1.55189,ATKINSONS FENCING AND DECKING CENTRES LIMITED,,LS1 2RX,Total Exemption Small,Other products
53.93327,-1.38038,REM TEXTILES LIMITED,,LS22 7SU,Not Available,Other textiles nec
53.58442,-1.71441,LEJISTA DESIGN STUDIO LTD,www.lejista.co.uk,HD8 8EY,Micro-entity accounts,Finishing of textiles
53.58228,-1.17921,PANTHER ENERGY SYSTEMS LTD.,,DN6 8DA,Not Available,Other products
53.67844,-1.65911,ULSTER YARNS LIMITED,www.ulstercarpets.com,WF13 3NA,Full accounts,"Textile fibres preparation, spinning"
53.91149,-1.31341,FOTOFABRIC LIMITED,www.picturestofabric.co.uk,LS23 7FG,Total Exemption Small,Made-up textile exc apparel
53.69619,-1.59615,WILSONS SECTIONAL BUILDINGS LIMITED,www.wilsonssectionalbuildings.co.uk,WF5 9AU,Total Exemption Small,Other products
53.97548,-1.56692,I'M FROM LIMITED,,HG3 1GY,Not Available,Finishing of textiles
53.7332,-0.36269,THE CHAISE LONGUE COMPANY LIMITED,www.thechaiselongueco.co.uk,HU3 4AY,Total Exemption Small,Made-up textile exc apparel
53.53452,0.00428,SECONDS X OUT LIMITED,,DN35 0PW,Total Exemption Small,Wooden containers
54.59174,-1.38839,SALOME INVESTMENTS LIMITED,,TS21 1DT,Total Exemption Full,Other products
53.73232,-1.33823,HYPADAN LIMITED,www.hypadan.com,WF10 2RY,Total Exemption Small,Wooden containers
53.5564,-1.14991,THE WOODEN MODEL COMPANY LIMITED,www.thewoodenmodelcompany.co.uk,DN5 0JR,Total Exemption Small,Other products
54.0649,-1.58546,FIRST CLOTHING LEEDS LIMITED,www.firstneatclothing.co.uk,HG3 3BF,Total Exemption Small,Other textiles nec
53.79307,-1.67871,SMURFIT KAPPA UK LTD,www.smurfitkappa.com,LS28 8HL,Full accounts,"Corrugated paper, containers"
53.52355,-1.13427,T.G. BROS LIMITED,www.tgbrosgroup.com,DN1 1ED,Total Exemption Small,Other textiles nec
53.86111,-1.5465,BRITANNIA TEXTILE CO. LIMITED,,LS17 7PD,Total Exemption Small,Other textiles nec
53.58761,-1.62696,PHOENOX TEXTILES LIMITED,www.howlerscratch.co.uk,HD8 9JS,Full accounts,Carpets and rugs
53.74899,-1.76518,PINELAP TIMBER PRODUCTS LIMITED,www.pinelap.co.uk,BD12 0QY,Total Exemption Small,Other products
53.71248,-1.78083,BRIAN WIDDOP PALLETS LIMITED,www.pallets-uk.co.uk,HD6 4BN,Total Exemption Small,Other products
53.86478,-1.91686,OGDEN FIBRES LIMITED,www.ogdenfibres.com,BD21 1SD,Total Exemption Small,Other textiles nec
53.70977,-1.6307,THE MOHAMMADI TRADING LIMITED,,WF17 5AJ,Micro-entity accounts,Made-up textile exc apparel
53.65506,-1.78668,PARAGON TEXTILES LIMITED,,HD1 5DX,Total Exemption Small,Weaving of textiles
53.7247,-1.71683,HARRISON TRIM SUPPLIES LIMITED,,BD19 3BH,Not Available,Carpets and rugs
53.64678,-1.784,J & J HAIGH LIMITED,,HD1 2EW,Total Exemption Small,Other textiles nec
53.75185,-0.27757,LILLYPAD LEISURE LTD.,,HU9 5SD,Total Exemption Small,Made-up textile exc apparel
53.97588,-1.05952,VINTAGE DESIGNS REBORN LTD,,YO31 9LS,Total Exemption Small,Made-up textile exc apparel
53.96097,-1.027749,THE STABLE COMPANY (YORK) LIMITED,www.thestablecompany.com,YO19 5UP,Total Exemption Small,Other products
53.81706,-1.71785,E.A. WHEELHOUSE (UNION MILLS) LIMITED,www.wheelhousepatterns.co.uk,BD2 3SP,Total Exemption Small,"Textile fibres preparation, spinning"
53.64019,-1.81001,"J.BRADBURY & COMPANY(SADDLEWORTH),LIMITED",www.bradburyfabrics.com,HD1 4TW,Full accounts,Other textiles nec
53.63545,-1.79342,MABTRADERS LIMITED,,HD1 3QP,Not Available,Made-up textile exc apparel
53.72066,-1.86452,THE PATTERN BOOK COMPANY LIMITED,www.PatternBook.co.uk,HX1 2EF,Total Exemption Small,Other textiles nec
53.75176,-0.14611,PAUL WRIGHT JOINERY LIMITED,www.paulwrightjoinery.co.uk,HU12 9HD,Total Exemption Small,Other products
53.90758,-1.67948,RYALUX CARPETS LIMITED,www.ryalux.com,LS21 1HL,Full accounts,Carpets and rugs
53.71863,-1.87302,MILTEX (SERVICES) LIMITED,www.wingtexlimited.com,HX1 1EB,Total Exemption Small,"Textile fibres preparation, spinning"
53.69844,-1.52929,MEWCAN LIMITED,,WF2 0BZ,Total Exemption Small,"Cordage, rope, twine, netting"
53.7407,-1.60997,BLINDS 2000 LTD,www.blinds-2000.co.uk,LS27 0PH,Total Exemption Small,Made-up textile exc apparel
53.75939,-1.73932,TEXTILES F.R. LIMITED,www.textilesfr.co.uk,BD4 6SG,Total Exemption Small,Finishing of textiles
54.0816,-0.19333,BRIDLINGTON BLINDS AND CURTAINS LIMITED,,YO15 3AT,Total Exemption Small,Other textiles nec
53.7497,-1.76376,KMK COMPENSATORS LIMITED,www.kmkcompensators.co.uk,BD12 0RA,Total Exemption Small,Made-up textile exc apparel
53.81024,-1.58562,CROWNFAST PRESENTATIONAL PACKAGING LIMITED,,LS4 2PU,Total Exemption Small,"Corrugated paper, containers"
54.66023,-1.20741,GASKELL MACKAY CARPETS LIMITED,,TS25 1HT,Full accounts,Carpets and rugs
53.76607,-0.36811,INTERIORS BY JANET EDSON LIMITED,,HU5 2DR,Total Exemption Small,Finishing of textiles
53.8065,-1.71991,PEACOCK FIBRES LIMITED,www.peacockfibres.co.uk,BD2 3LW,Total Exemption Small,"Textile fibres preparation, spinning"
54.67699,-1.21,WOODCRAFT (NORTH EAST) LIMITED,www.woodcraft-uk.com,TS25 1UP,Total Exemption Small,Wooden containers
53.90961,-2.06294,STEPHEN J. WILSON LIMITED,www.tiscoli.co.uk,BD20 8EN,Total Exemption Small,Weaving of textiles
53.6225,-1.87998,SHAW PALLET LIMITED,www.shawpallet.com,HD7 5JN,Small company,Wooden containers
53.65553,-0.59568,BUTTONSWOOD LIMITED,www.buttonswood.com,DN15 9QG,Total Exemption Small,Other products
53.57217,-0.07736,TECHNICAL ABSORBENTS LIMITED,www.techabsorbents.com,DN31 2SS,Full accounts,"Textile fibres preparation, spinning"
54.03104,-1.48418,J H ROLPH & SON LTD,www.jhrolphandson-harrogate.co.uk,HG5 9JA,Total Exemption Small,Other textiles nec
53.51594,-0.52584,REDWOOD SERVICES (LINCS) LIMITED,www.redwoodservices.co.uk,DN20 9PD,Total Exemption Small,Other products
54.68698,-1.20508,BROWN DOG CNC LIMITED,,TS24 7DN,Not Available,Other products
53.63856,-1.11343,CURTAINS AND BLINDS BY JAYNE LIMITED,,DN6 0EZ,Total Exemption Small,Made-up textile exc apparel
53.71943,-1.77715,"COPLEY,MARSHALL & CO.,LIMITED",www.copleymarshall.co.uk,HD6 4DJ,Total Exemption Small,"Textile fibres preparation, spinning"
53.63862,-1.78659,TAYLOR & LODGE (HUDDERSFIELD) LIMITED,www.taylorandlodge.com,HD1 3PE,Full accounts,Weaving of textiles
53.68268,-1.57653,DENTON HAMPSHIRE LIMITED,www.denton-hampshire.co.uk,WF5 9HQ,Total Exemption Small,Finishing of textiles
53.97757,-0.85645,EAST RIDING SACKS LIMITED,www.eastridingsacks.com,YO41 1HS,Full accounts,Made-up textile exc apparel
53.781884,-1.756237,LINKOGEL AND FREEMAN LIMITED,,BD4 9TF,Total Exemption Small,Other textiles nec
53.82004,-1.72813,P.D. PATTERN BOOKS LIMITED,www.pdpatternbooks.co.uk,BD2 2EW,Total Exemption Small,Carpets and rugs
53.77738,-0.34664,ORVEC INTERNATIONAL LIMITED,www.orvec.com,HU7 0YF,Full accounts,Non-wovens exc. apparel
53.65793,-1.78867,CAMIRA YARNS LIMITED,www.storkbrothers.co.uk,HD1 5EP,Full accounts,"Textile fibres preparation, spinning"
53.68339,-1.64062,WILLIAM S. GRAHAM LIMITED,www.fredlawton.com,WF12 9QF,Total Exemption Small,"Textile fibres preparation, spinning"
53.88184,-0.85357,PARAGON ASSETS LIMITED,,YO42 4SU,Total Exemption Small,"Textile fibres preparation, spinning"
53.879688,-1.91011,ROBERTS DYERS & FINISHERS LIMITED,www.robertsdyers.co.uk,BD20 6BN,Small company,Finishing of textiles
53.87989,-1.71927,R. HARDAKER & CO. LIMITED,www.hardakers.com,LS20 9PD,Total Exemption Small,Finishing of textiles
53.69269,-1.83393,DECORATIVE PANELS COMPONENTS LIMITED,www.decorativepanels.co.uk,HX5 9HF,Full accounts,Other products
53.70791,-1.62165,CEDRIC ROBERTS (TEXTILES) LIMITED,,WF17 6ER,Total Exemption Small,"Textile fibres preparation, spinning"
53.86348,-1.70309,CHROMATONE LIMITED,www.carpet-color.com,LS19 7EF,Total Exemption Small,Other textiles nec
53.66374,-1.54785,WILSONS SECTIONAL BUILDINGS LIMITED,www.wilsonssectionalbuildings.co.uk,WF4 6BW,Total Exemption Small,Other products
53.72993,-0.37922,THE CHAISE LONGUE COMPANY LIMITED,www.thechaiselongueco.co.uk,HU3 4UW,Total Exemption Small,Made-up textile exc apparel
53.66929,-1.4912,IMPRELINE TECHNOLOGIES LIMITED,www.rawsoncarpets.co.uk,WF1 5PS,Total Exemption Small,"Other technical, industrial textiles"
53.67699,-1.51484,NEWHEY CARPETS LIMITED,www.newheycarpets.co.uk,WF2 8UD,Total Exemption Small,Carpets and rugs
53.93833,-1.37946,LAURA'S BEAU LIMITED,www.laurasbeau.co.uk,LS22 7TW,Total Exemption Small,Made-up textile exc apparel
53.571,-1.66369,Z.HINCHLIFFE & SONS LIMITED,www.zhinchliffe.co.uk,HD8 8QL,Group,"Textile fibres preparation, spinning"
53.70811,-1.61162,NATIONAL FLOORCOVERINGS LIMITED,www.nationalfloorcovering.net,WF15 7XA,Full accounts,Carpets and rugs
53.96132,-2.01438,AIREDALE TREE SURGEONS LIMITED,,BD23 1EJ,Total Exemption Small,Other products
53.571,-1.66369,HAROLD HINCHLIFFE LIMITED,www.zhinchliffe.co.uk,HD8 8QL,Group,"Textile fibres preparation, spinning"
53.76453,-1.54896,DAWSON'S PATTERN WORKS LIMITED,,LS11 5SS,Total Exemption Small,Other products
53.75392,-1.81392,INTERFACE EUROPE LTD.,www.interfaceeurope.com,HX3 7PA,Group,Carpets and rugs
53.78122,-1.75509,CAVIALE LIMITED,,BD5 7JQ,Micro-entity accounts,Other textiles nec
53.83488,-1.51417,COTTON PLUS LINEN LTD,,LS8 1JQ,Total Exemption Small,Made-up textile exc apparel
53.9459,-1.89804,MAWDSLEY WILLIAMS LIMITED,www.mawdsleywilliams.co.uk,LS29 0PS,Total Exemption Small,Other products
53.66698,-1.51173,ECONOMY PACKING LIMITED,,WF2 8PT,Total Exemption Small,Wooden containers
53.79806,-1.57088,CHROMATONE LIMITED,www.carpet-color.com,LS12 2EJ,Total Exemption Small,Other textiles nec
53.7993,-1.5506,CULLINGWORTH SUMMERS AND CO. LIMITED,www.macdonaldmortgages.co.uk,LS1 2NE,Total Exemption Small,"Textile fibres preparation, spinning"
53.68199,-1.64824,PARAMOUNT QUILTING LTD,,WF13 3RQ,Total Exemption Small,Weaving of textiles
53.64954,-1.49699,NATIONWIDE CURTAIN MAKERS LTD,,WF2 7JE,Not Available,Made-up textile exc apparel
53.64438,-1.83245,MULTIFIBRES (1995) LTD.,www.multifibresltd.co.uk,HD3 4TG,Total Exemption Small,Other textiles nec
53.84612,-1.77778,K.W. FABRICS LTD.,,BD17 5TR,Total Exemption Small,Other textiles nec
53.56082,-1.81229,MOXON HUDDERSFIELD LIMITED,www.moxon.co.uk,HD9 2NN,Total Exemption Small,Weaving of textiles
53.86318,-1.91366,LINTON YARNS LIMITED,,BD21 1PH,Total Exemption Small,"Textile fibres preparation, spinning"
53.74682,-0.34147,ALDERWOOD FITTED FURNITURE LIMITED,www.alderwoodfurniture.co.uk,HU1 3TG,Total Exemption Small,Other products
53.63667,-1.66495,MACKWORTH HEALTHCARE LIMITED,www.mackworth-healthcare.com,WF4 4TD,,Other textiles nec
54.50597,-0.69518,JOHN BROADWOOD AND SONS LIMITED,,YO21 3RT,Total Exemption Small,Other products
53.5747,-0.62449,CHENEZ LIMITED,www.chenez.co.uk,DN16 1BD,Total Exemption Small,Other products
53.81275,-1.54213,COMMERCIALBLINDSUK LIMITED,www.commercialblindsuk.com,LS7 2AW,Total Exemption Small,Other textiles nec
53.67806,-1.73941,ANTICH & SONS (HUDDERSFIELD) LIMITED,www.cjantich.com,HD2 1UW,Full accounts,Weaving of textiles
53.56155,-1.65484,CEDRIC ROBERTS (TEXTILES) LIMITED,,HD8 8UA,Total Exemption Small,"Textile fibres preparation, spinning"
53.70889,-1.91179,J. & C. JOEL LIMITED,www.jcjoel.com,HX6 2QQ,Group,Other textiles nec
53.49973,-0.11122,SC RUGS AND HOMEWARE LIMITED,,DN37 0RF,Not Available,Carpets and rugs
53.63339,-1.79169,SOMAC THREAD MANUFACTURING LIMITED,www.somac.co.uk,HD4 6BW,Total Exemption Small,"Textile fibres preparation, spinning"
53.66929,-1.4912,LASERLINE SYSTEMS LIMITED,www.elizabethantextiles.co.uk,WF1 5PS,Total Exemption Small,Non-wovens exc. apparel
53.74633,-0.24829,C. JACKSON & SONS LIMITED,www.cjackson.co.uk,HU9 5NX,Total Exemption Small,Wooden containers
53.87767,-1.90035,WEST YORKSHIRE SPINNERS LIMITED,www.wyspinners.com,BD21 4DG,Full accounts,"Textile fibres preparation, spinning"
53.49218,-1.15266,PRODUCTIVITY AND PROCESS MANAGEMENT SERVICES LIMITED,,DN4 9AZ,Micro-entity accounts,Non-wovens exc. apparel
53.72066,-1.86452,CASHTEAR LIMITED,,HX1 2EF,Total Exemption Small,Finishing of textiles
53.64833,-1.7815,CLIFFE END YARNS LIMITED,,HD1 1PA,Not Available,Other textiles nec
53.73937,-1.86894,FRANCIS MOORE (SPECIALIST WEAVERS) LIMITED,www.fmoore.co.uk,HX3 6TR,Total Exemption Small,Weaving of textiles
53.91274,-1.18864,GRANT FIELDHOUSE (PROJECTS) LTD,,YO23 3PJ,Total Exemption Small,Other products
53.69893,-1.52469,DEARNLEYS LIMITED,www.dearnleys.com,WF2 0JN,Total Exemption Small,Made-up textile exc apparel
53.76208,-1.58591,ANCHOR EXPORT SERVICES LIMITED,www.anchorexport.co.uk,LS27 7SZ,Total Exemption Small,Wooden containers
53.74991,-1.6098,FAB WALLS UK LIMITED,,LS27 9RY,Not Available,Made-up textile exc apparel
54.13557,-0.79945,"GEORGE WOODALL & SONS,LIMITED",www.gwoodall.com,YO17 7LP,Total Exemption Small,Finishing of textiles
53.62524,-1.80465,PARK VALLEY DYERS LIMITED,www.holmfirthdyers.com,HD4 7BH,Total Exemption Small,Other textiles nec
53.67847,-1.57915,D.C. CONTRACTS NORMANTON LIMITED,,WF5 8AE,Total Exemption Small,Made-up textile exc apparel
53.58228,-1.17921,J.F.HODGETT & CO.LIMITED,,DN6 8DA,Total Exemption Small,Knitted and crocheted fabrics
53.70001,-1.92225,ALPACA COMFORT LTD,,HX6 3RX,Total Exemption Small,Non-wovens exc. apparel
53.5722,-1.66098,MARSH & CO FURNITURE & FURNISHINGS LTD,,HD8 8QH,Not Available,Made-up textile exc apparel
53.63999,-1.79246,S.K.A. TEXTILES LIMITED,www.skatextiles.co.uk,HD1 3LJ,Full accounts,Finishing of textiles
53.68339,-1.64062,CALDER GROUP (DEWSBURY) LIMITED,,WF12 9QF,Group,"Textile fibres preparation, spinning"
53.68635,-1.6259,HSA MANUFACTURING LTD,www.thehsagroup.co.uk,WF12 9AQ,Total Exemption Small,Other products
54.40712,-1.74771,IZZY LANE LIMITED,www.izzylane.co.uk,DL10 4DD,Total Exemption Small,Knitted and crocheted fabrics
53.724316,-1.857382,INTERLOGO LONDON LIMITED,www.interlogo.co.uk,HX1 1XG,Total Exemption Small,Other textiles nec
53.82907,-1.5898,SNAPIMPORTED LTD,,LS16 5RW,Total Exemption Small,Other textiles nec
53.8018,-1.53227,A. SHORES & CO. (LEATHER & CANVAS PRODUCTS) LIMITED,www.ashores.co.uk,LS2 7QG,Total Exemption Small,Non-wovens exc. apparel
53.679401,-1.500734,I-NITIALS FASHION LTD.,,WF1 5PF,Not Available,Finishing of textiles
53.8012,-1.81875,LEYTOP YARNS LIMITED,,BD15 7LT,Small company,"Textile fibres preparation, spinning"
54.1147,-1.18354,INDUSTRIAL TEXTILES & PLASTICS LTD,www.itpltd.com,YO61 3FA,Small company,"Cordage, rope, twine, netting"
53.62579,-1.87616,J.D.MATTHEWMAN(TEXTILES)LIMITED,www.bronte-tweeds.co.uk,HD7 5BQ,Total Exemption Small,Weaving of textiles
54.00355,-1.44997,BITEPRO LIMITED,,HG5 8BS,Not Available,Other textiles nec
53.83165,-1.43766,BLIND ALLEY LTD,,LS15 4TA,Total Exemption Small,Made-up textile exc apparel
53.79064,-1.71675,PAY WEEKLY BLINDS LTD,,BD4 8BX,Total Exemption Small,Made-up textile exc apparel
54.60563,-1.29743,VAN FIT DIRECT LIMITED,,TS23 2PF,Total Exemption Small,Other products
53.79728,-1.55489,IMAGE NEO LIMITED,,LS1 2TW,Not Available,Finishing of textiles
54.57789,-1.15495,CARGO PALLETS LIMITED,www.cargopallets.co.uk,TS6 7AA,Total Exemption Small,Other products
53.56851,-0.04724,DRAGONFLY EMBROIDERY LIMITED,www.dragonfly-promotions.co.uk,DN35 7DL,Total Exemption Small,Other textiles nec
53.68144,-1.63806,CALDERDALE CARPETS LIMITED,www.calderdalecarpets.com,WF12 9QE,Small company,Carpets and rugs
53.64438,-1.83245,BR WINDING SERVICES LIMITED,www.brwinding.co.uk,HD3 4TG,Total Exemption Small,Weaving of textiles
53.87989,-1.71927,ALFRED HALEY & CO. LIMITED,,LS20 9PD,Small company,Finishing of textiles
53.83282,-1.71847,LASSIERE MILLS LIMITED,www.lassieremills.co.uk,BD10 9TQ,Total Exemption Full,Other textiles nec
53.8702,-1.90677,TARN RUGS LTD,,BD21 3BB,Not Available,Carpets and rugs
53.59821,-1.9295,HEYFIELD ENGINEERING LIMITED,,HD7 6NU,Micro-entity accounts,"Textile fibres preparation, spinning"
53.68522,-1.83143,COOPERS WEAVING LIMITED,www.lowe-and-fletcher.co.uk,HX5 9AU,Total Exemption Small,Weaving of textiles
53.7526,-1.87362,ARK PALLETS AND FENCING LIMITED,www.arkpalletsandfencing.co.uk,HX3 6SN,Total Exemption Small,Other products
53.71199,-1.62798,QUILTING 4U LTD,,WF17 5TD,Total Exemption Small,Made-up textile exc apparel
53.79123,-1.72746,SPECIALITY PROCESSORS LIMITED,,BD3 9TP,Total Exemption Small,"Textile fibres preparation, spinning"
53.87989,-1.71927,ERIKA KNIGHT WITH RAMSDEN LIMITED,,LS20 9PD,Small company,"Textile fibres preparation, spinning"
53.92496,-1.79379,J.A.M.STANNERS LIMITED,,LS29 8BN,Total Exemption Small,Weaving of textiles
53.72353,-1.86275,VINTAGE SIGN BOUTIQUE LTD,,HX1 1HX,Total Exemption Small,Other products
53.67987,-1.58198,EDWARD CLAY & SON LIMITED,www.edwardclay.co.uk,WF5 8EX,Total Exemption Small,Other textiles nec
53.64833,-1.7815,GROSVENOR WEAVING COMPANY LIMITED,,HD1 1PA,Total Exemption Small,Weaving of textiles
53.77916,-1.85084,J.ORMONDROYD & COMPANY LIMITED,,BD13 1NQ,Total Exemption Small,"Textile fibres preparation, spinning"
53.68506,-1.43659,RIPLEY & BROUGHTON LIMITED,,WF1 5TL,Total Exemption Small,Wooden containers
53.86769,-1.91144,RAPID PACKAGING LIMITED,,BD21 2AU,Total Exemption Small,Finishing of textiles
53.98549,-1.9822,HIDEAWAY PRODUCTS (U.K.) LIMITED,,BD23 6SF,Total Exemption Small,Other textiles nec
54.08553,-0.1867,DEANY FABRICS LTD,,YO15 2QJ,Not Available,Made-up textile exc apparel
54.57213,-1.18215,PREMDOR CROSBY LIMITED,www.premdor.co.uk,TS6 6JB,Full accounts,Other products
53.57099,-0.66259,GEORGINA BARKER LTD,,DN17 1HB,Not Available,Made-up textile exc apparel
53.79855,-1.54853,ERIKA KNIGHT WITH RAMSDEN LIMITED,,LS1 5BD,Small company,"Textile fibres preparation, spinning"
53.79419,-1.74199,"JOHNSON & AKAM,LIMITED",www.johnson-akam.co.uk,BD1 5HW,Small company,"Corrugated paper, containers"
53.98247,-0.506569,ENGLISH TIMBERS LIMITED,www.englishtimbers.co.uk,YO25 9DU,Total Exemption Small,Other products
53.63391,-1.79431,SWIFT BLINDS LIMITED,www.swiftblinds-curtains.co.uk,HD1 3TG,Total Exemption Small,Made-up textile exc apparel
53.78721,-1.39139,HUDDERSFIELD CLOTH LIMITED,www.huddersfieldcloth.com,LS25 1LJ,Total Exemption Small,Other textiles nec
53.58228,-1.17921,MADDYS MARKT LTD.,,DN6 8DA,Total Exemption Small,"Textile fibres preparation, spinning"
53.76563,-1.5089,ECONOMY PACKING LIMITED,,LS10 1SE,Total Exemption Small,Wooden containers
53.55414,-0.67967,POWELL PACKAGING LIMITED,www.powellpackaging.co.uk,DN17 2AU,Total Exemption Small,"Corrugated paper, containers"
53.74518,-0.35242,BEAULAH WOODWORKING LIMITED,,HU2 8RU,Total Exemption Small,Other products
53.84668,-1.5814,NANCY ROSE COLLECTIONS LTD,,LS16 8NZ,Not Available,Made-up textile exc apparel
53.74398,-1.35174,BEAMFEATURE LIMITED,www.beamfeature.co.uk,WF10 2AL,Full accounts,Made-up textile exc apparel
53.73058,-0.38533,BWB MANUFACTURING LIMITED,www.bwbmanufacturing.co.uk,HU4 6PA,Total Exemption Small,Wooden containers
53.80528,-1.66625,GARAGE RE-VAMPS LTD.,www.garagerevamps.co.uk,LS28 6ES,Total Exemption Small,Finishing of textiles
53.65518,-1.77289,HAROLD HINCHLIFFE LIMITED,www.zhinchliffe.co.uk,HD1 6PT,Group,"Textile fibres preparation, spinning"
53.99188,-1.53986,WHITE ROSE COOPERAGE LIMITED,,HG1 1NJ,Total Exemption Small,Wooden containers
53.81194,-1.64679,ALFRED BROWN(WORSTED MILLS) LIMITED,www.alfredbrown.co.uk,LS13 3HG,Group,Weaving of textiles
53.70415,-0.87404,HALIFAX SPINNING MILL LIMITED,,DN14 5BT,Total Exemption Small,"Textile fibres preparation, spinning"
53.7984,-1.77242,FALAK FASHION LTD,,BD8 8JZ,Total Exemption Small,Other textiles nec
53.78741,-1.66936,CARTONI LTD,,LS28 8LZ,Total Exemption Small,"Corrugated paper, containers"
53.71953,-1.8577,JOHN CROSSLEY AND SONS LIMITED,,HX1 2LE,Total Exemption Small,Carpets and rugs
53.60475,-1.78984,MTIX LTD,,HD9 6PA,Total Exemption Small,Finishing of textiles
53.87605,-1.86913,FISHER FABRICS LTD,www.fisherfabrics.co.uk,BD20 5WD,Total Exemption Small,Made-up textile exc apparel
53.90565,-1.69115,NORTH YORKSHIRE WOODCHIP LIMITED,,LS21 1AG,Not Available,Other products
53.70936,-1.86054,CONCEPTS DESIGN & BUILD LIMITED,,HX3 0BH,Total Exemption Small,Other products
53.8351,-1.51068,HATTERSLEY ALADDIN LIMITED,www.hattersley.co.uk,LS8 1JF,Small company,Weaving of textiles
54.34016,-1.43401,JAMES JOHNSTON & CO. OF ELGIN LIMITED,www.johnstonscashmere.com,DL7 8PP,Group,Weaving of textiles
53.48344,-0.59518,KIRTON SECTIONAL BUILDINGS LIMITED,www.kirtonbuildings.co.uk,DN21 4BD,Total Exemption Small,Other products
53.87134,-1.93431,GREENFIELD TEXTILES LIMITED,,BD22 6PA,Total Exemption Small,"Other technical, industrial textiles"
53.59382,-1.72799,JAMES CROWTHER FABRICS LIMITED,,HD4 6XH,Total Exemption Small,"Textile fibres preparation, spinning"
53.78928,-1.71498,PETER RAMSEY & SONS (DENHOLME) TIMBER LIMITED,www.ramsey-uk.com,BD4 8BW,Medium Company,Other products
53.5722,-1.66098,HUDDERSFIELD TEXTILES LIMITED,,HD8 8QH,Not Available,Other textiles nec
53.82047,-1.75961,RELGA LIMITED,www.wtjohnson.co.uk,BD2 1BL,Full accounts,Finishing of textiles
54.06153,-1.70236,INTEGRATED LABORATORY SERVICES LTD.,www.fumecupboards-direct.com,HG3 4LA,Total Exemption Small,Other products
53.77262,-1.50539,GEOFABRICS LIMITED,www.geofabrics.com,LS10 1RZ,Full accounts,"Other technical, industrial textiles"
53.85275,-1.05152,YORK TIMBER PRODUCTS LTD,www.yorktimberproducts.co.uk,YO19 6ED,Total Exemption Small,Other products
53.74423,-1.77133,LEYTOP YARNS LIMITED,,BD12 8EU,Small company,"Textile fibres preparation, spinning"
53.61344,-1.90558,TOWNEND WEAVING LTD,www.commissionweavers.co.uk,HD7 6LS,Total Exemption Small,Weaving of textiles
53.79614,-1.62333,BLAKES BLINDS LIMITED,,LS12 5QB,Total Exemption Small,Made-up textile exc apparel
53.837,-1.76914,PFF PRESENTATION PRODUCTS LIMITED,www.presentation-products.co.uk,BD17 7AD,Total Exemption Small,"Corrugated paper, containers"
53.8466,-1.63247,SMARTLIFEINC LIMITED,www.smartlifeinc.com,LS18 5NT,Total Exemption Small,"Other technical, industrial textiles"
53.73814,-1.77574,UNIVERSAL CARBON FIBRES LIMITED,www.textechindustries.com,BD12 8LA,Small company,"Textile fibres preparation, spinning"
53.83851,-1.7712,GENESIS PATTERNS LIMITED,,BD17 7AZ,Total Exemption Small,Other textiles nec
53.66369,-1.69973,SJS TRADING LIMITED,www.plantationrug.co.uk,WF14 8EW,Total Exemption Full,Carpets and rugs
54.61251,-1.2625,HARDWOOD PROFILES LTD,,TS23 4BX,Not Available,Other products
54.3444,-1.38271,LAURENCE CARLTON LIMITED,,DL6 3RA,Total Exemption Small,Finishing of textiles
54.00585,-1.46359,FLYING COLOURS FLAGMAKERS LIMITED,www.flyingcolours.org,HG5 8PP,Total Exemption Small,Other textiles nec
53.73413,0.02848,ANIMAL CARE PRODUCTS LIMITED,,HU19 2AT,Total Exemption Small,Other products
53.73098,-1.71104,D&M MIDDLETON MANUFACTURING LIMITED,,BD19 4GF,Not Available,Carpets and rugs
53.74518,-0.35242,G. K. BEAULAH & COMPANY LIMITED,www.beaulah.com,HU2 8RU,Total Exemption Small,Other products
53.63073,-1.79021,PREMIER WORSTEDS OF YORK LIMITED,,HD4 6BB,Total Exemption Small,Other textiles nec
53.7675,-1.71372,ABINGDON FLOORING LIMITED,www.abingdonflooring.co.uk,BD4 9RT,Full accounts,Carpets and rugs
53.64438,-1.83245,WOOLTEX U.K. LIMITED,www.wooltexuk.com,HD3 4TG,Medium Company,Other textiles nec
53.68226,-1.73687,SPECTRUM DYERS LIMITED,,HD5 0RR,Total Exemption Small,"Textile fibres preparation, spinning"
53.83668,-1.75812,ASC CARTONS LIMITED,www.ascdirect.co.uk,BD18 1DZ,,"Corrugated paper, containers"
53.59138,-1.61997,PHOENOX TEXTILES LIMITED,www.howlerscratch.co.uk,HD8 9HH,Full accounts,Carpets and rugs
53.55844,-0.50075,QK HONEYCOMB PRODUCTS LIMITED,www.qkhoneycomb.co.uk,DN20 8UJ,Full accounts,"Corrugated paper, containers"
54.0904,-1.41196,KIRBY JOINERY LIMITED,www.kirbyjoinery.co.uk,YO51 9LS,Total Exemption Small,Other products
53.68522,-1.83143,THS INDUSTRIAL TEXTILES LIMITED,www.thstextiles.co.uk,HX5 9AU,Total Exemption Small,"Other technical, industrial textiles"
53.77029,-1.72365,DAVY TEXTILES LIMITED,www.davytextiles.co.uk,BD4 6HQ,Total Exemption Small,Other textiles nec
53.63946,-1.80381,RAMSDEN BROS. (HUDDERSFIELD) LIMITED,,HD4 5AH,Total Exemption Small,Weaving of textiles
53.78374,-1.52729,ZIPPERTECH LIMITED,www.jomu.co.uk,LS10 1QP,Total Exemption Small,Non-wovens exc. apparel
53.71385,-1.91642,BRIDGE TIMBER PRODUCTS LIMITED,www.bridgetimber.com,HX6 2TL,Total Exemption Small,Other products
53.60628,-1.7816,JFG TEXTILES LIMITED,,HD9 6LF,Total Exemption Small,Knitted and crocheted fabrics
53.66929,-1.4912,BRAVESHIRE LIMITED,www.rawsonfillings.com,WF1 5PS,Group,Non-wovens exc. apparel
53.84833,-1.67696,CROSS PARK CURTAINS LTD,,LS19 6HB,Not Available,Made-up textile exc apparel
53.72502,-1.36817,LAMBSON BUILDING PRODUCTS LIMITED,www.lambsonbpl.com,WF10 1NS,Medium Company,Other products
53.8702,-1.90677,UNEN LTD,,BD21 3BB,Not Available,Other textiles nec
53.62002,-0.66194,CORRBOARD UK LIMITED,www.corrboarduk.co.uk,DN15 9GE,Full accounts,"Corrugated paper, containers"
53.797584,-1.769202,V. & A. PRODUCTS LIMITED,www.miit.co.uk,BD8 8JN,Total Exemption Small,Other textiles nec
53.703199,-1.763659,INTERFACE EUROPE LTD.,www.interfaceeurope.com,HD6 4LJ,Group,Carpets and rugs
53.74818,-0.425,S.C. FOSTER (COVERS) LTD,,HU10 6RJ,Total Exemption Small,Made-up textile exc apparel
53.77785,-0.28999,TWO BROTHERS ENTERPRISES LIMITED,,HU8 9HJ,Not Available,Finishing of textiles
53.83752,-1.78269,OLDGATE TEXTILES LIMITED,,BD17 7EZ,Total Exemption Small,Made-up textile exc apparel
53.57516,-0.07228,A & D CURTAINS LTD,,DN31 3ER,Not Available,Made-up textile exc apparel
54.17424,-1.48283,MADEIRA UK LIMITED,www.madeira.co.uk,HG4 5GZ,Small company,Finishing of textiles
53.66385,-1.68095,CAMIRA FABRICS LIMITED,www.camirafabrics.com,WF14 8HE,Full accounts,Weaving of textiles
53.781884,-1.756237,M.LINKOGEL & CO.LIMITED,www.linkogel.com,BD4 9TF,Total Exemption Small,Other textiles nec
53.95622,-1.06739,DS SMITH CORRUGATED PACKAGING LIMITED,www2.dssmithpackagingeurope.com,YO10 3WW,Full accounts,"Corrugated paper, containers"
53.62086,-1.88635,JJB MENDING LTD,,HD7 5HA,Total Exemption Small,Other textiles nec
53.62086,-1.88635,SCHOFIELD & SMITH (HUDDERSFIELD) LIMITED,www.schofieldandsmith.co.uk,HD7 5HA,Total Exemption Small,Other textiles nec
53.99288,-1.5367,FRANKLIN WORK LTD,,HG1 5LF,Total Exemption Small,Wooden containers
53.79401,-1.85312,NOVATEX (BRADFORD) LIMITED,www.cardindia.com,BD13 3PQ,Total Exemption Small,"Textile fibres preparation, spinning"
53.75852,-1.78451,BULMER & LUMB GROUP LIMITED,www.bulmerlumb.com,BD6 2NE,Group,"Textile fibres preparation, spinning"
53.71343,-0.18661,BOBBINS & LACE LTD,,HU12 8AZ,Total Exemption Small,Finishing of textiles
53.63036,-1.84795,PINELAP TIMBER PRODUCTS LIMITED,www.pinelap.co.uk,HD7 5QX,Total Exemption Small,Other products
53.49961,-1.11769,"SUTCLIFFE,FARRAR & CO.LIMITED",www.fieldclassics.co.uk,DN4 5JQ,Total Exemption Small,Finishing of textiles
53.86329,-1.69148,ABRAHAM MOON & SONS LIMITED,www.moonsfurnishings.com,LS20 9PA,Full accounts,"Textile fibres preparation, spinning"
53.68465,-1.71681,BILANCO LIMITED,www.bilancoblinds.co.uk,WF14 0HB,Total Exemption Small,Other textiles nec
53.66855,-1.94799,RYBURN VALLEY FURNITURE LIMITED,www.ryburnvalleyfurniture.co.uk,HX6 4EH,Total Exemption Small,Other products
53.65511,-1.51658,JONS SHEDS DIRECT LIMITED,,WF4 3BB,Not Available,Other products
53.85958,-1.68849,FOCUS BRANDING LIMITED,,LS19 7DB,Total Exemption Full,Finishing of textiles
53.8286,-1.94814,WYEDEAN WEAVING COMPANY LIMITED(THE),www.wyedean.com,BD22 8PA,Small company,Other textiles nec
53.67051,-1.57715,BURMATEX LIMITED,www.burmatex.co.uk,WF5 0AN,Full accounts,Carpets and rugs
53.68497,-1.64875,FELT SUPPLIES LTD,,WF13 3QL,Total Exemption Small,Other textiles nec
54.57051,-1.22139,GASKELL MACKAY CARPETS LIMITED,,TS4 2ED,Full accounts,Carpets and rugs
53.68412,-1.83793,JACKSONS OF HEBDEN BRIDGE LIMITED,,HX5 0AE,Total Exemption Small,Other textiles nec
53.72502,-1.36817,LAMINATED PRODUCTS LIMITED,www.lambsonbpl.com,WF10 1NS,Small company,Other products
53.50296,-1.12783,MDL (CHESTERFIELD) LTD,www.mdlfurnishings.com,DN4 8DE,Total Exemption Full,Made-up textile exc apparel
53.8736,-1.9051,GRIMSHAW BROTHERS LIMITED,www.regalblinds.co.uk,BD21 3LE,Total Exemption Small,Other textiles nec
53.75236,-0.32649,N.B.M.TIMBER PRODUCTS LIMITED,www.nbmstagedecking.co.uk,HU8 7BG,Total Exemption Small,Wooden containers
53.56718,-0.06202,RIPLEY & BROUGHTON LIMITED,,DN32 7LE,Total Exemption Small,Wooden containers
53.99265,-1.53755,DISHANG FASHION LTD,,HG1 1TS,Not Available,Knitted and crocheted fabrics
53.84282,-1.63922,PP & G SOLUTIONS LIMITED,www.ppandgsolutions.com,LS18 5RF,Total Exemption Small,Other textiles nec
53.67907,-1.54843,XAMAX CLOTHING COMPANY LIMITED,www.xamax.co.uk,WF5 9SQ,Total Exemption Small,Finishing of textiles
53.76184,-1.83925,BUILD A BOX LTD,,BD13 2QT,Total Exemption Small,"Corrugated paper, containers"
53.5747,-0.62449,CHENEZ INTERIORS LIMITED,www.chenez.co.uk,DN16 1BD,Total Exemption Small,Other products
53.56445,-1.80381,PREMIER HANK DYERS LIMITED,www.premierhank.co.uk,HD9 2PX,Total Exemption Small,Finishing of textiles
53.6539,-0.5969,BUTTONSWOOD LIMITED,www.buttonswood.com,DN15 9RN,Total Exemption Small,Other products
53.71009,-1.68984,MILLBRIDGE SPINNING COMPANY LIMITED,www.drl-engineering.co.uk,WF15 6JL,Total Exemption Small,"Textile fibres preparation, spinning"
53.85287,-1.82981,MILTEX (SERVICES) LIMITED,www.wingtexlimited.com,BD16 4TE,Total Exemption Small,"Textile fibres preparation, spinning"
54.14813,-1.29449,GEORGIA WILKINSON LTD,,YO61 2QF,Total Exemption Small,Made-up textile exc apparel
53.87989,-1.71927,LAXTONS LIMITED,www.laxtons.com,LS20 9PD,Total Exemption Small,Other textiles nec
53.43128,-1.10949,SYMX PRINTING & EMBROIDERY SOLUTIONS LIMITED,,DN11 9QU,Not Available,Other textiles nec
53.95622,-1.06739,SAICA PACK UK LIMITED,www.saica.com,YO10 3WW,Full accounts,"Corrugated paper, containers"
54.27901,-0.40799,S TAYLOR & SON LIMITED,www.stsjoinery.co.uk,YO11 1TS,Total Exemption Small,Assembled parquet floors
53.89422,-0.9731,URCHIN LIMITED,,YO19 6AG,Micro-entity accounts,Made-up textile exc apparel
53.68026,-1.65288,LAWTON YARNS LIMITED,www.fredlawton.com,WF13 3JF,Full accounts,"Textile fibres preparation, spinning"
53.70757,-1.6116,"JOSHUA ELLIS AND COMPANY,LIMITED",www.joshuaellis.co.uk,WF17 6GH,Full accounts,"Textile fibres preparation, spinning"
53.79196,-1.5156,HYPADAN LIMITED,www.hypadan.com,LS9 8QJ,Total Exemption Small,Wooden containers
53.66229,-1.70242,CAMIRA TRANSPORT FABRICS LIMITED,www.camirafabrics.com,WF14 8EL,Full accounts,Weaving of textiles
53.7986,-1.55352,BRANDED PACKAGING LTD,,LS1 2JT,Total Exemption Small,"Corrugated paper, containers"
53.69955,-1.60819,CARTONAGE LIMITED,www.cartonage.com,WF12 7RD,Medium Company,"Corrugated paper, containers"
53.83139,-0.40082,FABRICS (UK) LIMITED,,HU17 0TB,Total Exemption Small,Made-up textile exc apparel
54.60563,-1.29743,VANSPEC RACKING LIMITED,,TS23 2PF,Total Exemption Small,Other products
53.71726,-1.27476,INDUSTRIAL PALLET AND TRANSPORT SERVICES LIMITED,www.industrialpalletservices.co.uk,WF11 8RD,Total Exemption Small,Other products
53.63969,-1.82116,M.N.S. TEXTILES LIMITED,www.mnstextiles.co.uk,HD3 4GU,Total Exemption Small,Knitted and crocheted fabrics
53.92386,-1.8229,WEAVERBIRD WORKSHOP LIMITED,www.weaverbird.co.uk,LS29 9JD,Total Exemption Small,Other products
53.71943,-1.77715,H. & C. WHITEHEAD LIMITED,www.hcwhitehead.co.uk,HD6 4DJ,Small company,Finishing of textiles
53.73499,-1.589,J.D.MATTHEWMAN(TEXTILES)LIMITED,www.bronte-tweeds.co.uk,LS27 0HL,Total Exemption Small,Weaving of textiles
53.59852,-1.85363,N B FABRICS LIMITED,www.nbfabrics.co.uk,HD9 5RQ,Total Exemption Small,Other textiles nec
53.78374,-1.52729,BUTTON'S JOINERY LIMITED,www.wbutton.com,LS10 1QP,Total Exemption Small,Other products
53.68464,-1.63912,G - TUFT LIMITED,,WF12 9QT,Full accounts,Carpets and rugs
53.68014,-1.3602,WOODSTOCK TIMBER YARD LIMITED,www.woodstocktimberproducts.co.uk,WF7 6EQ,Total Exemption Small,Other products
53.70691,-1.51042,JS CURTAINS AND BLINDS LTD,www.jscurtainsandblinds.co.uk,WF1 2NQ,Total Exemption Full,Made-up textile exc apparel
53.7934,-1.75247,ACADEMIA UNIFORMS LTD,,BD1 1NE,Total Exemption Small,Other textiles nec
53.75165,-0.3383,KINGSTON CRAFTSMEN STRUCTURAL TIMBER ENGINEERING LIMITED,www.kingston-craftsmen.co.uk,HU2 0AB,Total Exemption Small,Other products
53.99211,-1.53471,BATLEY & ROBINSON(WORSTEDS)LIMITED,www.batleyandrobinson.com,HG1 5PD,Total Exemption Small,"Textile fibres preparation, spinning"
54.08486,-0.20088,BRIDLINGTON BLINDS AND CURTAINS LIMITED,,YO16 4LZ,Total Exemption Small,Other textiles nec
53.70085,-1.60598,DEPENDABLE PACKAGING LIMITED,,WF12 7RF,Total Exemption Small,"Corrugated paper, containers"
53.62555,-1.89296,KERSHAW TEXTILE CONSULTANCY LIMITED,www.kershawtextiles.co.uk,HD7 5DR,Total Exemption Small,"Textile fibres preparation, spinning"
53.5471,-1.14027,SOUTH YORKSHIRE TRUSS SUPPLIES LIMITED,www.sytrusssupplies.co.uk,DN5 0SJ,Total Exemption Small,Other products
53.65394,-1.52078,BEVERLY HILLS PET CLUB LIMITED,,WF2 7AR,Total Exemption Small,Carpets and rugs
54.69965,-1.22032,DS SMITH CORRUGATED PACKAGING LIMITED,www2.dssmithpackagingeurope.com,TS24 0RB,Full accounts,"Corrugated paper, containers"
53.70188,-1.60514,DORMEUIL MANUFACTURING LIMITED,www.minova.co.uk,WF12 7TH,Full accounts,Weaving of textiles
53.56461,-0.09223,EUROPA INDUSTRIES LIMITED,www.europa-industries.co.uk,DN31 2LP,Total Exemption Small,"Corrugated paper, containers"
53.74613,-0.73309,"DELSTAR INTERNATIONAL, LIMITED",www.delstarinc.com,HU15 2TD,Small company,Non-wovens exc. apparel
53.94195,-1.38781,WAXWING DESIGNS LIMITED,,LS22 7QE,Not Available,Other products
53.67732,-0.3278,SCULLION ENTERPRISE LIMITED,www.nauticalrope.co.uk,DN19 7GA,Micro-entity accounts,Other products
53.80845,-1.53607,SHAKESPEARE BEDS LIMITED,,LS7 2BB,Total Exemption Small,Other products
54.39039,-1.9428,RUG AID COMMUNITY INTEREST COMPANY,,DL11 6QT,Total Exemption Full,Other textiles nec
53.7968,-1.66367,CROWN TO CUFF TAILORING LIMITED,,LS28 7LG,Total Exemption Small,Finishing of textiles
53.64903,-1.78236,BATLEY & ROBINSON(WORSTEDS)LIMITED,www.batleyandrobinson.com,HD1 1DR,Total Exemption Small,"Textile fibres preparation, spinning"
53.92985,-1.37517,EDEN COTTAGE YARNS LTD,,LS22 6JX,Total Exemption Small,"Textile fibres preparation, spinning"
53.57425,-1.75612,SAVILE CLIFFORD LIMITED,www.savileclifford.com,HD9 7EN,Small company,Weaving of textiles
53.97709,-1.11058,RHOUDS LIMITED,,YO30 5PA,Total Exemption Small,"Other technical, industrial textiles"
53.74518,-0.35242,WOOD DESIGN COMPANY LIMITED,www.thewooddesigncompany.co.uk,HU2 8RU,Total Exemption Small,Other products
53.65438,-1.82574,WOOLLEN SPINNERS (HUDDERSFIELD) LIMITED,www.woollenspinners.com,HD3 3HR,Total Exemption Small,"Textile fibres preparation, spinning"
54.07504,-1.99394,KENT FURNITURE (PROPERTIES) LIMITED,www.royaloakfurniture.com,BD23 5BD,Total Exemption Small,Other products
53.53542,-0.04471,GRIMSBY PALLET COMPANY LIMITED,,DN36 4AS,Not Available,Wooden containers
53.80082,-1.6868,JAMPOT AND SUNDAY LIMITED,www.jampotandsunday.com,LS28 7QL,Total Exemption Small,Made-up textile exc apparel
53.98591,-2.101,MAWDSLEY WILLIAMS LIMITED,www.mawdsleywilliams.co.uk,BD23 3SE,Total Exemption Small,Other products
53.76315,-0.37207,MADE BY WOOD & WOOD LTD,,HU5 4ED,Not Available,Other products
53.68724,-1.57932,EDWARD CLAY & SON LIMITED,www.edwardclay.co.uk,WF5 9NF,Total Exemption Small,Other textiles nec
53.80832,-1.529,ENSIGN BADGES LIMITED,www.ensignbadges.com,LS7 1QN,Total Exemption Small,Other textiles nec
53.56305,-0.6511,WRAITH JOINERY LIMITED,,DN16 3JE,Total Exemption Small,Assembled parquet floors
53.78548,-1.7443,WINDSOR & YORK LIMITED,,BD4 7DF,Not Available,Made-up textile exc apparel
53.85958,-1.68849,WEAVABEL GROUP LIMITED,www.weavabel.com,LS19 7DB,Total Exemption Small,Finishing of textiles
53.86657,-1.91689,L&S PRINTS DIGITAL LIMITED,www.lsprints.co.uk,BD21 2LH,Total Exemption Small,Other textiles nec
53.83747,-1.52627,A.N.K GLOBAL LIMITED,,LS8 1RF,Not Available,Made-up textile exc apparel
53.86081,-1.70226,EDEN COTTAGE YARNS LTD,,LS19 7RF,Total Exemption Small,"Textile fibres preparation, spinning"
54.12026,-0.54307,CHOOKEYS LIMITED,,YO17 8TQ,Not Available,Made-up textile exc apparel
53.6225,-1.87998,SHAW TIMBER LIMITED,www.shawtimber.com,HD7 5JN,Full accounts,Other products
53.76867,-1.12277,4 PACKAGING SOLUTIONS LIMITED,,YO8 9PU,Total Exemption Small,"Corrugated paper, containers"
53.81016,-1.51285,J.W.PLANT & CO.LIMITED,www.the-flag-company.co.uk,LS9 7AJ,Total Exemption Small,Other textiles nec
53.65828,-1.81269,N.W. TEXTILES LIMITED,,HD3 3BQ,Total Exemption Small,"Textile fibres preparation, spinning"
53.93605,-1.90315,READSHAW TIMBER LIMITED,www.readshawinteriors.co.uk,LS29 0LJ,Total Exemption Small,Wooden containers
53.81194,-1.64679,BROWN & SONS (BRAMLEY) LIMITED,www.alfredbrown.co.uk,LS13 3HG,Small company,Weaving of textiles
53.93763,-1.3832,ARVILLE TEXTILES LIMITED,www.arville.com,LS22 7DQ,Medium Company,Weaving of textiles
53.80502,-1.75243,ATLANTA PALLETS LIMITED,,BD1 4SP,Not Available,Wooden containers
53.67051,-1.57715,AIREA PLC,www.aireaplc.co.uk,WF5 0AN,Group,Carpets and rugs
53.6424,-1.76444,W.T.JOHNSON & SONS(HUDDERSFIELD)LIMITED,www.wtjohnson.co.uk,HD5 9BB,Group,Finishing of textiles
53.8736,-1.9051,CHARLES NEIL CONTRACTS LIMITED,www.regalblinds.co.uk,BD21 3LE,Total Exemption Small,Other textiles nec
53.78548,-1.7443,LUXURY FABRICS LIMITED,www.luxuryfabricsltd.co.uk,BD4 7DF,Full accounts,Weaving of textiles
54.08156,-2.28087,JOHN ROBERTS VENTURES LIMITED,,BD24 9LX,Group,"Corrugated paper, containers"
54.60604,-1.4208,50 CAL EMBROIDERY LTD,www.50calembroidery.co.uk,TS21 1AF,Total Exemption Small,Finishing of textiles
53.77878,-1.76598,HIELD FURNISHING LIMITED,www.hield.com,BD5 0QA,Total Exemption Small,Weaving of textiles
54.28538,-1.53599,INDUSTRIAL PALLET AND TRANSPORT SERVICES LIMITED,www.industrialpalletservices.co.uk,DL7 9NB,Total Exemption Small,Other products
53.74314,-0.39294,HAWTHORNE UPHOLSTERY LIMITED,www.hawthorneupholstery.co.uk,HU4 6BZ,Total Exemption Small,Made-up textile exc apparel
53.70279,-1.62998,HALCYON BEDS LIMITED,www.bedsdirect-batley.co.uk,WF17 6JL,Total Exemption Small,Made-up textile exc apparel
53.61881,-1.91348,CROWNFAST PRESENTATIONAL PACKAGING LIMITED,,HD7 5XA,Total Exemption Small,"Corrugated paper, containers"
54.58428,-1.25384,WOODBRICK LIMITED,www.woodbrick.co.uk,TS2 1RU,Total Exemption Small,Other products
54.49262,-1.13015,SCOTFIR LTD,,TS9 6ES,Total Exemption Small,Other products
53.82059,-1.44557,SEACROFT SOFT FURNISHINGS LIMITED,,LS14 5HD,Micro-entity accounts,Made-up textile exc apparel
53.5649,-0.08586,BLACK FISH PRINT & CLOTHING LTD,,DN31 1LW,Not Available,Finishing of textiles
53.66906,-1.68857,JAMES WALKER TEXTILES LIMITED,www.jwalker.co.uk,WF14 8NA,Total Exemption Small,Non-wovens exc. apparel
53.85209,-1.21377,FIVE STAR EMBROIDERY & DESIGN LTD,www.fivestardesign-embroidery.co.uk,LS24 9UG,Total Exemption Small,Finishing of textiles
53.87647,-1.71631,GENESIS LABELS LIMITED,www.genesislabels.co.uk,LS20 8BX,Total Exemption Small,Finishing of textiles
53.87134,-1.93431,CONISTON FIBRES LIMITED,www.conistonfibres.co.uk,BD22 6PA,Total Exemption Full,Other textiles nec
53.75654,-0.30682,BLINDS WORKSHOP LTD,www.blindsworkshop.co.uk,HU9 2LR,Total Exemption Small,Other textiles nec
53.59668,-1.92978,JOHN EDWARD CROWTHER LIMITED,,HD7 6HR,Full accounts,"Textile fibres preparation, spinning"
54.5572,-1.30041,BORO BLINDS LTD,,TS17 6AE,Not Available,Made-up textile exc apparel
54.07808,-0.9564,JACKIE FARNELL INTERIORS LIMITED,www.hopeanddowry.co.uk,YO60 7TE,Total Exemption Small,Made-up textile exc apparel
53.67288,-1.49633,P-G DRAPES LIMITED,www.p-gdrapes.com,WF1 5QU,Total Exemption Small,Other textiles nec
53.70275,-0.86685,INVOLVEMENT PACKING LIMITED,www.ipl-involvement.co.uk,DN14 5RA,Total Exemption Small,Wooden containers
53.87852,-1.71105,T.D.WHITFIELD & SONS LIMITED,,LS20 9DD,Total Exemption Small,"Textile fibres preparation, spinning"
53.90514,-1.97759,BROADSWORD TIMBER LIMITED,www.britishhardwoods.co.uk,BD20 7BW,Total Exemption Small,Other products
53.86137,-1.90954,HATTERSLEY ALADDIN LIMITED,www.hattersley.co.uk,BD21 5JL,Small company,Weaving of textiles
53.86544,-1.69243,SHARPS FABRIC PRINTERS LIMITED,www.fabric-printing.co.uk,LS19 7LX,Total Exemption Small,Finishing of textiles
53.9028,-1.98849,HARRISONS (BURLEY) LIMITED,www.harrisonsburley.co.uk,BD20 7ED,Total Exemption Small,Other textiles nec
53.87613,-1.89614,THORPE MILL LIMITED,www.thorpemill.co.uk,BD21 4BZ,Total Exemption Small,Weaving of textiles
53.79099,-1.85474,THE YARN SHOP LIMITED,,BD13 3NJ,Total Exemption Small,"Textile fibres preparation, spinning"
53.65506,-1.78668,PARAGON ASSETS LIMITED,,HD1 5DX,Total Exemption Small,"Textile fibres preparation, spinning"
53.82183,-1.51375,STOCK SOLUTION (GLOBAL) LTD,,LS8 4BS,Total Exemption Small,Other textiles nec
54.54432,-1.57318,DS SMITH CORRUGATED PACKAGING LIMITED,www2.dssmithpackagingeurope.com,DL3 0PE,Full accounts,"Corrugated paper, containers"
53.68324,-1.49666,DUTTONS (YARNS) LIMITED,www.globetradewarehouse.com,WF1 1PJ,Total Exemption Small,Weaving of textiles
53.87336,-1.71364,CUSHIONS CORNER LIMITED,,LS20 8DG,Not Available,Made-up textile exc apparel
53.58839,-1.76957,"MOORLAND WOOD-TURNING CO,LIMITED(THE)",,HD9 7TB,Total Exemption Small,Other products
53.72492,-1.34312,GENERAL PATTERNS LIMITED,,WF10 4AN,Total Exemption Small,Other products
53.68486,-1.86033,PERFORMANCE PANELS LIMITED,www.performance-panels.co.uk,HX4 8ED,Full accounts,Other products
53.70404,-0.89217,TOM CHAMBERS LIMITED,www.tomchambers.co.uk,DN14 6UE,Medium Company,Wooden containers
53.87989,-1.71927,ABRAHAM MOON & SONS LIMITED,www.moonsfurnishings.com,LS20 9PD,Full accounts,"Textile fibres preparation, spinning"
53.70276,-1.64335,AEMAS LIMITED,,WF17 7BL,Total Exemption Small,Other textiles nec
53.82813,-1.70507,D&K PALLETS LIMITED,www.dkpallets.co.uk,LS28 5RZ,Total Exemption Small,Wooden containers
53.78596,-1.50572,LEEDS PALLET COMPANY LIMITED,www.leedspallet.co.uk,LS9 0RA,Total Exemption Small,Other products
53.96697,-1.05418,ZETLAND BOXES LIMITED,www.zetlandboxes.co.uk,YO31 1AP,Total Exemption Small,"Corrugated paper, containers"
54.3034,-2.19067,OUTHWAITES LIMITED,www.ropemakers.com,DL8 3NT,Total Exemption Small,"Cordage, rope, twine, netting"
53.82756,-1.75675,SG FRAME LTD,,BD18 1PD,Not Available,Other products
53.768,-1.71297,STANLEY MILLS WEAVERS LIMITED,www.stanleymillsweaversltd.co.uk,BD4 9RS,Full accounts,Weaving of textiles
53.7672,-1.54778,GRAPHIC PACKAGING INTERNATIONAL LIMITED,www.graphicpkg.com,LS11 5LX,Full accounts,"Corrugated paper, containers"
53.87027,-1.8931,THE ATKINSON DYEING COMPANY LIMITED,,BD21 4LA,Total Exemption Small,"Textile fibres preparation, spinning"
53.76688,-0.35515,THE POLYMORPHIC CONSTRUCTION COMPANY LIMITED,,HU5 1LY,Total Exemption Small,Other products
53.80967,-1.60898,MATERIAL TRANSFORMATION LTD,,LS12 2JX,Not Available,Other textiles nec
53.79559,-1.74225,HOLMES MANN PACKAGING SYSTEMS LIMITED,,BD1 5HZ,Not Available,"Corrugated paper, containers"
53.78877,-1.75057,R S GARMENTS LIMITED,,BD5 0EW,Total Exemption Small,Made-up textile exc apparel
53.7081,-1.61161,HEAVY WOOLLEN TEXTILE CO.LIMITED,,WF17 9XG,Total Exemption Small,Finishing of textiles
53.6754,-1.63068,AREA RUGS AND CARPETS LIMITED,www.arearugs.co.uk,WF12 9DA,Total Exemption Small,Carpets and rugs
53.69304,-1.30618,EUROSTITCH LIMITED,www.luckypet.co.uk,WF8 1QX,Total Exemption Small,Other textiles nec
53.57432,-1.75134,THE WOOD MONKEY LIMITED,,HD9 7BS,Total Exemption Small,Other products
53.84027,-1.94425,EPITROPIC FIBRES LIMITED,www.epitropicfibres.co.uk,BD22 0EB,Full accounts,"Textile fibres preparation, spinning"
53.64967,-0.68427,T.G. BROS LIMITED,www.tgbrosgroup.com,DN15 9BP,Total Exemption Small,Other textiles nec
53.71984,-1.85949,FIRTH CARPETS & FLOORINGS LIMITED,www.firthcarpets.com,HX1 2HX,Total Exemption Small,Carpets and rugs
53.918108,-2.011596,TMC BESPOKE JOINERY LIMITED,www.tmcbespokejoinery.co.uk,BD20 8LN,Total Exemption Small,Other products
53.66385,-1.68095,CAMIRA TRANSPORT FABRICS LIMITED,www.camirafabrics.com,WF14 8HE,Full accounts,Weaving of textiles
53.80063,-1.77032,DUTTONS (YARNS) LIMITED,www.globetradewarehouse.com,BD8 8JL,Total Exemption Small,Weaving of textiles
54.3501,-1.44813,SASHLESS WINDOW CO. LIMITED,www.sashless.com,DL6 2XA,Total Exemption Small,Other products
54.6275,-1.57248,CAVALIER CARPETS LIMITED,www.cavalier-carpets.co.uk,DL5 4UY,Full accounts,Carpets and rugs
53.570264,-1.788017,HAROLD HINCHLIFFE LIMITED,www.zhinchliffe.co.uk,HD9 9SU,Group,"Textile fibres preparation, spinning"
53.66094,-1.82446,LOOMSPUN LIMITED,,HD3 3JH,Total Exemption Small,"Textile fibres preparation, spinning"
54.67913,-1.21685,CONTESSA CURTAINS LIMITED,www.contessacurtains.co.uk,TS26 9AD,Total Exemption Small,"Textile fibres preparation, spinning"
53.91985,-1.78707,OLDGATE TEXTILES LIMITED,,LS29 8BD,Total Exemption Small,Made-up textile exc apparel
53.99635,-1.52979,LOG LIMITED,,HG1 5AR,Total Exemption Small,"Textile fibres preparation, spinning"
53.68738,-1.85163,S. SHEARD & SON LIMITED,www.sheard.co.uk,HX4 8AQ,Full accounts,"Corrugated paper, containers"
53.98622,-1.10025,MERLINI TRADING LIMITED,,YO30 4XG,Not Available,Other products
53.48957,-1.26087,CHRISTOPHER JAMES CONTRACTS LIMITED,www.curtaincontracts.co.uk,DN12 4JJ,Total Exemption Small,Other textiles nec
53.68624,-1.84282,ROBINSON & HANSON LIMITED,www.robinsonandhanson.com,HX5 0RY,Total Exemption Small,Made-up textile exc apparel
53.81793,-1.64995,WOODWORKS TIMBER LIMITED,www.woodworkstimber.co.uk,LS13 1AA,Total Exemption Small,Other products
53.72398,-1.71364,OSSETT FABRICATIONS LIMITED,,BD19 5AA,Total Exemption Small,"Textile fibres preparation, spinning"
53.79858,-1.76085,W. HOWARD LIMITED,www.whowardtimber.co.uk,BD1 3RP,Medium Company,Other products
54.06004,-0.258079,GREENSTIK MATERIALS LTD,www.gmcrafts.co.uk,YO15 3QY,Total Exemption Small,Other textiles nec
53.67461,-1.69355,PREMIER VENEERED PANELS LIMITED,www.premierveneeredpanels.co.uk,WF14 8AH,Total Exemption Small,Other products
53.74149,-2.015909,WOOD & WIRE MADE LIMITED,,HX7 6AD,Micro-entity accounts,Other products
54.28578,-0.94033,EVERYTHING TOWELLING.COM LIMITED,www.everythingtowelling.com,YO62 7HS,Total Exemption Small,Other textiles nec
53.69869,-1.81315,BRIGHOUSE PALLET SERVICES LIMITED,www.brighousepalletservices.com,HD6 2RG,Total Exemption Small,Other products
53.74836,-0.31879,C.J. COVERS LIMITED,www.cjcovers.co.uk,HU9 1EP,Total Exemption Small,Made-up textile exc apparel
53.86544,-1.69243,DANISH DESIGN PET PRODUCTS LIMITED,www.danishdesign.co.uk,LS19 7LX,Small company,Other textiles nec
53.65877,-1.83286,AMEDI MATTRESS LIMITED,,HD3 3PL,Not Available,"Textile fibres preparation, spinning"
54.34054,-1.43453,J. AND M INTERIORS LIMITED,www.joannamarco.com,DL7 8QR,Total Exemption Small,Made-up textile exc apparel
53.80616,-1.66549,A.W.HAINSWORTH & SONS LIMITED,www.awhainsworth.co.uk,LS28 6DW,Full accounts,Weaving of textiles
53.68039,-1.5171,J.H.MUDFORD & SONS LIMITED,www.mudfords.co.uk,WF2 9NT,Total Exemption Small,Made-up textile exc apparel
53.68199,-1.64824,G. WILSON (FIBRES) LIMITED,www.gwilsonfibres.co.uk,WF13 3RQ,Total Exemption Small,"Other technical, industrial textiles"
53.66835,-1.77737,CLEGG WOOLS LIMITED,www.cleggwools.co.uk,HD2 1DU,Total Exemption Small,"Textile fibres preparation, spinning"
53.76947,-1.54541,VALE SEWING MACHINES LIMITED,www.valesew.co.uk,LS11 5UU,Total Exemption Small,"Other technical, industrial textiles"
53.87202,-1.90531,BRALTEX LIMITED,www.braltex.com,BD21 3LN,Total Exemption Small,Non-wovens exc. apparel
53.65028,-1.60354,MARK JAMES DESIGNS LIMITED,,WF4 4NX,Not Available,Other products
53.92496,-1.79379,CHARNWOOD MANUFACTURING LIMITED,,LS29 8BN,Total Exemption Small,Finishing of textiles
53.69694,-1.63128,ONLINE CURTAINS LIMITED,,WF13 2EF,Not Available,Made-up textile exc apparel
54.60892,-1.56273,APPLETREE JOINERY PRODUCTS LIMITED,www.appletreejoinery.co.uk,DL5 6EU,Total Exemption Small,Other products
53.74524,-0.3187,ACORN (HULL) LIMITED,,HU9 1NJ,Total Exemption Full,Wooden containers
53.98663,-1.52309,DAVID LAWRENCE TEXTILES LIMITED,,HG2 8JT,Total Exemption Small,Other textiles nec
53.77374,-1.76924,D & S WARPING LIMITED,,BD5 9AS,Total Exemption Small,Other textiles nec
53.72256,-0.52707,L.W. PRINT FINISHERS LIMITED,,HU14 3RS,Total Exemption Small,Finishing of textiles
53.77658,-0.41169,BOHO SO BEAUTIFUL LTD,,HU16 5BA,Not Available,Made-up textile exc apparel
54.52264,-1.56137,CATHEDRAL SHUTTERS AND BLINDS LTD,,DL3 7EH,Total Exemption Small,Made-up textile exc apparel
53.80769,-1.43006,DAWSON'S PATTERN WORKS LIMITED,,LS15 8AR,Total Exemption Small,Other products
53.74122,-2.01594,WOOD & WIRE LIMITED,www.jimleachfurniture.co.uk,HX7 6EU,Total Exemption Small,Other products
53.77341,-1.72837,SMITH HARRISON SAMPLING LIMITED,,BD4 9NW,Not Available,"Textile fibres preparation, spinning"
53.76028,-0.4484,WILLERBY BEDROOM & KITCHEN DESIGN LIMITED,,HU10 6BY,Not Available,Other products
53.48817,-1.01211,WEE NOTIONS LIMITED,www.weenotions.co.uk,DN9 3GA,Total Exemption Small,Other textiles nec
54.52268,-1.28686,JOHN HARRISON (STOCKTON) LIMITED,www.harrisonpack.com,TS17 9NT,Full accounts,"Corrugated paper, containers"
54.66342,-1.19251,AVA KNIT (G.B.) LIMITED,,TS25 1AJ,Total Exemption Small,Knitted and crocheted fabrics
53.71943,-1.77715,NORTH VALE DOUBLING COMPANY LIMITED,www.northvaledoubling.co.uk,HD6 4DJ,Small company,Other textiles nec
53.68261,-1.87627,SIA FIBRAL LIMITED,www.sia-abrasives.com,HX4 8NH,Full accounts,Non-wovens exc. apparel
53.81725,-1.66487,FABRIC FILTER SERVICES LIMITED,www.fabricfilters.co.uk,LS28 5LY,Micro-entity accounts,Made-up textile exc apparel
53.70541,-1.6529,EMEL LTD,www.emelsoftinteriors.co.uk,WF13 4AP,Total Exemption Small,Made-up textile exc apparel
53.84744,-1.53434,ANITA MASSARELLA DESIGN LIMITED,www.anitamassarella.co.uk,LS17 6DL,Total Exemption Small,Finishing of textiles
53.82616,-1.87952,J.ORMONDROYD & COMPANY LIMITED,,BD15 0BN,Total Exemption Small,"Textile fibres preparation, spinning"
54.10303,-2.029999,OFFTREE LIMITED,www.offtree.co.uk,BD23 5HS,Total Exemption Full,"Textile fibres preparation, spinning"
53.67847,-1.57915,D C CONTRACTS OSSETT LIMITED,,WF5 8AE,Not Available,Made-up textile exc apparel
53.63614,-1.78976,"BRIERLEY BROTHERS,LIMITED",www.brierleybrothers.com,HD1 3PZ,Total Exemption Small,"Textile fibres preparation, spinning"
54.2127,-1.43972,BEDWELL BEDDING LIMITED,www.bedwellbedding.co.uk,YO7 4SB,Total Exemption Small,Other products
54.31163,-1.83228,MH FENCING AND GATES LIMITED,,DL8 5AB,Total Exemption Small,Other products
53.70889,-1.91179,J & S TAYLOR LIMITED,www.taylorsdirect.co.uk,HX6 2QQ,Total Exemption Small,Other textiles nec
54.04791,-0.88548,RED BISON LIMITED,,YO60 7PW,Not Available,Wooden containers
53.74818,-0.425,SUMMERBRIDGE DOORS LTD,www.summerbridgedoors.co.uk,HU10 6RJ,Medium Company,Other products
53.75186,-1.60665,HP PALLETS LIMITED,,LS27 9NP,Not Available,Other products
53.6441,-1.77058,W & R HOYLE LTD,,HD5 9AG,Not Available,"Corrugated paper, containers"
53.68037,-1.54579,TURTLE AND TREACLE LIMITED,,WF5 9AD,Not Available,Made-up textile exc apparel
53.7794,-0.64253,ZETLAND BOXES LIMITED,www.zetlandboxes.co.uk,HU15 2NW,Total Exemption Small,"Corrugated paper, containers"
53.54701,-1.78016,J.F.HODGETT & CO.LIMITED,,HD9 2QX,Total Exemption Small,Knitted and crocheted fabrics
53.62735,-1.79634,LEJISTA DESIGN STUDIO LTD,www.lejista.co.uk,HD4 6EZ,Micro-entity accounts,Finishing of textiles
54.249,-1.68878,MORKULLA FURNISHINGS LTD,,HG4 4PE,Micro-entity accounts,Made-up textile exc apparel
53.83053,-1.82354,USH LINENS LIMITED,,BD16 1QB,Not Available,Other textiles nec
53.78788,-1.75213,CYGNET YARNS LIMITED,www.cygnetyarns.com,BD5 0EA,Total Exemption Small,"Textile fibres preparation, spinning"
54.57607,-1.24147,CLOTHESMAC LTD,www.clothesmac.com,TS1 5JA,Total Exemption Small,Made-up textile exc apparel
53.68026,-1.65288,WILLIAM S. GRAHAM LIMITED,www.fredlawton.com,WF13 3JF,Total Exemption Small,"Textile fibres preparation, spinning"
53.98656,-0.54054,WOLDS WOODCRAFT LIMITED,,YO25 9LA,Total Exemption Small,Other products
53.79462,-1.76239,EDWARD HILL & CO. LIMITED,www.yarnsupplies.co.uk,BD1 2JA,Total Exemption Small,"Textile fibres preparation, spinning"
54.00355,-1.44997,PPSS LTD,www.ppss-group.com,HG5 8BS,Total Exemption Small,Other textiles nec
53.73079,-1.71345,A.W.HAINSWORTH & SONS LIMITED,www.awhainsworth.co.uk,BD19 4EW,Full accounts,Weaving of textiles
53.61231,-0.96394,SCULLION ENTERPRISE LIMITED,www.nauticalrope.co.uk,DN8 5AU,Micro-entity accounts,Other products
53.62997,-1.84188,OGAM JACQUARD WEAVERS LTD,,HD4 5XA,Micro-entity accounts,Weaving of textiles
53.87613,-1.89614,BINGLEY TEXTILE SUPPLIES LIMITED,www.bingleytextilesupplies.co.uk,BD21 4BZ,Total Exemption Small,"Textile fibres preparation, spinning"
53.59668,-1.92978,HEYFIELD ENGINEERING LIMITED,,HD7 6HR,Micro-entity accounts,"Textile fibres preparation, spinning"
53.54325,-1.07948,PLAY CREATORS LIMITED,,DN2 4SQ,Total Exemption Small,Other textiles nec
53.87998,-1.6248,ACACIAWOOD LIMITED,,LS16 9HH,Total Exemption Small,"Corrugated paper, containers"
53.72304,-1.35292,FLETCHER & SON MACHINING SERVICES LTD,,WF10 4AL,Total Exemption Small,Other products
53.61794,-0.65884,PINEWRAP MOULDINGS LIMITED,,DN15 9YG,Total Exemption Small,Other products
53.52671,-1.10062,S T DONCASTER LIMITED,,DN2 6EJ,Not Available,Finishing of textiles
53.90369,-1.74533,STRULCH  LIMITED,www.strulch.co.uk,LS29 7QG,Total Exemption Small,Other products
53.72418,-1.86435,R P L MEDICAL LIMITED,,HX1 5SP,Not Available,Other textiles nec
53.57425,-1.75612,"BOWER ROEBUCK & CO.,LIMITED",www.bowerroebuck.com,HD9 7EN,Group,Weaving of textiles
53.72465,-1.71796,CROWNAM LIMITED,www.trendytuft.co.uk,BD19 3BQ,Total Exemption Small,Carpets and rugs
53.64146,-1.78209,YORKSHIRE FUR FABRICS LIMITED,www.yorkshirefurfabrics.co.uk,HD1 3DU,Group,Other textiles nec
53.866962,-0.678888,L.W. PRINT FINISHERS LIMITED,,YO43 3GB,Total Exemption Small,Finishing of textiles
53.79713,-1.54684,LABELON GROUP LIMITED,,LS1 5AB,Group,"Corrugated paper, containers"
53.77037,-1.49796,FASTBOX LIMITED,www.fastboxltd.co.uk,LS10 1RT,Total Exemption Small,"Corrugated paper, containers"
53.65726,-1.77224,HUDDERSFIELD DYEING COMPANY LIMITED,www.huddersfielddyeing.co.uk,HD1 6NY,Total Exemption Small,"Textile fibres preparation, spinning"
53.80333,-1.81774,BIRCH CLOSE TRADING LTD,,BD15 7QX,Not Available,Carpets and rugs
53.83433,-1.7681,JONATHAN HEALEY CURTAINS LTD,,BD18 1BP,Total Exemption Small,Other textiles nec
53.66929,-1.4912,FELTEX LIMITED,www.rawsoncarpets.co.uk,WF1 5PS,Total Exemption Small,Non-wovens exc. apparel
53.905,-1.68962,CANVAS MAN LIMITED,www.canvasman.co.uk,LS21 1JH,Total Exemption Small,Made-up textile exc apparel
53.79052,-1.78226,PRO LOOK TEXTILE LIMITED,,BD7 2EA,Not Available,Finishing of textiles
53.61923,-1.15403,YORKSHIRE CABLE DRUMS AND WOOD PACKAGING LIMITED,www.yorkshirecabledrums.co.uk,DN6 0ER,Total Exemption Small,Other products
53.768,-1.71297,LUXURY FABRICS LIMITED,www.luxuryfabricsltd.co.uk,BD4 9RS,Full accounts,Weaving of textiles
53.72346,-1.70928,LINGCROFT ASSOCIATES LIMITED,www.uniformfabrics.co.uk,BD19 3RY,Total Exemption Small,Other textiles nec
53.68138,-1.66761,DAISY BEDS LTD,,WF13 3AF,Not Available,Made-up textile exc apparel
53.81725,-1.66487,REPLACEMENT BAG FILTERS LIMITED,,LS28 5LY,Micro-entity accounts,"Other technical, industrial textiles"
53.68953,-1.85205,J. SPEAK & CO. LIMITED,www.jspeak.co.uk,HX4 8LS,Total Exemption Small,"Textile fibres preparation, spinning"
53.64438,-1.83245,FRED SINGLETON (HUDDERSFIELD) LIMITED,,HD3 4TG,Total Exemption Small,"Textile fibres preparation, spinning"
53.90163,-1.68698,J A SALES AND SERVICE LIMITED,,LS21 1BT,Total Exemption Small,Other products
53.78246,-1.79484,MULTI PACKAGING SOLUTIONS UK LIMITED,www.multipkg.com,BD7 2AJ,Full accounts,"Corrugated paper, containers"
53.53936,-1.14819,PRINTPIT UK LIMITED,www.printpit.co.uk,DN5 9TJ,Total Exemption Small,Finishing of textiles
54.56382,-0.96208,BLINDS 2000 CHRIS BULMER LIMITED,www.blinds-2000.com,TS12 2LQ,Total Exemption Small,Made-up textile exc apparel
53.75939,-1.73932,TEXFELT LIMITED,www.texfelt.co.uk,BD4 6SG,Small company,"Textile fibres preparation, spinning"
54.57375,-1.20685,IMPRINT APPLICATIONS LIMITED,,TS3 6LN,Not Available,Finishing of textiles
53.86901,-1.89413,INVENT INTERIOR SOLUTIONS LIMITED,www.inventltd.co.uk,BD21 4JH,Total Exemption Small,Weaving of textiles
53.71487,-1.62948,PHARMA CARTON LIMITED,www.pharma-carton.co.uk,WF17 5LW,Total Exemption Small,"Corrugated paper, containers"
53.78548,-1.7443,JAMES DEWHURST LIMITED,www.jamesdewhurst.com,BD4 7DF,Group,"Textile fibres preparation, spinning"
53.56108,-1.07415,PKR LIMITED,www.pkrltd.co.uk,DN3 1HT,Total Exemption Small,Other products
53.68781,-1.6092,SKOPOS FABRICS LIMITED,,WF12 8HT,Small company,Other textiles nec
53.72089,-0.47825,SPG EUROPE LIMITED,,HU14 3LD,Not Available,"Corrugated paper, containers"
54.52466,-1.55584,QUICKER STITCH LIMITED,,DL3 7QQ,Total Exemption Small,Finishing of textiles
53.8086,-1.53202,CORINNE LAPIERRE LIMITED,,LS7 1AB,Not Available,Other textiles nec
53.63036,-1.84795,T J PALLETS (HUDDERSFIELD) LIMITED,www.huddersfieldpallets.co.uk,HD7 5QX,Total Exemption Small,Other products
