latitude,longitude,name,url,postcode,Registered_accounts_type,subactivity
53.7623,-1.41385,TISSUE REGENIX GROUP PLC,www.tissueregenix.com,LS26 8XT,Group,"other natural sciences, engineering"
53.94908,-1.04736,THE NATIONAL NON-FOOD CROPS CENTRE LIMITED,www.nnfcc.co.uk,YO10 5DG,Total Exemption Full,"other natural sciences, engineering"
54.61964,-1.2857,RENIUM LIMITED,,TS23 3UL,Total Exemption Small,"other natural sciences, engineering"
53.63391,-1.79431,DESIGNER PAWS LIMITED,,HD1 3TG,Not Available,Veterinary activities
54.12925,-1.50725,BIO-GENESYS LIMITED,www.bio-genesys.com,HG4 1AJ,Total Exemption Small,Veterinary activities
54.13296,-1.54592,RAFT SOLUTIONS LIMITED,www.raftsolutions.co.uk,HG4 2QR,Total Exemption Small,Veterinary activities
53.80796,-1.55333,INTERNATIONALSOCIETY FOR NEUROCHEMISTRY LIMITED(THE),,LS2 9JT,Micro-entity accounts,"other natural sciences, engineering"
53.94822,-1.07439,YORKVETS LIMITED,,YO10 4DA,Total Exemption Small,Veterinary activities
53.92864,-0.77338,AEDSTEM LIMITED,,YO42 2QE,Total Exemption Small,Biotechnology
54.5476,-1.58229,DARLINGTON VET CLINIC LIMITED,,DL3 0GA,Total Exemption Small,Veterinary activities
53.8466,-1.63247,MORRIS & PLUMLEY (NORTHUMBERLAND) LIMITED,,LS18 5NT,Not Available,Veterinary activities
53.71445,-1.92834,INFUSION CONCEPTS LIMITED,www.infusionconcepts.com,HX2 6BW,Total Exemption Small,Veterinary activities
53.67053,-1.48941,CVS (UK) LIMITED,www.cvsukltd.co.uk,WF1 5PN,Full accounts,Veterinary activities
53.68563,-1.87583,BINNS & SONS (GREETLAND) LIMITED,,HX4 8NF,Total Exemption Small,"other natural sciences, engineering"
53.95726,-1.10856,HADRIAN VETS LIMITED,www.hadrianvets.co.uk,YO26 4GB,Total Exemption Small,Veterinary activities
53.68692,-1.3126,GREENWOOD & BROWN VETERINARY CLINICS LIMITED,www.pontefractvet.co.uk,WF8 4HT,Total Exemption Small,Veterinary activities
53.80744,-1.56055,ULTRAMATIS LIMITED,,LS2 9DF,Total Exemption Small,"other natural sciences, engineering"
53.76428,-0.29284,HAVEN VETS LIMITED,www.lidl.co.uk,HU9 3JA,Total Exemption Small,Veterinary activities
53.94968,-1.04766,THE CONCUSSION NETWORK LTD,,YO10 5NY,Full accounts,"other natural sciences, engineering"
53.81131,-1.67956,DESIGN 2 SUSTAIN LIMITED,,LS28 5HL,Total Exemption Full,"other natural sciences, engineering"
54.55498,-1.2639,CAMBRIDGE CONSULTANTS LIMITED,www.cambridgeconsultants.com,TS5 4JX,Full accounts,"other natural sciences, engineering"
53.84945,-1.18514,SOPHIA RUTH LIMITED,,LS24 9DZ,Not Available,Veterinary activities
53.99296,-1.55097,ANIPOC LIMITED,,HG1 2PW,Not Available,Veterinary activities
54.47115,-0.8043,MENZA COMMUNICATIONS LIMITED,,YO21 2AB,Total Exemption Small,"other natural sciences, engineering"
53.50817,-1.12163,VETRES SERVICES LIMITED,,DN4 5NU,Not Available,Veterinary activities
53.78721,-1.39139,RGL INNOVATIONS LIMITED,www.wheelchair-liberator.com,LS25 1LJ,Total Exemption Small,"other natural sciences, engineering"
54.52355,-1.59212,LYKKE RESEARCH LIMITED,,DL3 8AZ,Total Exemption Small,"other natural sciences, engineering"
54.137431,-1.522427,VETSCORE LIMITED,,HG4 1XW,Total Exemption Small,Veterinary activities
53.70846,-1.90597,INFUSION CONCEPTS LIMITED,www.infusionconcepts.com,HX6 3LD,Total Exemption Small,Veterinary activities
54.245,-1.06669,HELMSLEY WALLED GARDEN LIMITED,,YO62 5AH,Total Exemption Small,Plant propagation
53.79124,-1.76623,ARTERIUS LIMITED,www.arterius.co.uk,BD7 1DP,Total Exemption Small,"other natural sciences, engineering"
53.95986,-1.54311,POWDER RESEARCH LTD.,www.powderresearch.co.uk,HG3 1LU,Total Exemption Small,"other natural sciences, engineering"
53.98127,-1.14998,GENOMEX LTD,,YO26 6JA,Not Available,Biotechnology
53.80744,-1.56055,CERYX MEDICAL LIMITED,,LS2 9DF,Not Available,Biotechnology
53.95692,-2.02659,APPLIED PHOTONICS LTD,www.appliedphotonics.co.uk,BD23 2DE,Total Exemption Full,"other natural sciences, engineering"
53.80589,-1.62423,HIGH WYCOMBE VETS4PETS LIMITED,,LS13 4BN,Full accounts,Veterinary activities
53.6446,-1.76235,GS EQUINE LTD,,HD5 8AA,Total Exemption Small,Veterinary activities
53.71076,-1.89994,PROSPECT VETERINARY CENTRE LIMITED,www.donaldsonsvets.co.uk,HX6 2AP,Total Exemption Small,Veterinary activities
53.95726,-1.10856,PRINCE BISHOP VETERINARY CENTRE LIMITED,www.princebishopvets.co.uk,YO26 4GB,Total Exemption Small,Veterinary activities
53.86769,-1.91144,AIREDALE ANIMALS LIMITED,www.keighleywilsdenvets.co.uk,BD21 2AU,Total Exemption Small,Veterinary activities
54.1263,-0.97828,CHIMERADNA LTD,,YO60 6PW,Not Available,Biotechnology
53.96478,-1.10823,R & S DOWDING LIMITED,,YO26 4YN,Total Exemption Small,Veterinary activities
53.50023,-1.08801,TWO COUNTIES VETS LIMITED,www.twocountiesvets.co.uk,DN4 7JA,Total Exemption Small,Veterinary activities
54.14621,-0.7797,EQUINE REPRODUCTIVE SERVICES (UK) LIMITED,,YO17 7HE,Total Exemption Small,Veterinary activities
54.27321,-0.41711,FILEY VETERINARY PRACTICE LIMITED,www.fileyvets.com,YO12 4DX,Total Exemption Small,Veterinary activities
53.96107,-1.00689,HOLMEFIELD FARM SERVICES LIMITED,www.yorkvetsupplies.co.uk,YO19 5UF,Total Exemption Small,Veterinary activities
53.93646,-0.77335,MGJG LTD.,,YO42 2TH,Total Exemption Small,"other natural sciences, engineering"
54.57651,-1.10056,BIOSOURCE WALES LIMITED,www.businessprofessionalinsurance.co.uk,TS10 4RF,Full accounts,"other natural sciences, engineering"
53.95726,-1.10856,WILSON VETERINARY LIMITED,www.wilsonvetgroup.co.uk,YO26 4GB,Total Exemption Small,Veterinary activities
53.98657,-1.50504,DE POLYMERS LTD,,HG2 8QG,Total Exemption Small,"other natural sciences, engineering"
53.9792,-1.98568,CATS ONLY LIMITED,,BD23 6RR,Total Exemption Small,Veterinary activities
54.59259,-1.28958,CVS (UK) LIMITED,www.cvsukltd.co.uk,TS23 1HF,Full accounts,Veterinary activities
53.77136,-1.66414,EMMA BARNES LOCUM SERVICES LIMITED,,BD4 0SD,Not Available,Veterinary activities
54.55841,-1.2435,CVS (UK) LIMITED,www.cvsukltd.co.uk,TS5 6SD,Full accounts,Veterinary activities
53.85614,-1.51931,BRITISH ANDROLOGY SOCIETY,www.britishandrology.org.uk,LS17 8RE,Total Exemption Small,"other natural sciences, engineering"
53.61794,-0.65884,CAVANAGH UK LOCUM LIMITED,,DN15 9YG,Not Available,Veterinary activities
54.57014,-1.23839,E GREEN ANIMAL PHYSIOTHERAPY LIMITED,,TS1 3QW,Total Exemption Small,Veterinary activities
53.5907,-1.51018,KAIDEN CLINICAL RESEARCH SERVICES LTD,,S75 6GP,Total Exemption Small,Biotechnology
53.79855,-1.54853,GAIA ENVIRO - TECH LIMITED,,LS1 5BD,Total Exemption Full,"other natural sciences, engineering"
53.74388,-0.3353,JOLENE & TESSIE LTD,,HU1 2AS,Total Exemption Small,Veterinary activities
53.65394,-1.52078,CALDER VETS LIMITED,www.caldervets.co.uk,WF2 7AR,Full accounts,Veterinary activities
53.83376,-1.77841,PLATFORM SCIENCE & TECHNOLOGY LTD,,BD18 3QN,Micro-entity accounts,"other natural sciences, engineering"
54.18794,-1.66691,THE HUTTS FOUNDATION,,HG4 3DA,Total Exemption Full,Plant propagation
53.70665,-1.91325,REECE-JONES CONSULTING LIMITED,,HX6 3JH,Micro-entity accounts,Biotechnology
53.94908,-1.04736,AVACTA ANIMAL HEALTH LIMITED,,YO10 5DG,Full accounts,Veterinary activities
53.54873,-0.16934,SANSCOE KENNELS LIMITED,www.sanscoe.co.uk,DN37 7AL,Total Exemption Small,Veterinary activities
53.80744,-1.56055,MPEC TECHNOLOGY LIMITED,www.mpec.co.uk,LS2 9DF,Total Exemption Small,"other natural sciences, engineering"
54.00267,-1.4963,TREECORP LTD,,HG1 4DZ,Not Available,"other natural sciences, engineering"
53.56776,-0.97939,ORBITAL INSTRUMENTS LIMITED,,DN7 6PQ,Total Exemption Small,"other natural sciences, engineering"
53.57332,-1.18624,PETMEDIC VETERINARY SERVICES LIMITED,www.petmedic.biz,DN6 7AG,Total Exemption Small,Veterinary activities
53.91824,-1.37525,PROBLEM HOOVES LIMITED,,LS22 5NB,Total Exemption Small,Veterinary activities
53.79448,-1.53743,MANTIS NUMERICS LIMITED,,LS2 7EY,Total Exemption Small,"other natural sciences, engineering"
53.93238,-0.83768,AQUATREAD CANINE HYDROTHERAPY LIMITED,,YO42 4HS,Not Available,Veterinary activities
53.93365,-1.37794,ELEMENT SIX (UK) LIMITED.,www.e6.com,LS22 7RD,Full accounts,"other natural sciences, engineering"
53.79853,-1.55047,THE VET LIMITED,,LS1 2QH,Total Exemption Small,Veterinary activities
53.99998,-0.46238,NIGEL HORROX VETERINARY SERVICES LTD.,,YO25 9DJ,Total Exemption Small,Veterinary activities
53.76693,-1.70758,SOPHIE'S GROOM ROOM & HYDROTHERAPY CENTRE LTD,www.BirchdaleBoardingandGrooming.co.uk,BD4 6NA,Total Exemption Small,Veterinary activities
53.80744,-1.56055,ENCOS LIMITED,www.encosltd.com,LS2 9DF,Total Exemption Small,"other natural sciences, engineering"
53.96805,-0.99147,FOLLOWS SERVICES LTD,,YO19 5LL,Total Exemption Small,Veterinary activities
54.27901,-0.40799,SYNTHESYS DIRECT LIMITED,,YO11 1TS,Total Exemption Small,"other natural sciences, engineering"
53.7407,-0.2018,HAVEN VETERINARY GROUP LIMITED,www.havenvetgroup.co.uk,HU12 8BP,Total Exemption Small,Veterinary activities
53.91241,-1.75294,REMOTE SENSING SPECIALISTS LIMITED,,LS29 7LB,Not Available,"other natural sciences, engineering"
54.24504,-0.77474,FARM MIX LIMITED,,YO18 7AW,Total Exemption Small,Veterinary activities
53.80589,-1.62423,CHADWELL HEATH VETS4PETS LIMITED,,LS13 4BN,Full accounts,Veterinary activities
53.79589,-1.55739,SAPPHIRE IMAGING LIMITED,,LS1 4AP,Total Exemption Small,Veterinary activities
53.49974,-1.14438,CONROY MECHANICAL ENGINEERING LTD,,DN4 8NF,Not Available,"other natural sciences, engineering"
53.91082,-1.31582,AVACTA GROUP PLC,www.avacta.com,LS23 7FA,Group,Biotechnology
54.03134,-1.22033,THE SHEEP TRUST,www.thesheeptrust.org,YO30 2BN,Total Exemption Full,"other natural sciences, engineering"
53.97615,-1.99609,HOLT LOCUMS LTD,,BD23 6QP,Total Exemption Small,Veterinary activities
53.61356,-1.35796,OPTALYSYS LTD,www.optalysys.com,WF9 4PU,Total Exemption Small,"other natural sciences, engineering"
53.79682,-1.4265,EVILLE & JONES (UK) LIMITED,www.eandj.co.uk,LS15 8ZB,Full accounts,Veterinary activities
53.88637,-1.60914,OMIC ANALYTICS LIMITED,,LS16 9EP,Micro-entity accounts,Biotechnology
53.7358,-0.48813,FOXGROVE TEC LIMITED,www.biofuels-technology.com,HU14 3ND,Total Exemption Small,Biotechnology
53.90317,-1.70643,PLATFORM KINETICS LIMITED,,LS21 3JP,Total Exemption Small,Biotechnology
53.78156,-1.79944,ROCHESTER.EU.COM LIMITED,,BD7 4DD,Total Exemption Small,"other natural sciences, engineering"
54.22226,-1.65602,FORREST HOUSE VETERINARY LIMITED,www.forresthouse-veterinary.co.uk,HG4 4DY,Total Exemption Small,Veterinary activities
53.80238,-1.53031,THE CAPE HOLLAND BULB COMPANY LIMITED,,LS9 7DZ,Not Available,Seed propogation for propogation
53.85822,-1.42709,ATLANTIS BMS LIMITED,,LS14 3DX,Total Exemption Small,Biotechnology
53.79114,-1.67748,FRISSONUK LIMITED,,LS28 8HX,Not Available,"other natural sciences, engineering"
53.81812,-1.59732,VETPOINT LTD,,LS5 3HF,Total Exemption Small,Veterinary activities
53.72418,-1.86435,VETXS LIMITED,,HX1 5SP,Total Exemption Small,Veterinary activities
54.57651,-1.10056,PRIMARY DISPERSIONS LIMITED,www.primarydispersions.com,TS10 4RF,Total Exemption Small,"other natural sciences, engineering"
53.56732,-0.6183,VISIONARY ASSET MANAGEMENT LIMITED,,DN16 1AL,Not Available,"other natural sciences, engineering"
53.82435,-1.51249,ROMAN KRISTIN LIMITED,,LS8 4AJ,Not Available,Veterinary activities
54.52264,-1.56137,BRADDAN (SAARS) LTD,,DL3 7EH,Total Exemption Small,"other natural sciences, engineering"
54.00267,-1.4963,LYVS LTD,,HG1 4DZ,Not Available,Veterinary activities
53.79239,-1.55056,LHASA LIMITED,www.lhasalimited.org,LS11 5PS,Full accounts,"other natural sciences, engineering"
53.7426,-2.012649,NANO-TEK (UK) TECHNOLOGY LIMITED,,HX7 7BL,Micro-entity accounts,"other natural sciences, engineering"
53.80216,-1.70141,YORKSHIRE VETS LIMITED,www.yorkshirevets.co.uk,BD3 7BA,,Veterinary activities
53.7376,-0.19756,HYDROPONIC GROWING SYSTEMS LIMITED,,HU12 8HR,Total Exemption Small,Plant propagation
53.98622,-1.10025,AB ANIMAL WELFARE LTD,,YO30 4XG,Total Exemption Small,Veterinary activities
53.96478,-1.10823,RUTLAND HOUSE SURGERY LIMITED,www.rutlandreferrals.com,YO26 4YN,Total Exemption Small,Veterinary activities
53.56178,-0.09095,FILLAPET LIMITED,,DN32 0QH,Total Exemption Small,Veterinary activities
53.77673,-0.44498,CNUK MEDTECH SOLUTIONS LIMITED,,HU16 5JQ,Not Available,Biotechnology
53.59758,-1.68483,M G HEY LIMITED,,HD8 8LN,Total Exemption Small,Veterinary activities
54.27901,-0.40799,PICTURES & NOTES LIMITED,,YO11 1TS,Total Exemption Small,"other natural sciences, engineering"
54.5222,-1.55534,INNOVATIVE BRITISH RESEARCH & DEVELOPMENT ENGINE LTD,,DL1 5SF,Not Available,"other natural sciences, engineering"
54.58464,-1.30664,ALPHA AEROSPACE ENGINEERING LIMITED,,TS20 2QR,Total Exemption Small,"other natural sciences, engineering"
53.84988,-1.26382,TBVL LTD,,LS24 9PB,Total Exemption Small,Veterinary activities
53.95726,-1.10856,CHANTRY VETS LIMITED,,YO26 4GB,Not Available,Veterinary activities
54.00519,-1.01068,VERTIGRO LIMITED,,YO32 9TL,Partial Exemption,Plant propagation
53.96478,-1.10823,BEST FRIENDS GROUP LIMITED,,YO26 4YN,Total Exemption Small,Veterinary activities
54.54245,-1.32442,NDT GLOBAL SERVICES LIMITED,www.ndt-equipment.co.uk,TS18 3BP,Total Exemption Small,"other natural sciences, engineering"
53.82699,-1.34411,LUKE GREEN LOCUMS LTD,,LS25 3DD,Total Exemption Small,Veterinary activities
53.64735,-1.53707,DTB ADVISORY SERVICES UK LIMITED,,WF4 3ND,Total Exemption Small,"other natural sciences, engineering"
53.71307,-1.47067,TECHNOLOGY TRANSLATORS LIMITED,www.technologytranslators.com,WF3 4AA,Total Exemption Small,"other natural sciences, engineering"
54.61525,-1.05407,CVS (UK) LIMITED,www.cvsukltd.co.uk,TS10 3JZ,Full accounts,Veterinary activities
54.5349,-1.05222,MRT ECOLOGY LIMITED,www.mrt-ecology.com,TS14 6QD,Total Exemption Small,"other natural sciences, engineering"
53.64011,-1.77847,MILNE RESEARCH LIMITED,,HD1 3BD,Total Exemption Small,"other natural sciences, engineering"
53.69675,-1.77119,TORRINGTON ORTHOPAEDICS LIMITED,www.torringtonorthopaedics.com,HD6 1NQ,Total Exemption Small,Veterinary activities
54.03511,-2.27262,AEGIR LTD,,BD23 4QN,Not Available,Biotechnology
53.7431,-2.0144,GEANT4 ASSOCIATES INTERNATIONAL LTD,www.g4ai.org,HX7 7BT,Total Exemption Small,"other natural sciences, engineering"
54.2428,-0.77286,EASTGATE VETERINARY CENTRE LIMITED,www.eastgateveterinarycentre.co.uk,YO18 7DW,Total Exemption Small,Veterinary activities
54.36377,-1.37114,WINTON MATERIALS SCIENCE LIMITED,,DL6 2TB,Total Exemption Small,"other natural sciences, engineering"
53.80744,-1.56055,POLAR OLED LTD,www.polaroled.com,LS2 9DF,Total Exemption Small,"other natural sciences, engineering"
53.7623,-1.41385,TRX WOUND CARE LIMITED,www.tissueregenix.com,LS26 8XT,Full accounts,Biotechnology
54.57651,-1.10056,PLAXICA LIMITED,www.plaxica.com,TS10 4RF,Full accounts,"other natural sciences, engineering"
53.75961,-1.70909,BLOFIELD NURSERIES LTD,,BD4 6RD,Total Exemption Small,Plant propagation
54.01074,-1.05817,DAVID DAVIES PHARMA CONSULTANTS LTD,,YO32 9FT,Total Exemption Small,Biotechnology
53.70259,-0.87083,STEPHANIE HOLMES LIMITED,,DN14 5QE,Total Exemption Small,Veterinary activities
53.7968,-1.66367,C A THORNTON LIMITED,,LS28 7LG,Total Exemption Small,Biotechnology
53.59437,-0.64356,ASHCROFT (NORTH LINCOLNSHIRE) LIMITED,,DN15 6AH,Total Exemption Small,Veterinary activities
53.96478,-1.10823,HADRIAN VETS LIMITED,www.hadrianvets.co.uk,YO26 4YN,Total Exemption Small,Veterinary activities
53.69223,-1.63146,EMVET LTD,,WF13 1HF,Total Exemption Small,Veterinary activities
53.80589,-1.62423,QUINTON VETS4PETS LIMITED,,LS13 4BN,Full accounts,Veterinary activities
53.59771,-1.30073,BARTRAM & PATRICK LIMITED,www.bartram-patrick.ukvol.co.uk,WF9 2NY,Total Exemption Small,Veterinary activities
53.67438,-1.55586,COGNITECH CONSULTING LTD,,WF5 0HS,Total Exemption Full,"other natural sciences, engineering"
53.70684,-1.67276,CALDER VETS LIMITED,www.caldervets.co.uk,WF16 0JD,Full accounts,Veterinary activities
53.94968,-1.04766,APTAMER GROUP LIMITED,,YO10 5NY,Total Exemption Small,Biotechnology
53.52388,-1.12697,TRANSPIX LTD,,DN1 2HD,Total Exemption Small,"other natural sciences, engineering"
53.80589,-1.62423,GRANTHAM VETS4PETS LIMITED,,LS13 4BN,Full accounts,Veterinary activities
53.5645,-0.04108,PAUL SLEIGHT UK LIMITED,,DN35 7UZ,Total Exemption Small,"other natural sciences, engineering"
54.57651,-1.10056,COMPACTGTL LIMITED,www.compactgtl.com,TS10 4RF,Full accounts,"other natural sciences, engineering"
53.60267,-1.78418,HOLME VETERINARY CENTRE LIMITED,,HD9 6QB,Total Exemption Small,Veterinary activities
53.97709,-1.11058,THE HORSE VET LIMITED,,YO30 5PA,Not Available,Veterinary activities
54.58483,-0.97605,GABRIELA M PEREZ RUIZ LIMITED,,TS12 1EG,Not Available,Veterinary activities
53.81465,-1.57979,ALPHA AEROSPACE ENGINEERING LIMITED,,LS6 3DA,Total Exemption Small,"other natural sciences, engineering"
53.95726,-1.10856,VETERINARY EMERGENCY TREATMENT SERVICES LIMITED,www.v-e-t-s.co.uk,YO26 4GB,Total Exemption Small,Veterinary activities
53.84112,-1.60904,VISITING VET SPECIALISTS LTD,,LS16 6QE,Total Exemption Small,Veterinary activities
53.6667,-1.46043,OAKENSHAW BOARDING KENNELS LIMITED,www.oakenshawboarding.co.uk,WF4 1SD,Total Exemption Small,Veterinary activities
53.96805,-0.99147,M KILBRIDE VS LTD,,YO19 5LL,Total Exemption Small,Veterinary activities
53.96478,-1.10823,WOODCROFT VETERINARY GROUP LIMITED,www.woodcroftvets.com,YO26 4YN,Full accounts,Veterinary activities
53.95725,-1.19576,YORKSHIRE EQUINE PRACTICE LIMITED,www.yorkshireequinepractice.com,YO23 3QF,Total Exemption Small,Veterinary activities
53.70841,-1.45484,ROOTS NURSERIES LIMITED,,WF6 2JE,Micro-entity accounts,Plant propagation
53.9478,-1.07583,ADRIANIC LIMITED,,YO10 4DH,Total Exemption Small,"other natural sciences, engineering"
53.82483,-1.15052,YORKSHIRE SUSTAINABLE FARMING INNOVATION CENTRE LIMITED,www.stockbridgeonline.co.uk,YO8 3TZ,Not Available,"other natural sciences, engineering"
53.68031,-1.57881,PLATFORM DIAGNOSTICS LIMITED,www.carclo.co.uk,WF5 9WS,Full accounts,"other natural sciences, engineering"
53.80589,-1.62423,KIDDERMINSTER VETS4PETS LIMITED,,LS13 4BN,Full accounts,Veterinary activities
53.77491,-0.65236,MIRES BECK NURSERY,,HU15 2NR,Total Exemption Full,Plant propagation
53.58922,-0.65353,SVENCO U.K. LIMITED,,DN15 7PQ,Total Exemption Small,"other natural sciences, engineering"
53.84758,-1.5226,GOLGENE TECHNOLOGIES LIMITED,,LS8 2AZ,Total Exemption Small,Biotechnology
53.80675,-1.17397,BRAMLEY VETS4PETS LIMITED,www.vets4pets.com,LS25 6HJ,Full accounts,Veterinary activities
53.95726,-1.10856,WESTWAY VETERINARY CENTRES LIMITED,www.westway-vets.com,YO26 4GB,Total Exemption Small,Veterinary activities
53.96325,-2.017049,MARIJA TARASENKO - LABORATORY CONSULTING LTD,,BD23 1NJ,Not Available,Biotechnology
53.56909,-1.79021,VETSAT LTD,,HD9 2JT,Not Available,Veterinary activities
53.55138,-0.49494,HARRITON BERACHA LIMITED,,DN20 8LN,Micro-entity accounts,"other natural sciences, engineering"
53.57261,-0.12403,DVT PROCESS ENGINEERING SOLUTIONS LTD,,DN37 9LD,Not Available,Seed propogation for propogation
54.52141,-1.34698,POINTEDLY CLINICAL LIMITED,,TS16 9HH,Micro-entity accounts,"other natural sciences, engineering"
54.06169,-1.95974,PARKINSON RESEARCH SOLUTIONS LTD,,BD23 5DX,Total Exemption Small,Biotechnology
54.27321,-0.41711,HAMBRIDGE VETS LIMITED,www.dunslowroadvets.com,YO12 4DX,Total Exemption Small,Veterinary activities
53.85032,-1.60111,A R AYERS LOCUM SERVICES LIMITED,,LS16 6BG,Not Available,Veterinary activities
53.94794,-1.0302,SWIFT DIAGNOSTICS LIMITED,,YO10 5GW,Total Exemption Small,Biotechnology
53.78891,-1.25052,INTELLIGENT MICROBIOLOGY SOLUTIONS LTD,,LS25 6AF,Total Exemption Small,"other natural sciences, engineering"
54.50852,-1.35446,FIVEBARGATE CONSULTANTS LTD.,,TS15 9BH,Total Exemption Small,Biotechnology
53.72398,-1.71364,FRAZER MEDICAL RESEARCH LIMITED,,BD19 5AA,Total Exemption Small,"other natural sciences, engineering"
53.76292,-0.61755,MIRES BECK NURSERY,,HU15 2HW,Total Exemption Full,Plant propagation
53.79966,-1.54419,INFORMATION CHANGE ORGANISATION LIMITED,,LS1 8EQ,Total Exemption Small,Biotechnology
53.73885,-0.33556,BENTHIC PELAGIC SOLUTIONS LIMITED,www.benthicpelagic.com,HU1 1UD,Total Exemption Small,"other natural sciences, engineering"
53.679401,-1.500734,MR ELECTRONICS LTD.,,WF1 5PF,Micro-entity accounts,"other natural sciences, engineering"
53.81786,-1.58605,AIRE VETERINARY CENTRE LTD,,LS6 3EJ,Not Available,Veterinary activities
53.860638,-1.858562,LISTER INSTITUTE OF PREVENTIVE MEDICINE(THE),www.lister-institute.org.uk,BD16 2DS,Full accounts,"other natural sciences, engineering"
53.80376,-1.54469,GREENLEAF ANIMAL RESCUE LIMITED,www.greenleafanimalrescue.org.uk,LS2 8AJ,Total Exemption Small,Veterinary activities
53.82298,-1.5709,PATHTRACK LIMITED,www.pathtrack.co.uk,LS6 2AZ,Total Exemption Small,"other natural sciences, engineering"
54.06748,-2.27885,DALEHEAD VETERINARY GROUP LIMITED,www.daleheadvetgroup.co.uk,BD24 9AA,Total Exemption Small,Veterinary activities
54.68433,-1.21997,EASY FLUID LIMITED,,TS26 9EY,Micro-entity accounts,"other natural sciences, engineering"
53.95726,-1.10856,VALLEY VETS LTD.,www.valley-vets.co.uk,YO26 4GB,Total Exemption Small,Veterinary activities
54.16367,-1.64967,ANGELA BODEY LIMITED,,HG4 3SD,Total Exemption Small,Veterinary activities
54.1681,-0.29744,POTATO MANUFACTURING SCIENCE LIMITED,www.pmssnacks.com,YO14 9RS,Total Exemption Small,Biotechnology
54.01331,-1.31799,JOHNSONS OF WHIXLEY LIMITED,,YO26 8AQ,Full accounts,Plant propagation
53.53692,-0.0902,GRIMSBY VETS4PETS LIMITED,www.vets.co.uk,DN33 2HP,Full accounts,Veterinary activities
53.96053,-2.00021,H OREILLY MRCVS LIMITED,,BD23 2LN,Not Available,Veterinary activities
53.49343,-1.14047,NIAMH LYONS SERVICES LTD,,DN4 8TD,Not Available,Veterinary activities
53.78931,-1.41701,STITCH EM LTD,,LS15 4LG,Not Available,Veterinary activities
53.79777,-1.55802,COMMUNITY DEVELOPMENT SERVICES ALLIANCE LIMITED,,LS1 4ND,Total Exemption Small,"other natural sciences, engineering"
54.50896,-1.29853,CVS (UK) LIMITED,www.cvsukltd.co.uk,TS15 9JT,Full accounts,Veterinary activities
53.66663,-1.50641,LOGICOR (R&D) LIMITED,www.logicor.co.uk,WF2 7AN,Total Exemption Small,"other natural sciences, engineering"
53.98653,-1.09939,STATION HOUSE VETS LIMITED,,YO30 4WX,Total Exemption Small,Veterinary activities
53.93876,-1.10821,CALCARIA VETERINARY PRACTICE LTD,,YO24 1LR,Total Exemption Small,Veterinary activities
54.18173,-0.53149,OPERATION K9 LTD,,YO17 8PH,Total Exemption Small,Veterinary activities
53.98864,-1.11558,NH LOCUM RVN LTD,,YO30 5WG,Not Available,Veterinary activities
53.85664,-1.61749,TOWERWOOD VETS LIMITED,www.towerwoodvets.co.uk,LS16 7DR,Total Exemption Full,Veterinary activities
53.69639,-0.36764,THOMAS RESEARCH SERVICES LIMITED,www.slagtest.co.uk,DN19 7PZ,Total Exemption Small,"other natural sciences, engineering"
53.68789,-1.31394,GREENWOOD & BROWN VETERINARY CLINICS LIMITED,www.pontefractvet.co.uk,WF8 4HR,Total Exemption Small,Veterinary activities
54.57138,-1.32116,STOCKTON VETS4PETS LIMITED,www.vets4pets.com,TS19 0BS,Full accounts,Veterinary activities
53.83267,-1.80987,ALTARA GROUP LIMITED,,BD18 4AB,Not Available,"other natural sciences, engineering"
53.77745,-0.29273,CHESTNUT HOUSE VETERINARY CENTRE LIMITED,,HU8 9HL,Total Exemption Small,Veterinary activities
54.24504,-0.77474,HOWELLS VETERINARY SERVICES LIMITED,www.howellsvets.co.uk,YO18 7AW,Total Exemption Small,Veterinary activities
53.61374,-0.97146,CVS (UK) LIMITED,www.cvsukltd.co.uk,DN8 5UJ,Full accounts,Veterinary activities
53.96478,-1.10823,BEECHWOOD VETERINARY GROUP LIMITED,www.beechwoodvets.com,YO26 4YN,Total Exemption Small,Veterinary activities
54.32936,-1.42919,ACR DIAGNOSTICS LIMITED,,DL7 8XN,Total Exemption Small,Biotechnology
53.96557,-1.05951,LEMON MYRTLE LIMITED,,YO31 0RP,Total Exemption Small,"other natural sciences, engineering"
53.71822,-0.42817,HESSLE DOCK COMPANY LIMITED,,HU13 0EG,Total Exemption Small,"other natural sciences, engineering"
53.64011,-1.77847,KIRKLEES BIOSCIENCES LTD,www.kirkleesbio.com,HD1 3BD,Total Exemption Small,Biotechnology
54.00913,-1.45279,MGVET LTD,,HG5 0BG,Not Available,Veterinary activities
53.97783,-1.56481,COVANCE LABORATORIES LIMITED,www.covance.com,HG3 1PY,Full accounts,Biotechnology
53.98769,-1.55412,METALINEAR LIMITED,,HG2 0PP,Not Available,Biotechnology
53.64213,-1.77176,PROSPECT VETERINARY CENTRE LIMITED,www.donaldsonsvets.co.uk,HD5 9AX,Total Exemption Small,Veterinary activities
53.80581,-1.5016,R&R PUPPY SALES LTD,,LS9 6LL,Not Available,Veterinary activities
53.79713,-1.54684,ABCODIA LIMITED,www.abcodia.com,LS1 5AB,Full accounts,"other natural sciences, engineering"
53.95976,-2.012859,QUALITY PHARMACOVIGILANCE SERVICES LTD,,BD23 2EU,Total Exemption Small,Biotechnology
54.57487,-0.98264,XIKOMO LIMITED,,TS12 1NE,Total Exemption Small,Veterinary activities
54.52782,-1.08199,HOLLIN EQUEST EQUINE DENTISTRY LTD,www.hollinequest.co.uk,TS14 8JB,Total Exemption Small,Veterinary activities
53.98718,-1.10048,CALCARIA VETERINARY PRACTICE LTD,,YO30 4WG,Total Exemption Small,Veterinary activities
53.95726,-1.10856,SOUTHFIELDS (CHESHIRE) LIMITED,,YO26 4GB,Total Exemption Small,Veterinary activities
53.69166,-1.30897,HIDALGO PROFESSIONAL SERVICES LTD,,WF8 1PQ,Total Exemption Small,Veterinary activities
53.78931,-1.41701,BRADY ANIMAL HEALTH LTD,,LS15 4LG,Not Available,Veterinary activities
54.52355,-1.59212,MENTONE LTD,,DL3 8AZ,Total Exemption Small,"other natural sciences, engineering"
54.48401,-0.63555,THE BECK VETERINARY PRACTICE LIMITED,www.whitbyvet.co.uk,YO21 1HL,Micro-entity accounts,Veterinary activities
53.79517,-1.22006,KRUUSE UK LIMITED,www.kruuse.com,LS25 6NS,Full accounts,Veterinary activities
53.74818,-0.425,KINGSTON CAD SOLUTIONS LIMITED,www.kingstoncadsolutions.co.uk,HU10 6RJ,Total Exemption Small,"other natural sciences, engineering"
53.90556,-0.17303,BRIAN WHITTLE ASSOCIATES LIMITED,www.searchme4.co.uk,HU18 1RJ,Total Exemption Small,"other natural sciences, engineering"
54.00682,-1.46291,FOREST HOUSE VETS LIMITED,www.fhvets.co.uk,HG5 0AD,Total Exemption Small,Veterinary activities
53.85849,-1.81627,STENTORGATE LIMITED,www.stentorgate.co.uk,BD16 3EG,Total Exemption Small,Biotechnology
53.93065,-1.99448,INNERVISION MRI LIMITED,www.innervision-mri.co.uk,BD20 9DG,Micro-entity accounts,"other natural sciences, engineering"
54.69747,-1.18433,GROOMINGDALES OF HARTLEPOOL LIMITED,,TS24 0JX,Total Exemption Small,Veterinary activities
53.70709,-1.6544,TURNER LAND BIOLABS LIMITED,www.tlbiolabs.co.uk,WF17 7RB,Total Exemption Small,Biotechnology
53.9499,-2.01784,SCIENOVATE LTD,,BD23 2QT,Total Exemption Small,"other natural sciences, engineering"
53.96805,-0.99147,TRIGOSS LTD,,YO19 5LL,Total Exemption Small,Veterinary activities
53.67812,-1.91472,YORKSHIRE ANIMAL AMBULANCE LTD,www.yorkshireaa.co.uk,HX4 0AJ,Total Exemption Small,Veterinary activities
53.79682,-1.4265,XPERIOR FARM HEALTH LIMITED,www.xperiorfarmhealth.co.uk,LS15 8ZB,Total Exemption Small,Veterinary activities
53.679401,-1.500734,ATB INNOVATION LTD,,WF1 5PF,Total Exemption Small,"other natural sciences, engineering"
53.94842,-1.05354,AMAETHON LIMITED,,YO10 5DD,Full accounts,"other natural sciences, engineering"
54.46378,-1.17821,IT-IS INTERNATIONAL LIMITED,www.itisint.com,TS9 5JY,Total Exemption Small,"other natural sciences, engineering"
53.56191,-0.064,PANDA1 LIMITED,,DN32 8EB,Total Exemption Full,Veterinary activities
53.99998,-0.46238,NORTHERN HYGIENE LABORATORIES LIMITED,www.positiveaction.co.uk,YO25 9DJ,Total Exemption Small,"other natural sciences, engineering"
53.94908,-1.04736,REX SCIENTIFIC LIMITED,,YO10 5DG,Small company,"other natural sciences, engineering"
53.96814,-1.14956,YORK BIOANALYTICAL SOLUTIONS LIMITED,www.yorkbio.com,YO26 6QR,Full accounts,"other natural sciences, engineering"
54.1466,-0.79157,RAINBOW EQUINE HOSPITAL LIMITED,www.rainbowequinehospital.co.uk,YO17 6SG,Total Exemption Small,Veterinary activities
53.94806,-1.04515,ANTRUK ENTERPRISES LIMITED,,YO10 5DQ,Not Available,"other natural sciences, engineering"
54.08955,-0.18482,PHARM TOX CONSULTING LIMITED,www.pharmtoxconsulting.co.uk,YO15 2JY,Micro-entity accounts,"other natural sciences, engineering"
53.54206,-1.08688,KNAGGS FARRIERY SERVICES LIMITED,,DN2 5TB,Total Exemption Small,Veterinary activities
53.70843,-0.12037,BERRYGATE HILL NURSERIES LIMITED,,HU12 9ST,Small company,Plant propagation
53.79124,-1.76623,LENA NANOCEUTICS LIMITED,www.lenanano.com,BD7 1DP,Total Exemption Small,"other natural sciences, engineering"
53.95166,-1.08463,ELEMENT SIX (UK) LIMITED.,www.e6.com,YO23 1JJ,Full accounts,"other natural sciences, engineering"
53.81111,-1.50655,SMS DIRECT UK LIMITED,,LS9 6BU,Not Available,"other natural sciences, engineering"
53.86848,-1.88799,WILDLIFE VETS INTERNATIONAL,www.wildlifevetsinternational.org,BD21 4NQ,Total Exemption Small,Veterinary activities
53.86877,-1.90802,LOOK NORTH GROOMING AND TRAINING CENTRE LIMITED,www.looknorth.net,BD21 3DR,Total Exemption Small,Veterinary activities
53.84469,-1.7537,VETERINARY ULTRASOUND LTD,,BD17 7JW,Not Available,Veterinary activities
54.51211,-1.31196,SPARTAN NANO LIMITED,www.spartannano.com,TS17 0PE,Micro-entity accounts,"other natural sciences, engineering"
53.91082,-1.31582,AVACTA LIMITED,www.avacta.com,LS23 7FA,Full accounts,"other natural sciences, engineering"
54.42615,-1.36327,WHITEGATES NURSERY LIMITED,,DL6 2LL,Micro-entity accounts,Plant propagation
54.12024,-1.19241,DWR EQUINE LIMITED,,YO61 3AE,Total Exemption Small,Veterinary activities
53.80581,-1.5016,R&R BULLY CLINICAL SERVICES LTD,,LS9 6LL,Not Available,Veterinary activities
53.5709,-0.65535,ASHBY ROAD SURGERY LIMITED,www.ashbyvetgroup.co.uk,DN16 2AB,Total Exemption Small,Veterinary activities
54.50334,-1.35836,CLIMATE CHANGE ONE LTD,,TS15 9DF,Not Available,"other natural sciences, engineering"
54.08403,-1.40164,YORKSHIRE BOWEN LIMITED,,YO51 9HY,Total Exemption Small,Veterinary activities
53.99062,-1.5337,EAST PARK VETS LIMITED,www.eastparkvets.co.uk,HG1 5QT,Total Exemption Small,Veterinary activities
53.94968,-1.04766,APTAMER DIAGNOSTICS LIMITED,www.aptamergroup.co.uk,YO10 5NY,Total Exemption Small,Biotechnology
53.89369,-1.74425,INHALOSOME-C LIMITED,,LS29 6ES,Micro-entity accounts,Biotechnology
53.91824,-1.37525,WILLOW EQUINE LTD,,LS22 5NB,Total Exemption Small,Veterinary activities
54.59233,-1.030149,CVS (UK) LIMITED,www.cvsukltd.co.uk,TS11 6HU,Full accounts,Veterinary activities
54.26917,-0.92974,EDGEMOOR (HELMSLEY) LIMITED,www.edgemoor-vets.co.uk,YO62 6BD,Total Exemption Small,Veterinary activities
53.67701,-1.51714,WAKEFIELD VETS4PETS LIMITED,www.vets4pets.com,WF2 8UB,Full accounts,Veterinary activities
53.64717,-1.65427,SOWOOD VETS LIMITED,,WF12 0NT,Total Exemption Small,Veterinary activities
53.74251,-2.013199,FINE R AND D LTD.,www.finerandd.com,HX7 7BY,Total Exemption Full,"other natural sciences, engineering"
53.97405,-0.7647,ARK GIVENDALE LTD,,YO42 1TT,Total Exemption Small,Veterinary activities
53.77067,-1.6685,INTELLIGENT DIESEL SYSTEMS LIMITED,,BD4 0RR,Total Exemption Small,"other natural sciences, engineering"
54.43525,-1.39753,APPLETON SCIENTIFIC LTD,www.appletonscientific.co.uk,DL6 2BD,Total Exemption Small,"other natural sciences, engineering"
53.80744,-1.56055,C-CAPTURE LIMITED,www.c-capture.co.uk,LS2 9DF,Total Exemption Small,"other natural sciences, engineering"
53.80589,-1.62423,CORBY VETS4PETS LIMITED,www.vets4pets.com,LS13 4BN,Full accounts,Veterinary activities
54.20306,-1.04841,NC TECH INSIGHT LTD,,YO62 5XT,Total Exemption Small,"other natural sciences, engineering"
53.80675,-1.17397,ECCLESHILL VETS4PETS LIMITED,www.vets4pets.com,LS25 6HJ,Full accounts,Veterinary activities
53.70789,-1.78277,BRIGHOUSE VETERINARY CENTRE LIMITED,www.brighouse-veterinary-centre.co.uk,HD6 2BT,Total Exemption Small,Veterinary activities
53.83752,-1.78269,KNOWLEDGE ECONOMY DEVELOPMENTS LIMITED,,BD17 7EZ,Total Exemption Small,"other natural sciences, engineering"
53.81505,-1.72202,ECCLESHILL VETS4PETS LIMITED,www.vets4pets.com,BD2 3RH,Full accounts,Veterinary activities
54.08383,-1.01642,THE SOFT CHEW COMPANY LIMITED,www.chewz.co.uk,YO60 6RZ,Total Exemption Small,Veterinary activities
53.43034,-1.1021,RICHARD LAWN ANIMAL CARE LTD,,DN11 9QB,Not Available,Veterinary activities
54.67949,-1.21321,CVS (UK) LIMITED,www.cvsukltd.co.uk,TS25 1TU,Full accounts,Veterinary activities
53.71905,-0.4239,TEN CONSULTING LIMITED,,HU13 0DZ,Total Exemption Small,Veterinary activities
53.80589,-1.62423,WASHINGTON VETS4PETS LIMITED,,LS13 4BN,Full accounts,Veterinary activities
53.797371,-1.553366,NEKTAR THERAPEUTICS UK LIMITED,,LS1 2EZ,Full accounts,"other natural sciences, engineering"
53.94908,-1.04736,CIRCA SUSTAINABLE CHEMICALS LIMITED,,YO10 5DG,Total Exemption Small,Biotechnology
53.92819,-1.38605,CHEVIN NURSERIES LIMITED,,LS22 6NG,Total Exemption Small,Plant propagation
53.91281,-0.16642,GREAT SCOTT! PRODUCTIONS LIMITED,,HU18 1LL,Total Exemption Small,"other natural sciences, engineering"
54.5222,-1.55534,P & K HORSE AMBULANCES LIMITED,,DL1 5SF,Total Exemption Small,Veterinary activities
53.84865,-1.66855,CLIFFORD GENOMICS LTD,,LS19 6PQ,Not Available,Biotechnology
53.80744,-1.56055,FREE RUNNING BUILDINGS LIMITED,,LS2 9DF,Full accounts,"other natural sciences, engineering"
54.52267,-1.52691,DARLINGTON VALUE PET CARE LIMITED,www.valuevets.uk.com,DL1 1BA,Total Exemption Small,Veterinary activities
53.95726,-1.10856,R & S DOWDING LIMITED,,YO26 4GB,Total Exemption Small,Veterinary activities
54.22895,-1.32927,EARLEY ORNAMENTALS LIMITED,,YO7 3AA,Total Exemption Small,Plant propagation
53.96478,-1.10823,PRINCE BISHOP VETERINARY CENTRE LIMITED,www.princebishopvets.co.uk,YO26 4YN,Total Exemption Small,Veterinary activities
53.71344,-1.71383,ARLABION LTD,,WF15 6NF,Total Exemption Small,"other natural sciences, engineering"
53.93662,-1.37833,IDEXX LABORATORIES LIMITED,www.animana.com,LS22 7DN,Full accounts,Veterinary activities
53.69793,-1.6434,HYDROVAC (DEVELOPMENT) LIMITED,,WF13 4HH,Total Exemption Small,"other natural sciences, engineering"
53.83201,-1.80511,PHYCOSERA LIMITED,,BD18 4HW,Not Available,Biotechnology
53.94968,-1.04766,APTAMER SOLUTIONS LIMITED,,YO10 5NY,Total Exemption Small,Biotechnology
53.95726,-1.10856,ASHLEIGH VETERINARY CLINIC LIMITED,www.ashleighvetclinic.com,YO26 4GB,Total Exemption Small,Veterinary activities
53.67781,-1.68703,HEXTERN SENSOR TECHNOLOGIES LIMITED,,WF14 9PF,Total Exemption Small,"other natural sciences, engineering"
53.58875,-1.24394,MOUNT PLEASANT KENNELS LIMITED,,DN6 7EX,Total Exemption Small,Veterinary activities
53.81962,-1.4849,ABBOTSLEY VETERINARY PRACTICE LIMITED,www.abbotsleyvets.co.uk,LS8 3DR,Total Exemption Small,Veterinary activities
53.94968,-1.04766,APTAMER THERAPEUTICS LIMITED,,YO10 5NY,Micro-entity accounts,Biotechnology
54.52637,-1.54979,MARLOWE VON GROOTE LIMITED,,DL1 1GB,Total Exemption Small,"other natural sciences, engineering"
53.83805,-1.56982,ARTOS INNOVATION LTD,,LS6 4QY,Total Exemption Small,"other natural sciences, engineering"
53.87505,-1.76456,WILDTRACK TELEMETRY SYSTEMS LIMITED,www.wildtracker.co.uk,LS20 8PJ,Total Exemption Small,"other natural sciences, engineering"
53.85858,-1.55256,HARPER HEALTHCARE LIMITED,,LS17 7RB,Micro-entity accounts,"other natural sciences, engineering"
53.74473,-1.52322,L D RESEARCH CONSULTING LIMITED,,LS10 4GW,Total Exemption Small,Biotechnology
54.44475,-1.28325,HAMBLETON EQUINE CLINIC (STOKESLEY) LIMITED,,TS15 0HX,Micro-entity accounts,Veterinary activities
54.13551,-0.79712,RAINBOW EQUINE REPRODUCTIVE SERVICES LIMITED,,YO17 7HT,Total Exemption Small,Veterinary activities
53.7623,-1.41385,TISSUE REGENIX LIMITED,www.tissueregenix.com,LS26 8XT,Full accounts,"other natural sciences, engineering"
53.81024,-1.58562,ANDEB HEALTHCARE LTD,www.andebhealthcare.co.uk,LS4 2PU,Total Exemption Small,Biotechnology
53.78931,-1.41701,MCCOSKER & SMITH PTY LTD,,LS15 4LG,Not Available,Veterinary activities
53.90332,-1.69952,OMB TECHNOLOGY LTD,www.omb-technology.com,LS21 3PB,Total Exemption Small,Biotechnology
53.53344,-1.12127,DONCASTER VETS4PETS LIMITED,www.vets4pets.com,DN2 4DB,Full accounts,Veterinary activities
53.94968,-1.04766,TISSUE REGENIX GROUP PLC,www.tissueregenix.com,YO10 5NY,Not Available,"other natural sciences, engineering"
54.57651,-1.10056,BIOSOURCE LIMITED,www.businessprofessionalinsurance.co.uk,TS10 4RF,Full accounts,"other natural sciences, engineering"
53.67948,-0.37874,GEOMATIX LIMITED,www.geomatix.net,DN19 7AP,Total Exemption Small,"other natural sciences, engineering"
53.82005,-1.50424,FLEADH ELECTRONICS LIMITED,www.fleadh.co.uk,LS8 2RU,Total Exemption Full,"other natural sciences, engineering"
53.96478,-1.10823,THE ELISABETH HUNTENBURG VETERINARY PRACTICE LTD,www.vets4u.co.uk,YO26 4YN,Total Exemption Small,Veterinary activities
54.31307,-2.08802,BAINBRIDGE VETS LIMITED,www.bainbridgevets.co.uk,DL8 3BJ,Total Exemption Small,Veterinary activities
54.28137,-0.91264,ORCHID RIDGE LTD,,YO62 6UQ,Total Exemption Small,Veterinary activities
53.77951,-1.7289,VETS NOW LIMITED,www.vets-now.com,BD4 7PS,Full accounts,Veterinary activities
54.13296,-1.54592,BISHOPTON EQUINE VETERINARY SERVICES LTD,www.bishoptonvets.co.uk,HG4 2QR,Total Exemption Small,Veterinary activities
53.95726,-1.10856,THE ELISABETH HUNTENBURG VETERINARY PRACTICE LTD,www.vets4u.co.uk,YO26 4GB,Total Exemption Small,Veterinary activities
53.96478,-1.10823,ASHLANDS VETERINARY SERVICES (2006) LTD,www.ashlandsvets.co.uk,YO26 4YN,Total Exemption Small,Veterinary activities
54.57651,-1.10056,APPLIED GRAPHENE MATERIALS UK LIMITED,www.durhamgraphene.com,TS10 4RF,Full accounts,"other natural sciences, engineering"
53.94842,-1.05354,CIZZLE BIOTECHNOLOGY LIMITED,www.cizzlebiotechnology.com,YO10 5DD,Total Exemption Full,Biotechnology
53.76715,-1.8877,EQUIMED REFERRALS LTD,www.equimedreferrals.com,HX2 9PE,Total Exemption Small,Veterinary activities
53.80589,-1.62423,SOUTH SHIELDS VETS4PETS LIMITED,www.vets4pets.eu.com,LS13 4BN,Full accounts,Veterinary activities
53.94745,-1.03269,NGENICS GLOBAL LIMITED,www.ngenics.co.uk,YO10 5GA,Total Exemption Small,"other natural sciences, engineering"
53.79124,-1.76623,CRYSTEC LIMITED,www.crystecpharma.com,BD7 1DP,Total Exemption Small,Biotechnology
53.79221,-1.59627,M.I.E. MEDICAL RESEARCH LIMITED,www.mie-uk.com,LS12 4JF,Total Exemption Small,Biotechnology
53.898541,-1.950124,SMARDTV (UK) LIMITED,www.smardtv.com,BD20 6QW,Full accounts,"other natural sciences, engineering"
53.98752,-0.91656,BIOAPP SOLUTIONS LIMITED,www.bioappsolutions.co.uk,YO41 1DQ,Not Available,Biotechnology
53.70081,-1.41219,VUKOTA LTD,www.chantryvets.co.uk,WF6 2EE,Total Exemption Small,Veterinary activities
53.95726,-1.10856,BEST FRIENDS VETERINARY GROUP,www.vetsavers.co.uk,YO26 4GB,Not Available,Veterinary activities
54.68542,-1.20767,GREEN FROG ENTERPRISES LTD,www.greenfrogenterprises.co.uk,TS24 7DA,Total Exemption Small,Biotechnology
54.46519,-0.68226,AYLISH GIAMEI LTD,,YO21 1SU,Total Exemption Small,Veterinary activities
54.51816,-1.32068,BOXWOOD LABORATORIES LIMITED,,TS17 5BL,Total Exemption Full,"other natural sciences, engineering"
53.98718,-1.10048,CD & AF COOKE LIMITED,,YO30 4WG,Not Available,Veterinary activities
53.96702,-1.06075,BIOCRO LTD.,,YO31 0AA,Total Exemption Small,"other natural sciences, engineering"
53.71293,-1.42878,MARK ARMSTRONG DIPWCF LTD,,WF6 2PE,Micro-entity accounts,Veterinary activities
53.83621,-1.78036,FLEADH ELECTRONICS LIMITED,www.fleadh.co.uk,BD17 7DB,Total Exemption Full,"other natural sciences, engineering"
54.35182,-1.44796,MILE HOUSE VETS LIMITED,,DL6 2NW,Total Exemption Small,Veterinary activities
53.8474,-1.85786,SPORTS TURF RESEARCH INSTITUTE(THE),www.stri.co.uk,BD16 1AU,Full accounts,"other natural sciences, engineering"
53.56035,-0.06659,HEALING WATERS GRIMSBY LTD,,DN32 9SQ,Not Available,Veterinary activities
53.67078,-1.23427,K J CARR LIMITED,,WF8 3DD,Total Exemption Small,Veterinary activities
54.57651,-1.10056,NUFORMIX LIMITED,www.nuformix.com,TS10 4RF,Full accounts,Biotechnology
53.95186,-1.044929,FLIGHT WORKS LTD,,YO10 3LG,Total Exemption Small,"other natural sciences, engineering"
53.64213,-1.77176,DONALDSON'S VETS LIMITED,www.donaldsonsvets.co.uk,HD5 9AX,Total Exemption Small,Veterinary activities
53.91082,-1.31582,AVACTA NOTTINGHAM ASSET LIMITED,,LS23 7FA,Full accounts,Veterinary activities
53.86465,-1.68503,TWEED HOUSE LIMITED,www.tweedhousebeds.co.uk,LS19 7RP,Total Exemption Small,Veterinary activities
53.69717,-1.40256,FORTES V S LTD,,WF6 1WU,Total Exemption Small,Veterinary activities
53.95837,-1.08177,INCLUSIVE INNOVATIONS LIMITED,,YO1 8SU,Total Exemption Small,"other natural sciences, engineering"
53.83832,-1.78771,KNOWLEDGE ECONOMY DEVELOPMENTS LIMITED,,BD18 3LA,Total Exemption Small,"other natural sciences, engineering"
54.08802,-1.41401,CRITICAL PROCESSES LIMITED,www.criticalprocesses.com,YO51 9NS,Total Exemption Small,"other natural sciences, engineering"
53.98704,-1.15072,MAYFIELD NURSERY (YORK) LTD,,YO26 6JZ,Total Exemption Small,Plant propagation
54.43509,-0.53601,RYMER DEVELOPMENTS LIMITED,,YO22 4RA,Micro-entity accounts,"other natural sciences, engineering"
54.59657,-1.62045,QUALITY HOSPITAL SOLUTIONS LIMITED,,DL5 6PQ,Total Exemption Small,"other natural sciences, engineering"
53.78931,-1.41701,RIDGEONS ENGINEERING LTD,,LS15 4LG,Not Available,"other natural sciences, engineering"
54.45649,-1.27322,CHEMICAL TECHNOLOGY SERVICES LTD,,TS15 0JZ,Total Exemption Small,"other natural sciences, engineering"
53.55362,-0.49187,OCVC LIMITED,,DN20 8AS,Total Exemption Small,Veterinary activities
53.679401,-1.500734,OMEGA YACHTING SOLUTIONS LTD.,,WF1 5PF,Total Exemption Small,"other natural sciences, engineering"
53.80744,-1.56055,RIPTRON LIMITED,,LS2 9DF,Micro-entity accounts,"other natural sciences, engineering"
53.87987,-0.71116,VPARST LIMITED,,YO43 3PH,Total Exemption Small,Veterinary activities
53.79682,-1.4265,IVEC LIMITED,www.ivec.co.uk,LS15 8ZB,Small company,Veterinary activities
53.71905,-0.4239,SWANBRIDGE VETERINARY GROUP LIMITED,,HU13 0DZ,Total Exemption Small,Veterinary activities
53.78931,-1.41701,CTDS LIMITED,www.ctdslab.co.uk,LS15 4LG,Total Exemption Small,Veterinary activities
53.68554,-1.57507,PALMER & DUNCAN VETS LIMITED,www.pdvets.co.uk,WF5 9JB,Total Exemption Small,Veterinary activities
54.52239,-1.55708,GRANGE VETS DARLINGTON LIMITED,www.grangevets.co.uk,DL1 5SJ,Total Exemption Small,Veterinary activities
54.00893,-1.55295,BUDBOX LIMITED,,HG1 3HJ,Total Exemption Small,Plant propagation
53.7458,-1.88482,REBECCA HARTLEY LOCUM SERVICES LTD,,HX2 8HB,Not Available,Veterinary activities
53.54365,-1.05307,K B LEWIS LTD,,DN3 2HB,Not Available,Veterinary activities
53.6667,-1.46043,OAKENSHAW RESCUE KENNELS LIMITED,,WF4 1SD,Not Available,Veterinary activities
54.51823,-1.31906,COPELAND VETERINARY PRACTICE LIMITED,www.copelandvets.co.uk,TS17 0WA,Total Exemption Small,Veterinary activities
54.30182,-1.55407,PEDEN BLOODSTOCK GMBH LIMITED,,DL7 9RS,Not Available,Veterinary activities
53.8301,-1.77873,SHIPLEY VETS LIMITED,www.shipleyvets.co.uk,BD18 3BS,Total Exemption Small,Veterinary activities
53.84988,-1.26382,MA RILEY SERVICES LTD,,LS24 9PB,Total Exemption Small,Veterinary activities
53.71468,-1.60515,CROFT HOUSE VETERINARY CLINIC LIMITED,www.crofthousevets.co.uk,WF17 6EU,Total Exemption Small,Veterinary activities
54.32082,-1.65005,T.S.K. ANIMAL HEALTH LIMITED,,DL8 1JY,Total Exemption Small,Veterinary activities
53.88165,-1.35771,ROB JACOBSON CONSULTANCY LIMITED,www.robjacobsonconsultancy.co.uk,LS23 6TH,Total Exemption Small,"other natural sciences, engineering"
53.53123,-1.14464,BENTLEY ROAD VETERINARY PRACTICE LIMITED,www.bentleyvets.com,DN5 9SD,Total Exemption Small,Veterinary activities
53.91149,-1.31341,THE HYPERTHYROID CAT CENTRE LIMITED,,LS23 7FG,Total Exemption Small,Veterinary activities
53.95949,-1.55857,HP4 IP LIMITED,,HG3 1PA,Not Available,"other natural sciences, engineering"
53.47163,-1.05663,VONGAI BIOSCIENCES LTD,,DN11 0FW,Not Available,"other natural sciences, engineering"
53.50059,-1.11911,EURO ENVIRONMENTAL LTD,www.euroenvironmental.co.uk,DN4 5JT,Total Exemption Small,"other natural sciences, engineering"
53.82152,-1.57744,WASTE MANAGEMENT RESEARCH LIMITED,,LS6 2UJ,Total Exemption Small,"other natural sciences, engineering"
53.85052,-1.76814,BAILDON VETERINARY CENTRE LIMITED,www.baildonvets.co.uk,BD17 6BY,Micro-entity accounts,Veterinary activities
54.00893,-1.55295,UNIVERSAL HYDRO SYSTEMS LTD,,HG1 3HJ,Total Exemption Small,Plant propagation
53.62153,-0.48255,PARAMOUNT ELEMENTS LIMITED,,DN20 0PL,Total Exemption Small,"other natural sciences, engineering"
54.24447,-1.05522,EDGEMOOR (HELMSLEY) LIMITED,www.edgemoor-vets.co.uk,YO62 5BZ,Total Exemption Small,Veterinary activities
54.00235,-0.43409,ALDGATE VETERINARY PRACTICE LTD,www.aldgatevet.co.uk,YO25 6QD,Total Exemption Small,Veterinary activities
53.95726,-1.10856,WOODCROFT VETERINARY GROUP LIMITED,www.woodcroftvets.com,YO26 4GB,Full accounts,Veterinary activities
53.86506,-1.90838,NOBLEMARSH LIMITED,,BD21 5AD,Total Exemption Small,"other natural sciences, engineering"
53.80581,-1.5016,R&R STUD SERVICES LTD,,LS9 6LL,Not Available,Veterinary activities
53.88368,-1.6659,CHEVIN NURSERIES LIMITED,,LS19 7BG,Total Exemption Small,Plant propagation
54.44475,-1.28325,HAMBLETON EQUINE CLINIC LIMITED,www.hambleton-equine.co.uk,TS15 0HX,Total Exemption Small,Veterinary activities
54.0163,-0.9729,THE CENTRE FOR APPLIED CROP SCIENCE LIMITED,,YO41 1LZ,Not Available,"other natural sciences, engineering"
53.98718,-1.10048,ARISTOCATS CATTERY LIMITED,,YO30 4WG,Total Exemption Small,Veterinary activities
53.57516,-0.07228,ABBEY VETERINARY CENTRE (GRIMSBY) LIMITED,,DN31 3ER,Total Exemption Small,Veterinary activities
54.13296,-1.54592,F TATE AND SONS LIMITED,,HG4 2QR,Total Exemption Small,Plant propagation
53.92852,-0.78302,JOANNA HANKS LTD,,YO42 2NH,Total Exemption Small,Biotechnology
54.1343,-0.798,HOLMEFIELD VETERINARY CLINIC LIMITED,,YO17 7AA,Total Exemption Small,Veterinary activities
54.57135,-1.25181,CVS (UK) LIMITED,www.cvsukltd.co.uk,TS1 5QZ,Full accounts,Veterinary activities
53.94908,-1.04736,OPTIBIOTIX LIMITED,www.optibiotix.com,YO10 5DG,Full accounts,Biotechnology
53.95726,-1.10856,ASHLANDS VETERINARY SERVICES (2006) LTD,www.ashlandsvets.co.uk,YO26 4GB,Total Exemption Small,Veterinary activities
53.68946,-1.53082,VUKOTA LTD,www.chantryvets.co.uk,WF2 0AJ,Total Exemption Small,Veterinary activities
53.80034,-1.46039,THE SUNSEED TRUST LTD,www.sunseed.org.uk,LS15 7SB,Micro-entity accounts,"other natural sciences, engineering"
53.77947,-1.09168,CVS (UK) LIMITED,www.cvsukltd.co.uk,YO8 4JQ,Full accounts,Veterinary activities
53.982,-1.52805,ELUCEDA LIMITED,www.eluceda.com,HG2 8QR,Total Exemption Full,"other natural sciences, engineering"
53.78364,-1.06932,CREATIVE DESIGN TECHNOLOGY LTD,,YO8 4PB,Total Exemption Small,"other natural sciences, engineering"
53.552,-0.49407,R. D. L. ENGINEERING LIMITED,,DN20 8LH,Total Exemption Small,"other natural sciences, engineering"
53.83512,-1.6436,C.R.E.H. ANALYTICAL LTD,www.grenville10.freeserve.co.uk,LS18 4RF,Total Exemption Small,"other natural sciences, engineering"
53.7623,-1.41385,TRX CARDIAC LIMITED,www.tissueregenix.com,LS26 8XT,Full accounts,Biotechnology
54.24005,-1.65406,YOREDALE VETS LTD,,HG4 4BS,Total Exemption Small,Veterinary activities
54.23114,-1.33171,SKELDALE VETERINARY CENTRE LIMITED,www.skeldalevets.co.uk,YO7 3BT,Total Exemption Full,Veterinary activities
54.1343,-0.798,NEWFLOW LIMITED,www.newflow.co.uk,YO17 7AA,Total Exemption Small,"other natural sciences, engineering"
54.0336,-1.22176,MEDICAL EDUCATION AND DEVELOPMENT SERVICES LIMITED,,YO30 2BL,Not Available,"other natural sciences, engineering"
53.54127,-1.09948,XTG LTD,,DN2 4PX,Not Available,Biotechnology
53.96478,-1.10823,EASTFIELD VETERINARY CLINIC LIMITED,www.eastfieldvets.co.uk,YO26 4YN,Total Exemption Small,Veterinary activities
54.55747,-1.22249,MIDDLESBROUGH VETS4PETS LIMITED,www.vets4pets.com,TS4 2PT,Full accounts,Veterinary activities
53.87567,-1.72503,PETSCO LIMITED,www.whitecrossvets.co.uk,LS20 8NH,Total Exemption Small,Veterinary activities
54.57651,-1.10056,DRD POWER LIMITED,www.drdconsultants.co.uk,TS10 4RF,Small company,"other natural sciences, engineering"
53.79425,-1.59167,CONTROL STATION LIMITED,,LS12 1TQ,Total Exemption Small,"other natural sciences, engineering"
53.82535,-1.50467,MANTIS NUMERICS LIMITED,,LS8 2JA,Total Exemption Small,"other natural sciences, engineering"
53.75608,-0.36924,FOSSIL FREE FUELS LTD,,HU5 3HU,Total Exemption Small,"other natural sciences, engineering"
53.81483,-1.51814,JOEFREY SAAS LIMITED,,LS8 5PH,Not Available,Veterinary activities
53.95748,-2.02711,NORVAP SERVICE LIMITED,www.norvap.com,BD23 2AA,Not Available,Veterinary activities
53.95303,-2.0895,JBA RISK MANAGEMENT LIMITED,www.jbarisk.com,BD23 3AE,Full accounts,"other natural sciences, engineering"
53.924,-0.80023,RIJK ZWAAN UK LIMITED,,YO42 1NR,Small company,Seed propogation for propogation
53.79728,-1.55489,VIRTTU BIOLOGICS LIMITED,www.virttu.com,LS1 2TW,Full accounts,Biotechnology
53.96702,-1.06075,ALMABION LIMITED,www.york-bio.com,YO31 0AA,Total Exemption Small,"other natural sciences, engineering"
53.92943,-1.5824,POSS LIMITED,www.possltd.co.uk,LS17 0BT,Total Exemption Small,"other natural sciences, engineering"
53.99066,-1.0125,ACTIVE DEVICE DEVELOPMENT LIMITED,www.active-device-development.com,YO32 9LE,Total Exemption Small,"other natural sciences, engineering"
53.80744,-1.56055,UMIP PROJECT 002 LIMITED,,LS2 9DF,Micro-entity accounts,"other natural sciences, engineering"
54.00739,-1.53747,CRAB LANE VETERINARY PRACTICE LIMITED,www.crablanevets.co.uk,HG1 3BE,Total Exemption Small,Veterinary activities
53.8548,-1.05108,KLEIJNEN SYSTEMATIC REVIEWS LIMITED,www.systematic-reviews.com,YO19 6FD,Total Exemption Small,"other natural sciences, engineering"
53.95726,-1.10856,BEECHWOOD VETERINARY GROUP LIMITED,www.beechwoodvets.com,YO26 4GB,Total Exemption Small,Veterinary activities
54.5222,-1.55534,INNOVATIVE BRITISH RESEARCH & DEVELOPMENT MEP LTD,,DL1 5SF,Not Available,"other natural sciences, engineering"
53.82925,-1.78506,PLATFORM SCIENCE & TECHNOLOGY LTD,,BD18 3DJ,Micro-entity accounts,"other natural sciences, engineering"
53.75672,-1.76674,SAGE V G LIMITED,,BD12 0AA,Total Exemption Small,Veterinary activities
53.85163,-1.59465,BORIDE SERVICES LIMITED,,LS16 6AA,Total Exemption Small,"other natural sciences, engineering"
53.79515,-1.24997,ANIMAL CARE EXTRAORDINAIRE LTD,,LS25 6ND,Total Exemption Small,Veterinary activities
53.7289,-1.68288,COMMS SPECTRUM CONSULTING LTD,,BD19 4PY,Not Available,"other natural sciences, engineering"
53.78991,-1.25285,MA RILEY SERVICES LTD,,LS25 6HU,Total Exemption Small,Veterinary activities
53.74605,-1.59808,HYDRO PAWS LIMITED,www.hydropaws.co.uk,LS27 8PZ,Total Exemption Small,Veterinary activities
53.94968,-1.04766,AVACTA LIMITED,www.avacta.com,YO10 5NY,Group,"other natural sciences, engineering"
54.57559,-0.97786,SCOUTEK LTD,www.scoutek.com,TS12 1HT,Total Exemption Small,"other natural sciences, engineering"
53.56917,-0.08473,CRG RESEARCH & DEVELOPMENT LIMITED,,DN31 1UL,Total Exemption Small,"other natural sciences, engineering"
53.96478,-1.10823,WILSON VETERINARY LIMITED,www.wilsonvetgroup.co.uk,YO26 4YN,Total Exemption Small,Veterinary activities
53.80796,-1.55333,NONWOVENS INNOVATION & RESEARCH INSTITUTE LIMITED,www.nonwovens-innovation.com,LS2 9JT,Micro-entity accounts,"other natural sciences, engineering"
54.56109,-1.30608,ENDEAVOUR 143 LIMITED,,TS17 6QP,Total Exemption Small,"other natural sciences, engineering"
54.60687,-1.08731,WAGNER AEROSPACE (GB) LTD,,TS10 5JF,Total Exemption Small,"other natural sciences, engineering"
53.89115,-1.76035,VICVET LTD,,LS29 6AU,Total Exemption Small,Veterinary activities
53.73211,-0.14252,ON-TARGET SOFTWARE SOLUTIONS LIMITED,,HU12 9EW,Total Exemption Small,"other natural sciences, engineering"
53.91213,-0.16342,PEEL VETERINARY CLINIC LTD,,HU18 1PS,Total Exemption Full,Veterinary activities
53.96478,-1.10823,BEST FRIENDS VETERINARY GROUP,www.vetsavers.co.uk,YO26 4YN,Not Available,Veterinary activities
53.73993,-2.00917,EQUINE SOLUTIONS UK LIMITED,,HX7 8AU,Micro-entity accounts,Veterinary activities
53.67888,-1.14589,HOLLIN EQUEST EQUINE DENTISTRY LTD,www.hollinequest.co.uk,DN14 0GE,Total Exemption Small,Veterinary activities
53.9683,-1.12471,S.T.STEAD LTD,www.ststead.co.uk,YO26 6AG,Total Exemption Small,Veterinary activities
53.65444,-1.82191,IMISE LIMITED,www.imise.co.uk,HD3 3ES,Total Exemption Small,"other natural sciences, engineering"
53.72958,-1.81303,STUART COWLING LIMITED,,HX3 8LS,Total Exemption Small,"other natural sciences, engineering"
53.79465,-1.77195,GLUCO TECHNOLOGY LIMITED,www.glucotechnology.com,BD7 1JZ,Micro-entity accounts,"other natural sciences, engineering"
53.77178,-0.36638,CHEMTRIX LIMITED,www.chemtrix.com,HU6 7RX,Not Available,"other natural sciences, engineering"
54.13545,-1.52242,YOREDALE VETS LTD,,HG4 1PB,Total Exemption Small,Veterinary activities
53.83948,-1.52797,MORETA LIMITED,,LS17 6PT,Not Available,Biotechnology
53.75044,-0.73974,TAW VET LTD,,HU15 2XT,Not Available,Veterinary activities
53.96478,-1.10823,WESTWAY VETERINARY CENTRES LIMITED,www.westway-vets.com,YO26 4YN,Total Exemption Small,Veterinary activities
53.64011,-1.77847,ARR RAIL SOLUTIONS LTD,,HD1 3BD,Total Exemption Small,"other natural sciences, engineering"
53.59437,-0.64356,ASHCROFT SURGERY LIMITED,www.ashcroftvetsscunthorpe.co.uk,DN15 6AH,Total Exemption Small,Veterinary activities
53.96342,-2.004,KINGSWAY VETERINARY GROUP LIMITED,,BD23 1HJ,Total Exemption Small,Veterinary activities
54.52489,-1.56322,STANHOPE PARK VETERINARY HOSPITAL LIMITED,www.stanhope-vet.co.uk,DL3 7SQ,Total Exemption Small,Veterinary activities
53.96,-0.97392,7 RDD LIMITED,,YO19 5PA,Total Exemption Small,"other natural sciences, engineering"
53.80101,-1.55623,X - LAB LIMITED,www.netimis.co.uk,LS3 1AB,Total Exemption Small,"other natural sciences, engineering"
53.56292,-0.08894,NAVIGO NURSERIES LIMITED,,DN32 0QE,Full accounts,Plant propagation
54.00225,-1.45052,ASHLEIGH VETERINARY CLINIC LIMITED,www.ashleighvetclinic.com,HG5 8LH,Total Exemption Small,Veterinary activities
53.55092,-0.49909,EDWAY LTD,,DN20 8NQ,Total Exemption Small,Veterinary activities
53.75936,-0.44907,KINGSTON CAD SOLUTIONS LIMITED,www.kingstoncadsolutions.co.uk,HU10 6BJ,Total Exemption Small,"other natural sciences, engineering"
53.95303,-2.0895,JBA TRUST LIMITED,www.jbarisk.com,BD23 3AE,Total Exemption Full,"other natural sciences, engineering"
53.98721,-0.90862,BOTANICAL SOLUTIONS LIMITED,,YO41 1DB,Total Exemption Small,Biotechnology
53.80796,-1.55333,INSECTSHIELD LIMITED,,LS2 9JT,Total Exemption Small,"other natural sciences, engineering"
54.57651,-1.10056,CPI INNOVATION SERVICES LIMITED,www.businessprofessionalinsurance.co.uk,TS10 4RF,Full accounts,"other natural sciences, engineering"
53.9608,-1.08483,VETS2YOU LIMITED,www.vets2you.co.uk,YO1 8QG,Total Exemption Small,Veterinary activities
53.70124,-1.75832,EJSA CONSULTING ENGINEERS LIMITED,,HD6 4HN,Total Exemption Small,"other natural sciences, engineering"
53.86569,-1.68682,MELODIENT LIMITED,,LS19 7EW,Total Exemption Small,"other natural sciences, engineering"
54.07455,-0.88196,VICTORIA WILLIAMS LTD,,YO60 7JR,Not Available,Veterinary activities
53.98718,-1.10048,MARTIC SYSTEMS LIMITED,,YO30 4WG,Total Exemption Small,"other natural sciences, engineering"
53.98393,-2.10425,INTERNATIONAL PLANT PROPAGATION TECHNOLOGY LTD,,BD23 3RB,Total Exemption Small,Plant propagation
54.00919,-1.05607,VALENTCIA LIMITED,,YO32 9FY,Total Exemption Small,Veterinary activities
53.85664,-1.61749,TOWERWOOD LIMITED,www.towerwoodvets.co.uk,LS16 7DR,Not Available,Veterinary activities
53.54127,-1.1719,YORKSHIRE ANIMAL RESCUE LIMITED,,DN5 8RR,Not Available,Veterinary activities
53.98926,-1.53858,MEDIVET LIMITED,www.medivet.co.uk,HG1 1HS,Total Exemption Small,Veterinary activities
53.70259,-0.87083,END COTTAGE LIMITED,,DN14 5QE,Total Exemption Small,Veterinary activities
53.73004,-1.99438,DERMDALE VETERINARY DERMATOLOGY CONSULTANCY LIMITED,,HX7 5BS,Total Exemption Small,Veterinary activities
54.5621,-1.24254,UK PEPTIDES LTD,,TS5 6JN,Total Exemption Small,Biotechnology
53.51152,-1.23263,MPC3 LIMITED,www.mpc3.co.uk,DN5 7SY,Total Exemption Small,"other natural sciences, engineering"
54.08625,-0.20052,DANIEL BROWN SURVEY SERVICES LIMITED,,YO16 4JB,Total Exemption Small,"other natural sciences, engineering"
54.5347,-1.54394,APPLETON SCIENTIFIC LTD,www.appletonscientific.co.uk,DL1 2UP,Total Exemption Small,"other natural sciences, engineering"
53.67185,-1.7691,TARANTINO & TUDINI LTD,,HD2 1GU,Total Exemption Small,Veterinary activities
53.98622,-1.10025,BIOMIMETICS HEALTH INDUSTRIES (UK) LIMITED,www.biomimeticshealth.com,YO30 4XG,Total Exemption Small,"other natural sciences, engineering"
54.3803,-1.73527,CBRUFFER LIMITED,,DL9 3SA,Not Available,Veterinary activities
53.99735,-1.18947,TOTAL HOOF CARE FARRIERY SERVICES LIMITED,,YO26 8JG,Total Exemption Small,Veterinary activities
54.55304,-0.88355,MAHON DEVELOPMENTS LTD,www.oxywax.com,TS13 4JX,Total Exemption Small,"other natural sciences, engineering"
53.80845,-1.53607,ROOTS NURSERIES LIMITED,,LS7 2BB,Micro-entity accounts,Plant propagation
53.68495,-0.43946,BARTON COMPANION ANIMAL SERVICES LIMITED,,DN18 5PA,Total Exemption Small,Veterinary activities
54.31163,-1.83228,HADLEY HOUNDS LTD,www.hadleyhounds.co.uk,DL8 5AB,Total Exemption Small,Veterinary activities
53.75608,-0.36924,CYTOGENEX LIMITED,www.cytogenex.com,HU5 3HU,Total Exemption Small,"other natural sciences, engineering"
53.74375,-2.01274,DNG LOCUM SERVICES LTD,,HX7 7DD,Total Exemption Small,Veterinary activities
53.90565,-1.69115,TATE FARRIERS LIMITED,,LS21 1AG,Total Exemption Small,Veterinary activities
53.95726,-1.10856,EASTFIELD VETERINARY CLINIC LIMITED,www.eastfieldvets.co.uk,YO26 4GB,Total Exemption Small,Veterinary activities
53.91228,-1.75965,OMICS LTD,,LS29 7LP,Total Exemption Small,Biotechnology
53.77178,-0.36638,INNOVATIVE BRITISH RESEARCH & DEVELOPMENT GROUP LTD,,HU6 7RX,Total Exemption Small,"other natural sciences, engineering"
54.13485,-1.52163,COW -SIDE DIAGNOSTICS LTD,,HG4 1PE,Total Exemption Small,Veterinary activities
54.43568,-1.39919,GREEN MARINE GLOBAL LTD,,DL6 2AA,Total Exemption Small,"other natural sciences, engineering"
53.65354,-0.99291,CANINE SPORTS SUPPORT LTD,,DN14 9AD,Total Exemption Small,Veterinary activities
54.33843,-1.43199,KEBIR HOUSE VETERINARY PRACTICE LIMITED,,DL6 1NP,Total Exemption Small,Veterinary activities
54.30202,-1.86171,EQUINE VETERINARY AMBULATORY SERVICE LTD,,DL8 4HN,Not Available,Veterinary activities
53.91082,-1.31582,AVACTA LIFE SCIENCES LIMITED,www.avactalifesciences.com,LS23 7FA,Full accounts,Biotechnology
53.95726,-1.10856,RUTLAND HOUSE SURGERY LIMITED,www.rutlandreferrals.com,YO26 4GB,Total Exemption Small,Veterinary activities
54.04765,-1.3636,RALPH RENNISON LTD,,YO51 9PS,Total Exemption Small,Veterinary activities
53.8339,-1.4514,ATHENE WORKS LIMITED,,LS14 2HT,Micro-entity accounts,"other natural sciences, engineering"
53.64011,-1.77847,LEAP TECHNOLOGIES LIMITED,,HD1 3BD,Total Exemption Small,"other natural sciences, engineering"
54.09596,-0.88552,STATION HOUSE VETS LIMITED,,YO60 7EP,Total Exemption Small,Veterinary activities
54.50298,-1.32852,PET ORTHOPAEDIC SOLUTIONS LTD,,TS15 9RP,Total Exemption Small,Veterinary activities
54.32153,-1.50522,MORTON VETERINARY CONSULTANCY LIMITED,,DL7 9RH,Not Available,Veterinary activities
53.71797,-0.2333,PALEOCONVERSIONS LIMITED,,HU12 8AJ,Total Exemption Small,"other natural sciences, engineering"
53.78931,-1.41701,RESEARCH ACCESS LTD,,LS15 4LG,Total Exemption Small,"other natural sciences, engineering"
53.80589,-1.62423,BLACKPOOL WARBRECK VETS4PETS LIMITED,,LS13 4BN,Full accounts,Veterinary activities
53.78712,-0.50992,ADVANCED EXTRACTION TECHNOLOGY LTD,www.advancedextractiontechnology.co.uk,HU20 3XJ,Total Exemption Small,"other natural sciences, engineering"
53.77673,-0.44498,TECHNOSTICS LIMITED,www.technostics.com,HU16 5JQ,Total Exemption Small,"other natural sciences, engineering"
53.80641,-1.79923,DIAGNOSTICAL LTD,,BD9 6TB,Not Available,Biotechnology
53.63057,-1.58882,ROBIN EARNSHAW LTD,,WF4 4JQ,Micro-entity accounts,Veterinary activities
53.75159,-1.47825,VSVP LIMITED,,LS26 0EJ,Total Exemption Small,Veterinary activities
53.7623,-1.41385,TRX ORTHOPAEDICS LIMITED,www.tissueregenix.com,LS26 8XT,Full accounts,Biotechnology
53.94968,-1.04766,APTASORT LIMITED,www.aptasort.co.uk,YO10 5NY,Micro-entity accounts,Biotechnology
54.08339,-1.01888,J & J ANIMAL HEALTH LTD,,YO60 6PG,Not Available,Veterinary activities
54.0163,-0.9729,MOLECULAR VISION LIMITED,www.molecularvision.co.uk,YO41 1LZ,Total Exemption Small,"other natural sciences, engineering"
53.95726,-1.10856,MINSTER VETERINARY PRACTICE LTD,www.minstervets.co.uk,YO26 4GB,Full accounts,Veterinary activities
54.10907,-1.40736,AIRCRAFT DESIGN BUREAU LTD,,YO51 9DN,Total Exemption Small,"other natural sciences, engineering"
53.67648,-0.52009,WINTERNOSE DOG RESCUE & PET SERVICES LIMITED,,DN18 6JG,Not Available,Veterinary activities
53.95726,-1.10856,BEST FRIENDS GROUP LIMITED,,YO26 4GB,Total Exemption Small,Veterinary activities
54.13551,-0.79712,RAINBOW EQUINE HOSPITAL LIMITED,www.rainbowequinehospital.co.uk,YO17 7HT,Total Exemption Small,Veterinary activities
54.60309,-1.2706,RAPRA LIMITED,www.rapra.net,TS23 4AZ,Small company,"other natural sciences, engineering"
54.50946,-1.77585,EMSON EQUINE LTD.,www.emsonequine.co.uk,DL11 7QL,Total Exemption Small,Veterinary activities
53.978235,-1.065381,NESTEC YORK LTD.,www.nestle.co.uk,YO91 1XY,Full accounts,"other natural sciences, engineering"
53.55977,-1.81228,POINTS NORTH CONSULTANCY LIMITED,,HD9 2NW,Total Exemption Small,Biotechnology
53.80589,-1.62423,WALTON VALE VETS4PETS LIMITED,,LS13 4BN,Full accounts,Veterinary activities
54.62423,-1.29307,THE BARKING LOT LIMITED,,TS23 3WJ,Total Exemption Small,Veterinary activities
54.57951,-1.25363,EXOVA (UK) LIMITED,www.exovabmtrada.com,TS2 1QS,Full accounts,"other natural sciences, engineering"
53.69454,-1.30802,BARTRAM & PATRICK LIMITED,www.bartram-patrick.ukvol.co.uk,WF8 1HJ,Total Exemption Small,Veterinary activities
53.59338,-1.65251,ROBIN EARNSHAW LTD,,HD8 9BG,Micro-entity accounts,Veterinary activities
53.68246,-1.8341,INDEPENDENT CARE PRODUCTS LTD,,HX5 0HG,Total Exemption Small,"other natural sciences, engineering"
53.94745,-1.03269,INCLUSIVE INNOVATIONS LIMITED,,YO10 5GA,Total Exemption Small,"other natural sciences, engineering"
54.54086,-1.05589,WILTON HOUSE VETERINARY CLINIC LIMITED,,TS14 6JA,Total Exemption Small,Veterinary activities
53.70791,-1.62165,SOLANA LIMITED,,WF17 6ER,Not Available,Plant propagation
53.92578,-0.80298,DIAMOND POINT RESEARCH LTD,,YO42 1NP,Total Exemption Small,"other natural sciences, engineering"
53.60457,-1.79632,CLM HALIFAX LIMITED,,HD9 6JG,Total Exemption Small,Veterinary activities
53.91082,-1.31582,AVACTA ANIMAL HEALTH LIMITED,,LS23 7FA,Full accounts,Veterinary activities
53.8308,-1.539,TOTAL BIOMASS SOLUTIONS LIMITED,,LS7 3QB,Not Available,Biotechnology
