latitude,longitude,name,url,postcode,Registered_accounts_type,subactivity
53.77971,-1.74484,KEMIRA CHEMICALS (UK) LIMITED,www.kemira.com,BD4 7TT,Full accounts,Other chemical products nec
53.81351,-1.54338,SECURIMAX LIMITED,,LS7 2AH,Total Exemption Small,Refined petroleum products
54.54964,-1.18889,B MATTHEWS 1955 LIMITED,,TS3 0LZ,Total Exemption Small,Refined petroleum products
54.587,-1.2759,MC IONIC SOLUTIONS UK LIMITED,www.luciteinternational.com,TS23 1LE,Full accounts,Other chemical products nec
53.81221,-1.76113,ECLIPSE COLOURS LIMITED,www.eclipsecolours.com,BD2 1QN,Total Exemption Small,Other chemical products nec
53.70059,-1.40229,SNF OIL AND GAS LTD,www.snf.co.uk,WF6 1TB,Full accounts,Other organic basic chemicals
54.63579,-1.32896,HUNTSMAN POLYURETHANES (UK) LIMITED,www.huntsman.com,TS22 5FD,Full accounts,Other chemical products nec
53.73268,-0.88425,JABLITE LIMITED,www.jablite.eu,DN14 7EA,Full accounts,Other inorganic basic chemicals
53.71224,-1.64808,MK BIO FUELS LTD,,WF17 7SH,Total Exemption Small,Refined petroleum products
53.61164,-1.81363,PERPOL LIMITED,www.liquidgoldaromas.co.uk,HD4 7DR,Total Exemption Small,Other chemical products nec
53.62412,-1.86531,E-LAB DIRECT LIMITED,,HD7 5QE,Full accounts,"Pesticides, other agrochemical"
53.5649,-0.08586,SHIELD TECHNOLOGY LIMITED,www.shieldtechnology.co.uk,DN31 1LW,Total Exemption Small,Other chemical products nec
53.92578,-0.80298,EXPLOSIVE DEVELOPMENTS LIMITED,,YO42 1NP,Total Exemption Small,Explosives
53.57525,-0.11793,BOC LIMITED,www.boc.com,DN31 2TG,Full accounts,Industrial gases
53.92559,-1.81817,LUBCON LUBRICANTS UK LIMITED,www.lubcon.com,LS29 8HS,Total Exemption Small,Other chemical products nec
54.57603,-1.22093,CHEMOXY INTERNATIONAL LIMITED,www.chemoxy.com,TS3 6AF,Full accounts,Other chemical products nec
53.68509,-1.5653,KILLGERM CHEMICALS LIMITED,www.killgerm-manufacturing.com,WF5 9AJ,Full accounts,Other chemical products nec
53.82067,-1.72382,FANTAS-TAK LIMITED,www.fantastak.co.uk,BD2 2EE,Total Exemption Small,Glues
54.59966,-1.27434,INTERNATIONAL PROCESSPLANTS (EUROPE) LIMITED,www.ippe.com,TS23 1LG,Small company,Other chemical products nec
53.8763,-1.84696,IMPRESSIONS ENGRAVING AND CHEMICAL ETCHING LTD,www.impressionsengraving.co.uk,BD20 5UU,Total Exemption Small,Other chemical products nec
53.85606,-1.82404,KINNACTIA LTD,,BD16 3DG,Total Exemption Small,Other chemical products nec
53.73095,-0.37526,EAST YORKSHIRE BIOFUELS LIMITED,www.eybiofuels.co.uk,HU3 4UU,Total Exemption Small,Refined petroleum products
53.90413,-1.98464,AIREDALE CHEMICAL COMPANY LIMITED,www.airedalechemical.com,BD20 7BX,Full accounts,Other inorganic basic chemicals
53.62412,-1.86531,WHYTE AGROCHEMICALS LIMITED,,HD7 5QE,Full accounts,Other inorganic basic chemicals
53.98735,-2.31004,J & R GASES LIMITED,www.jrgases.co.uk,BD23 4SN,Total Exemption Small,Industrial gases
54.6386,-1.20175,HYDROCHEM (U.K.) LIMITED,www.hydrochemgroup.co.uk,TS25 2DF,Small company,Other chemical products nec
53.73465,-0.886,TEKLUBE TS LIMITED,www.teklube.co.uk,DN14 7HZ,Total Exemption Small,Other chemical products nec
53.66016,0.1138,BP CHEMICALS LIMITED,www.bp.com,HU12 0SU,Full accounts,Other inorganic basic chemicals
54.34114,-1.43323,SPECIALITY PRODUCTS (ASTLEY) LIMITED,,DL6 1DP,Total Exemption Small,Other inorganic basic chemicals
53.58441,-1.66753,AMG SUPERALLOYS UK LIMITED,www.amg-s.com,HD8 8PL,Group,Other chemical products nec
53.67224,-1.68901,SQUIRE A RADCLIFFE & SONS LIMITED,www.sarlubricants.co.uk,WF14 8LU,Total Exemption Small,Refined petroleum products
53.58779,-0.73003,HALTERMANN CARLESS UK LIMITED,www.haltermann-carless.com,DN15 8SY,Full accounts,Other chemical products nec
53.4887,-1.26212,PRIME FORMULATIONS LIMITED,www.primeformulations.co.uk,DN12 4LH,Full accounts,Other chemical products nec
53.85855,-1.68573,CLARIANT PLASTICS & COATINGS (UK) LTD,www.clariant.com,LS19 7BA,Full accounts,Other chemical products nec
53.74113,-1.75526,NUFARM UK LIMITED,www.nufarm.com,BD12 9EJ,Full accounts,"Pesticides, other agrochemical"
53.66284,-1.8299,VERMA TEC LIMITED,,HD3 3UW,Total Exemption Small,Other chemical products nec
53.95107,-1.07543,NALCO LIMITED,www.nalco.com,YO10 4UA,Full accounts,Other inorganic basic chemicals
54.44418,-1.66253,GREENVALE FARMS LIMITED,www.roosteruk.com,DL10 6PE,Total Exemption Small,Other organic basic chemicals
54.57651,-1.10056,SABIC UK LIMITED,www.sabic-europe.com,TS10 4RF,Full accounts,Other organic basic chemicals
53.73145,-1.34638,ARCH CHEMICALS LIMITED,www.lonza.com,WF10 2JT,Full accounts,Other inorganic basic chemicals
54.52706,-1.38282,ELEMENTIS CHROMIUM LLP,www.elementisplc.com,TS16 0QG,Full accounts,Other inorganic basic chemicals
54.63579,-1.32896,HUNTSMAN SURFACE SCIENCES UK LIMITED,www.huntsman.com,TS22 5FD,Full accounts,Other chemical products nec
54.63579,-1.32896,HUNTSMAN ADVANCED MATERIALS (UK) LIMITED,www.huntsman.com,TS22 5FD,Full accounts,Glues
53.42579,-1.04939,PLUMTREE GAS LIMITED,,DN11 8EW,Not Available,Industrial gases
53.83178,-1.823,PHARMCOM ENGINEERING LIMITED,,BD16 1PH,Total Exemption Small,Other chemical products nec
53.77972,-1.58188,BOC LIMITED,www.boc.com,LS12 6DG,Full accounts,Industrial gases
54.0031,-1.52239,BELZONA POLYMERICS LIMITED,www.belzona.com,HG1 4DS,Full accounts,Other chemical products nec
54.59357,-1.01827,HUGILL TECHNICAL SERVICES LIMITED,,TS11 7LQ,Micro-entity accounts,Refined petroleum products
53.63993,-0.25759,TOTAL LINDSEY OIL REFINERY LIMITED,www.total.com,DN40 3LW,Full accounts,Refined petroleum products
54.5078,-1.35431,ENSUS UK LIMITED,www.ensus.co.uk,TS15 9BW,Full accounts,Other chemical products nec
53.67752,-1.48963,GRAD SPECIALITY PRODUCTS LTD,,WF1 5PE,Total Exemption Small,Other chemical products nec
53.92578,-0.80298,FLOCHEM LIMITED,,YO42 1NP,Total Exemption Small,Other chemical products nec
53.85169,-1.53836,TRITON CHEMICAL MANUFACTURING CO. LIMITED,www.tritonsystems.co.uk,LS17 7HN,Total Exemption Small,Other chemical products nec
53.64548,-1.78505,FUEL PERFORMANCE SOLUTIONS LIMITED,,HD1 2EX,Not Available,Other chemical products nec
54.65319,-1.20695,EXWOLD TECHNOLOGY LIMITED,www.exwold.com,TS25 2BW,Full accounts,Other chemical products nec
53.75143,-1.75599,BASF PUBLIC LIMITED COMPANY,www.master-builders-solutions.basf.co.uk,BD12 0JZ,Full accounts,Other organic basic chemicals
53.67768,-1.66286,CALDER OILS LIMITED,www.calder-oils.co.uk,WF13 3JX,Micro-entity accounts,Refined petroleum products
53.72582,-1.84893,AQUASPERSIONS LIMITED,www.aquaspersions.co.uk,HX3 6AQ,Full accounts,Other chemical products nec
54.57651,-1.10056,APPLIED GRAPHENE MATERIALS PLC,http://www.appliedgraphenematerials.com/,TS10 4RF,Group,Other inorganic basic chemicals
54.57622,-1.12976,NALCO LIMITED,www.nalco.com,TS6 8JH,Full accounts,Other inorganic basic chemicals
53.744072,-0.326561,"T.J.SMITH AND NEPHEW,LIMITED",www.smith-nephew.com,HU3 2BN,Full accounts,Other chemical products nec
53.64548,-1.78505,ENVIRONMENTAL FUEL TECHNOLOGY LTD,,HD1 2EX,Total Exemption Small,Other chemical products nec
53.72096,-0.46246,VIVERGO FUELS LIMITED,www.vivergofuels.com,HU13 0JA,Full accounts,Other chemical products nec
53.72976,-1.84904,SALUS74 LIMITED,,HX3 6AS,Not Available,Refined petroleum products
53.80171,-1.53792,GRANVILLE OIL & CHEMICALS LIMITED,www.granvilleoil.com,LS2 7PN,Medium Company,Refined petroleum products
53.66944,-1.94734,PSK MARKETING LIMITED,www.pskmarketing.co.uk,HX6 4FF,Total Exemption Small,Other chemical products nec
53.60794,-0.67439,INTERLOCK ADHESIVES LIMITED,www.interlock-adhesives.co.uk,DN15 8NJ,Total Exemption Small,Glues
53.75827,-1.87218,COLOURCO LIMITED,www.colourco.co.uk,HX2 9TN,Total Exemption Small,Other chemical products nec
53.51064,-1.11987,ENVIRONMENTAL SPECIALITY CHEMICALS LIMITED,www.escglobal.co.uk,DN4 5NP,Total Exemption Small,Other chemical products nec
54.52588,-1.25665,HEMLINGTON ENGINEERING SERVICES LIMITED,,TS8 9NQ,Total Exemption Small,Other chemical products nec
53.75064,-0.32154,AIR PRODUCTS PUBLIC LIMITED COMPANY,www.airproducts.com,HU8 7LL,Full accounts,Industrial gases
54.60309,-1.2706,BLYCHEM LIMITED,www.blychem.com,TS23 4AZ,Total Exemption Small,Other chemical products nec
53.77979,-1.50256,EVERBUILD BUILDING PRODUCTS LIMITED,www.everbuild.co.uk,LS9 0SW,Full accounts,Other chemical products nec
53.73885,-1.72089,OREAN PERSONAL CARE LIMITED,www.ore-an.co.uk,BD19 4TT,,Other chemical products nec
53.63065,-0.19358,PRAXAIR GASES UK LTD,,DN40 2NT,Not Available,Other inorganic basic chemicals
54.63579,-1.32896,HUNTSMAN PIGMENTS (UK) LIMITED,www.huntsman.com,TS22 5FD,Full accounts,Other chemical products nec
54.587035,-1.268735,HUNTSMAN POLYURETHANES (UK) LIMITED,www.huntsman.com,TS23 1PS,Full accounts,Other chemical products nec
53.89651,-1.53317,BASILDON CHEMICAL CO. LIMITED,www.baschem.co.uk,LS17 9LF,Group,Other chemical products nec
53.55655,-0.51534,KEMIN (U.K.) LIMITED,,DN20 9LG,Full accounts,Other inorganic basic chemicals
54.34828,-1.44981,HS-SILVER LTD,,DL6 2BF,Total Exemption Small,Other chemical products nec
53.67816,-1.66423,DIXON CHEW (BATLEY) LIMITED,www.dixonchew.co.uk,WF13 3LA,Total Exemption Small,Other organic basic chemicals
53.68003,-1.76237,KLUBER LUBRICATION GREAT BRITAIN LIMITED,www.klueber.com,HD2 1GQ,Full accounts,Other chemical products nec
53.65394,-1.52078,EAST COAST CHEMICALS LIMITED,,WF2 7AR,Not Available,Other chemical products nec
54.6183,-1.29789,LEAGUESMART LIMITED,,TS23 2TW,Total Exemption Small,Refined petroleum products
54.57651,-1.10056,SABIC UK PETROCHEMICALS LIMITED,www.sabic-europe.com,TS10 4RF,Full accounts,Other organic basic chemicals
53.68172,-1.62304,ENSCO 774 LIMITED,www.healy-group.com,WF12 9BQ,Full accounts,Other chemical products nec
54.60938,-1.58644,INEOS COMPOUNDS AYCLIFFE LIMITED,www.ineos.com,DL5 6EA,Full accounts,Other inorganic basic chemicals
53.68929,-1.50436,SOLVAY INTEROX LIMITED,www.solvay.us,WF1 3QH,Full accounts,Other inorganic basic chemicals
53.6952,-1.78522,MILLERS OILS LIMITED,www.millersoils.co.uk,HD6 3DP,Full accounts,Refined petroleum products
54.61059,-1.18009,VERTELLUS SPECIALTIES UK LIMITED,www.vertellus.com,TS2 1UB,Full accounts,Other inorganic basic chemicals
53.62005,-0.9563,ZETAPRO LIMITED,www.zetapro.co.uk,DN8 4HU,Total Exemption Small,Other chemical products nec
54.59137,-1.08906,HUNTSMAN POLYURETHANES (UK) LIMITED,www.huntsman.com,TS10 4YA,Full accounts,Other chemical products nec
53.62412,-1.86531,GROSVENOR CHEMICALS LIMITED,www.groschems.com,HD7 5QE,Full accounts,"Pesticides, other agrochemical"
54.60309,-1.2706,CAMBRIDGE RESEARCH BIOCHEMICALS LIMITED,www.crbdiscovery.com,TS23 4AZ,Total Exemption Small,Other chemical products nec
53.61461,-0.16372,CRISTAL PIGMENT UK LIMITED,www.cristalglobal.com,DN40 2PR,Full accounts,Other inorganic basic chemicals
54.33291,-1.42171,FARECLA PRODUCTS LIMITED,www.farecla.com,DL6 1AL,Full accounts,Other chemical products nec
53.82067,-1.72382,SIMPSON - TURNER LTD,,BD2 2EE,Total Exemption Small,Glues
53.82857,-1.4625,EUROPEAN PRINTING INKS LIMITED,www.european-printing-inks.co.uk,LS14 1NH,Total Exemption Small,Other chemical products nec
53.80392,-1.65863,VICKERS LABORATORIES LIMITED,www.viclabs.co.uk,LS28 6QW,Total Exemption Small,Other chemical products nec
53.65711,-1.48222,NAYLER CHEMICALS LIMITED,,WF2 6AW,Total Exemption Small,Other chemical products nec
54.60069,-1.26312,METHANEX (UK) LIMITED,www.methanex.com,TS23 4HN,Full accounts,Other chemical products nec
53.68799,-1.83462,EUROTEK FOUNDRY PRODUCTS LIMITED,www.eurotek.eu.com,HX5 9DT,Total Exemption Small,Other chemical products nec
54.52397,-1.59189,NATURETEK LIMITED,,DL3 8BJ,Not Available,Other chemical products nec
54.00102,-0.43002,ORIGINAL BEARD CO LTD,,YO25 6NU,Not Available,Other chemical products nec
53.87454,-1.16438,NOXDOWN LIMITED,www.noxdownuk.com,YO23 7DB,Total Exemption Small,Other chemical products nec
53.58648,-0.36446,INNOVO CHEMICALS LIMITED,www.innovochem.co.uk,DN38 6AE,Small company,Other inorganic basic chemicals
53.91824,-1.37525,NL FORMULATIONS LIMITED,,LS22 5NB,Total Exemption Small,Glues
53.95677,-1.06616,BLUE LABEL VAPOUR LTD,www.darkstarvapour.co.uk,YO10 3DW,Total Exemption Small,Other chemical products nec
53.68231,-1.00715,CRODA INTERNATIONAL PUBLIC LIMITED COMPANY,www.croda.com,DN14 9AA,Group,Other chemical products nec
53.84465,-1.77145,KMG ULTRA PURE CHEMICALS LIMITED,www.kmgchemicals.com,BD17 5QH,Full accounts,Other chemical products nec
53.60627,-0.15456,BOC LIMITED,www.boc.com,DN41 8DZ,Full accounts,Industrial gases
53.80243,-1.57217,ECHEM LIMITED,www.echem.co.uk,LS3 1JN,Full accounts,Other organic basic chemicals
54.53149,-1.54651,CHEMIAN TECHNOLOGY LIMITED,www.chemian.co.uk,DL1 1LA,Total Exemption Small,"Pesticides, other agrochemical"
53.79201,-1.43027,KUWAIT PETROLEUM INTERNATIONAL LUBRICANTS (UK) LIMITED,www.q8oils.co.uk,LS15 9JN,Full accounts,Refined petroleum products
54.57651,-1.10056,INVISTA TEXTILES (U.K.) LIMITED,www.invista.com,TS10 4RF,Full accounts,Other chemical products nec
53.61794,-0.65884,KOPPERS SPECIALTY CHEMICALS LIMITED,www.koppers.com,DN15 9YG,Full accounts,Other inorganic basic chemicals
53.72976,-1.84904,GLD WORLDWIDE LIMITED,,HX3 6AS,Not Available,Other organic basic chemicals
54.50709,-1.55112,BLUE CIRCLE PROJECTS LIMITED,,DL2 2BY,Not Available,Refined petroleum products
53.82067,-1.72382,FANTAS-TAK (RETAIL) LTD.,www.fantastakretail.com,BD2 2EE,Total Exemption Small,Glues
53.6966,-1.29859,KALLIKO LTD,,WF8 2JJ,Total Exemption Small,Other chemical products nec
53.7435,-1.93833,NATURAMA UK LTD,,HX2 6TH,Micro-entity accounts,Other organic basic chemicals
54.59742,-1.13791,BOC LIMITED,www.boc.com,TS6 7RT,Full accounts,Industrial gases
53.83953,-1.60528,BRENNTAG INORGANIC CHEMICALS (THETFORD) LIMITED,www.brenntag.co.uk,LS16 6QY,Full accounts,Other inorganic basic chemicals
54.57585,-1.24494,INEOS NITRILES (UK) LIMITED,www.ineos.com,TS2 1TX,Full accounts,Other chemical products nec
54.57585,-1.24494,BASF PUBLIC LIMITED COMPANY,www.master-builders-solutions.basf.co.uk,TS2 1TX,Full accounts,Other organic basic chemicals
53.70995,-1.66562,LARRAGARD LIMITED,www.gardchemicals.com,WF16 9JP,Total Exemption Small,Other chemical products nec
53.79623,-1.79168,BOC LIMITED,www.boc.com,BD8 9TB,Full accounts,Industrial gases
53.61767,-0.94939,NALCO LIMITED,www.nalco.com,DN8 5JS,Full accounts,Other inorganic basic chemicals
53.79713,-1.54684,PROTON POWER SYSTEMS PLC,www.protonpowersystems.com,LS1 5AB,Group,Industrial gases
53.73447,-1.97271,ANAPHITE LIMITED,,HX7 5QR,Not Available,Other chemical products nec
53.70382,-1.67502,BRITCHEM LIMITED,www.britchem.co.uk,WF16 0NF,Total Exemption Small,Glues
53.96534,-1.30647,LEADING SOLVENT SUPPLIES LIMITED,www.leading-solvents.co.uk,YO26 7QF,Total Exemption Small,Other chemical products nec
53.77983,-1.61304,AIR PRODUCTS PUBLIC LIMITED COMPANY,www.airproducts.com,LS12 5JB,Full accounts,Industrial gases
54.41853,-1.23481,MELBRAY PROJECTS LIMITED,,TS9 7DE,Total Exemption Small,Other organic basic chemicals
53.80243,-1.57217,NOPCO PAPER TECHNOLOGY LTD.,,LS3 1JN,,Other chemical products nec
54.57925,-1.24132,NALCO LIMITED,www.nalco.com,TS1 5AQ,Full accounts,Other inorganic basic chemicals
54.68157,-1.21038,EXWOLD TECHNOLOGY LIMITED,www.exwold.com,TS24 4AP,Full accounts,Other chemical products nec
53.59823,-0.64655,BOC LIMITED,www.boc.com,DN15 6XH,Full accounts,Industrial gases
54.58499,-1.20878,KOPPERS UK LIMITED,WWW.KOPPERS.COM,TS2 1SD,Full accounts,Other organic basic chemicals
53.7539,-1.76761,REPCLIF CHEMICAL SERVICES LIMITED,www.repclif.com,BD12 0NB,Total Exemption Small,Other chemical products nec
53.97767,-1.52956,PRISCO EUROPE LIMITED,www.prisco.com,HG2 8ER,Total Exemption Small,Other chemical products nec
53.79768,-1.55145,NUGEL LIMITED,www.nugel.co.uk,LS1 2RU,Micro-entity accounts,"Pesticides, other agrochemical"
53.68412,-1.83793,ANACARDA LIMITED,,HX5 0AE,Total Exemption Small,Other chemical products nec
53.76427,-0.3537,ELIQUID TECHNOLOGIES LTD,,HU5 2NR,Not Available,Other chemical products nec
53.60141,-1.61003,AGROSMART LIMITED,www.agrosmartuk.com,HD8 9TR,Total Exemption Small,"Pesticides, other agrochemical"
53.68834,-0.42748,SURE ADHESIVE PRODUCTS LIMITED,www.surelockadhesive.com,DN18 5RP,Total Exemption Small,Glues
54.18226,-1.35411,COD BECK BLENDERS LIMITED,www.cbchem.co.uk,YO7 3HR,Full accounts,Other chemical products nec
53.74038,-0.33629,KINGSTON RESEARCH LIMITED,www.bp.com,HU1 1TJ,Full accounts,Other chemical products nec
53.67704,-1.48447,ESSECO UK LIMITED,www.essecouk.com,WF1 5PH,Full accounts,Other inorganic basic chemicals
53.92145,-0.93754,MARYHILL LIMITED,,YO41 4AG,Total Exemption Small,Other chemical products nec
53.74083,-0.23653,AIR PRODUCTS PUBLIC LIMITED COMPANY,www.airproducts.com,HU12 8PP,Full accounts,Industrial gases
53.84641,-1.78336,J & L CHEMICALS LTD,www.jlchemicals.com,BD17 5DF,Total Exemption Small,Other chemical products nec
53.73145,-1.34638,ARCH TIMBER PROTECTION LIMITED,www.lonza.com,WF10 2JT,Full accounts,Other inorganic basic chemicals
53.68172,-1.62304,CHEMFIX PRODUCTS LIMITED,www.chemfix.co.uk,WF12 9BQ,Full accounts,Other chemical products nec
53.924,-0.80023,FARMCARE INTERNATIONAL LIMITED,www.biolinklimited.co.uk,YO42 1NR,Total Exemption Full,"Pesticides, other agrochemical"
54.56995,-1.34813,NANO LIQUID SOLUTIONS UK LIMITED,,TS19 0SL,Not Available,Other organic basic chemicals
53.85855,-1.68573,CLARIANT OIL SERVICES UK LTD,www.clariant.com,LS19 7BA,Full accounts,Other chemical products nec
54.57528,-1.27383,BOC LIMITED,www.boc.com,TS18 2RJ,Full accounts,Industrial gases
53.62818,-0.18726,BYK ADDITIVES LIMITED,www.byk.com,DN40 2LZ,Full accounts,Other chemical products nec
53.74038,-0.33629,KINGSTON CHEMICALS LIMITED,,HU1 1TJ,Total Exemption Small,Other organic basic chemicals
53.58437,-0.11669,NOVARTIS GRIMSBY LIMITED,www.novartis.co.uk,DN31 2SR,Full accounts,Other inorganic basic chemicals
53.42579,-1.04939,SOLVENTS WITH SAFETY LIMITED,www.solventswithsafety.co.uk,DN11 8EW,Full accounts,Other chemical products nec
53.92145,-0.93754,OIL SLICK DISPERSANTS LIMITED,www.oilslickdispersants.co.uk,YO41 4AG,Total Exemption Small,Other chemical products nec
53.593002,-0.638751,KOPPERS UK LIMITED,WWW.KOPPERS.COM,DN15 6UR,Full accounts,Other organic basic chemicals
53.69958,-1.66174,ROHM AND HAAS (UK) LIMITED,www.dow.com,WF13 3NG,Full accounts,Other inorganic basic chemicals
53.86022,-1.85145,WILDACRE COSMETICS LIMITED,www.wildacrecosmetics.com,BD16 2AF,Total Exemption Small,Other chemical products nec
54.53237,-1.05602,HUTTON CHEMICALS LIMITED,www.hutton-chemicals.co.uk,TS14 7DL,Full accounts,Other chemical products nec
53.61794,-0.65884,KOPPERS UK LIMITED,WWW.KOPPERS.COM,DN15 9YG,Full accounts,Other organic basic chemicals
53.72868,-0.53086,OMYA UK LIMITED,www.omya.com,HU14 3HU,Full accounts,Other chemical products nec
54.60768,-1.10286,AIR PRODUCTS PUBLIC LIMITED COMPANY,www.airproducts.com,TS10 5JU,Full accounts,Industrial gases
53.68624,-1.84282,GARLOCK (GREAT BRITAIN) LIMITED,www.garlock.co.uk,HX5 0RY,Full accounts,Other chemical products nec
53.98341,-1.5443,GREEN OIL INTERNATIONAL LIMITED,,HG2 9BY,Small company,Other chemical products nec
54.61059,-1.18009,FINE INDUSTRIES LIMITED,www.fineindustries.co.uk,TS2 1UB,Full accounts,Other organic basic chemicals
53.69549,-1.8248,SEAL IT SERVICES LIMITED,www.bond-it.co.uk,HX5 9DN,Group,Glues
54.574997,-1.101337,AIR PRODUCTS PUBLIC LIMITED COMPANY,www.airproducts.com,TS6 8JB,Full accounts,Industrial gases
54.5774,-1.34869,AD TECHNICAL & SAFETY SERVICES LTD,,TS19 8FD,Total Exemption Small,Other organic basic chemicals
53.80009,-1.3709,LNT SOLUTIONS LIMITED,www.lntsolutions.com,LS25 2DY,Full accounts,Other chemical products nec
54.60906,-1.27921,STEEL SEALS HEAD GASKET LIMITED,www.steelsealheadgasket.com,TS23 3HW,Total Exemption Small,Other chemical products nec
54.59137,-1.08906,LOTTE CHEMICAL UK LIMITED,www.lottechemical.co.uk,TS10 4XZ,Full accounts,Other chemical products nec
53.82088,-1.85101,IMPRESSIONS ENGRAVING AND CHEMICAL ETCHING LTD,www.impressionsengraving.co.uk,BD15 0DJ,Total Exemption Small,Other chemical products nec
54.50851,-1.35361,OIL INSPECTIONS LIMITED,www.oilinspections.com,TS15 9AE,Total Exemption Small,Refined petroleum products
53.92145,-0.93754,PREMIER DE-ICERS LIMITED,www.premierdeicers.co.uk,YO41 4AG,Total Exemption Small,Other chemical products nec
53.84726,-0.40607,BARTOLINE LIMITED,www.bartoline.co.uk,HU17 0LW,Medium Company,Other inorganic basic chemicals
53.51064,-1.11987,ESC GLOBAL LIMITED,www.escglobal.co.uk,DN4 5NP,Total Exemption Small,Other chemical products nec
53.64548,-1.78505,DIESOLIFT LIMITED,,HD1 2EX,Not Available,Other chemical products nec
