latitude,longitude,name,url,postcode,Registered_accounts_type,subactivity
54.23141,-1.3311,MONARCH EXTRACTION (UK) LTD,,YO7 3TD,Not Available,Essential oils
54.68649,-1.20512,A.F. ATKINSON (PRINTER) LIMITED,www.atkinsonprint.co.uk,TS24 7DJ,Total Exemption Small,Paper stationery
53.69439,-1.76344,JOHN DRURY & CO. LIMITED,www.john-drury.co.uk,HD6 1NJ,Total Exemption Small,"Soap and detergents, cleaning"
53.9763,-1.55397,CATER-LYNE LIMITED,www.zenithhygiene.co.uk,HG2 9JL,Total Exemption Small,"Soap and detergents, cleaning"
54.52259,-1.50829,AVB LIQUIDS LTD,,DL1 4QZ,Not Available,Tobacco products
53.67798,-1.57794,DENYKEM LIMITED,www.denykem.com,WF5 8AY,Total Exemption Small,"Soap and detergents, cleaning"
54.32936,-1.42919,NORSKE SKOG (UK) LIMITED,www.norskeskog.com,DL7 8XN,Full accounts,"Paper, paperboard"
53.68003,-1.76237,STELLAR PUBLICATIONS LTD,,HD2 1GQ,Total Exemption Small,Paper stationery
53.85856,-1.5336,HAPPY DAYS GREETINGS LIMITED,www.happydaysgreetings.co.uk,LS17 7EA,Total Exemption Small,Paper stationery
53.7645,-0.70468,DIGIHUB (UK) LIMITED,,HU15 2RN,Total Exemption Small,Paper stationery
53.66803,-1.89686,SONOCO LIMITED,www.sonoco-trident.com,HX4 9PY,Full accounts,"Paper, paperboard"
53.76453,-1.54896,PROVENTUS (UK) LTD,www.proventusuk.com,LS11 5SS,Total Exemption Small,Essential oils
53.92198,-1.84349,CONSUMER PACKAGING MANUFACTURERS ALLIANCE LIMITED,www.mrbusiness-services.com,LS29 9NR,Total Exemption Small,"Paper, paperboard"
53.70385,-1.63028,OTTIMO SUPPLIES LIMITED,www.ottimo-supplies.com,WF17 6JH,Total Exemption Small,"Soap and detergents, cleaning"
53.67604,-1.49806,ALGOIL 99 LTD,,WF2 8EE,Total Exemption Small,Essential oils
53.74506,-0.33861,RBL LABORATORIES LTD,,HU1 3ES,Not Available,"Soap and detergents, cleaning"
53.70381,-1.39959,THE PROTON GROUP LIMITED,www.proton-group.co.uk,WF6 1QT,Total Exemption Small,"Soap and detergents, cleaning"
53.67965,-1.70063,S T PAPER LIMITED,www.stpaper.co.uk,WF14 9AW,Total Exemption Small,"Paper, paperboard"
53.79255,-1.70754,MIBELLE LTD,www.mibellegroup.com,BD4 8JP,Full accounts,"Perfumes, toilet preparations"
53.94139,-2.014819,PIONEER PRESS LIMITED,www.pioneerpress.co.uk,BD23 2TZ,Total Exemption Small,Paper stationery
53.69896,-1.4142,VAPARAMA LTD,,WF6 1NW,Not Available,Tobacco products
53.83612,-1.52072,LUSH LTD.,www.lush.co.uk,LS8 1HR,Full accounts,"Perfumes, toilet preparations"
53.86544,-1.69243,NICHOLAS JAMES (UK) LIMITED,www.nicholasjamesuk.co.uk,LS19 7LX,Total Exemption Small,"Perfumes, toilet preparations"
53.61374,-1.62893,LEMON SPRING LTD,,HD8 9RX,Not Available,"Soap and detergents, cleaning"
53.80405,-1.77269,STEPHENSON GROUP LTD,www.stephensongroup.co.uk,BD8 8DA,Medium Company,"Soap and detergents, cleaning"
53.78532,-1.5606,STANTONDOWN LIMITED,www.stantondown.com,LS11 9QY,Total Exemption Small,"Perfumes, toilet preparations"
53.66614,-1.77871,SOAP SCHOOL LTD,www.soapschool.com,HD2 1BL,Total Exemption Small,"Soap and detergents, cleaning"
53.54524,-0.16785,THEONESTOP.CO.UK LTD,,DN37 7AQ,Total Exemption Small,Paper stationery
53.60048,-1.60526,ADARE SEC LIMITED,www.adare.com,HD8 9QQ,Full accounts,Paper stationery
53.82209,-1.76954,CUMMINS AND PAPYRUS LIMITED,www.cumminspapyrus.co.uk,BD2 1AJ,Total Exemption Small,Paper stationery
53.79517,-1.22006,WICKHAM INDUSTRIES LIMITED,www.wickhamindustries.co.uk,LS25 6NS,Total Exemption Small,"Soap and detergents, cleaning"
53.77212,-0.334,ROBERT MCBRIDE LTD,www.mcbride.co.uk,HU7 0BU,Full accounts,"Soap and detergents, cleaning"
53.77237,-1.80788,T & P PRINT LIMITED,,BD6 3NB,Not Available,Paper stationery
54.68722,-1.2155,ORD OFFICE LIMITED,www.ords.co.uk,TS24 8AT,Total Exemption Small,Paper stationery
53.78643,-1.49866,IN LINE HEALTH AND BEAUTY LIMITED,www.inlinehealthandbeauty.com,LS9 0SL,Total Exemption Small,"Perfumes, toilet preparations"
53.86328,-0.4822,EAST RIDING CHEMICALS LIMITED,,HU17 7RA,Not Available,"Soap and detergents, cleaning"
54.51921,-1.36204,TOTAL LIQUID SOLUTIONS LTD,,TS16 0NX,Not Available,"Soap and detergents, cleaning"
53.53542,-0.04471,RMX-GLOBAL LIMITED,,DN36 4AS,Not Available,"Soap and detergents, cleaning"
53.77738,-0.34664,D3 OFFICE GROUP LIMITED,www.d3workwear.co.uk,HU7 0YF,Total Exemption Small,Paper stationery
53.80296,-1.75999,LIBRA SPECIALITY CHEMICALS LIMITED,www.librachem.co.uk,BD8 7JT,Full accounts,"Soap and detergents, cleaning"
53.9564,-2.03709,NORTHERN PAPER BOARD LIMITED,www.northernpaperboard.co.uk,BD23 1TX,Full accounts,"Paper, paperboard"
53.53456,-1.1256,G.P. SERVICES (U.K.) LIMITED,www.gpservicesuk.co.uk,DN1 2TF,Total Exemption Small,"Soap and detergents, cleaning"
53.72625,-1.86047,POT OF GOLD COSMETICS LIMITED,,HX1 1YH,Total Exemption Small,"Perfumes, toilet preparations"
53.78643,-1.49866,IN LINE HEALTH AND BEAUTY LIMITED,www.inlinehealthandbeauty.com,LS9 0SL,Total Exemption Small,"Perfumes, toilet preparations"
53.77002,-1.8785,VAPERS ENVY LTD,,HX2 9XB,Not Available,Tobacco products
53.97548,-1.56692,JANIE WILSON LIMITED,www.janiewilson.co.uk,HG3 1GY,Total Exemption Small,Paper stationery
53.83171,-1.4667,HAPPY DAYS GREETINGS LIMITED,www.happydaysgreetings.co.uk,LS14 1NF,Total Exemption Small,Paper stationery
53.77247,-1.7262,ROBERT MCBRIDE LTD,www.mcbride.co.uk,BD4 9NU,Full accounts,"Soap and detergents, cleaning"
53.76688,-1.57254,STAR BRANDS LIMITED,www.starbrandsltd.co.uk,LS11 8PR,Full accounts,"Soap and detergents, cleaning"
54.57837,-1.23199,UNILEVER UK LIMITED,www.unilever.com,TS1 1HG,Full accounts,"Soap and detergents, cleaning"
53.60907,-1.91147,CREATEYOURSELFDESIGNS LIMITED,,HD7 6LY,Total Exemption Small,Paper stationery
53.69656,-1.76351,BEEHIVE GREETING CARDS LTD,,HD6 1QF,Total Exemption Small,Paper stationery
53.95709,-1.07708,DOODLEDAH LTD,,YO1 9TX,Not Available,Paper stationery
53.80732,-1.63236,BRAMCHEM LTD.,www.bramchem.com,LS13 3BB,Total Exemption Small,"Soap and detergents, cleaning"
54.0003,-1.54166,FLAVORSHOT LIMITED,,HG1 2QS,Not Available,Tobacco products
53.68003,-1.76237,HEARTSTRINGS PUBLICATIONS LIMITED,www.heartstringspublications.com,HD2 1GQ,Total Exemption Small,Paper stationery
53.73145,-1.34638,ARCH UK BIOCIDES LIMITED,www.lonza.com,WF10 2JT,Full accounts,"Soap and detergents, cleaning"
54.60676,-1.28888,IPRINT LTD,www.iprintltd.co.uk,TS23 2LJ,Total Exemption Small,Paper stationery
54.51898,-1.31024,ES-SCENTS LIMITED,,TS17 0XY,Total Exemption Small,Essential oils
53.72211,-1.9468,PORTINSCALE (U.K.) LTD,,HX2 6AD,Not Available,"Soap and detergents, cleaning"
53.89878,-1.71833,DO YOU PUNCTUATE LIMITED,,LS21 3ND,Not Available,Paper stationery
53.7993,-1.5506,BEEVER RETAIL LIMITED,,LS1 2NE,Total Exemption Small,"Perfumes, toilet preparations"
53.80092,-1.70373,UNILEVER UK LIMITED,www.unilever.com,BD3 7AT,Full accounts,"Soap and detergents, cleaning"
53.67842,-1.83297,ZENITH HYGIENE SYSTEMS LIMITED,www.zhgplc.com,HX5 9JP,Full accounts,"Soap and detergents, cleaning"
53.86121,-1.85366,YORKSHIRE PRINT AND PACKAGING SOLUTIONS LIMITED,www.pukka-business-forms.co.uk,BD16 2AG,Small company,Paper stationery
53.64119,-1.52649,SANPRO PRODUCTION LIMITED,www.toiletrysales.com,WF4 3HT,,"Household, sanitary, toilet goods"
53.90729,-1.69147,WILLIAM SINCLAIR & SONS (STATIONERS) LIMITED,www.sinclairsproducts.com,LS21 1AH,Full accounts,Paper stationery
53.71449,-1.85549,GREAT BRITISH VAPE COMPANY LTD,,HX3 9ET,Not Available,Tobacco products
53.76966,-0.97661,LITTLE ACORN DESIGNS LIMITED,,YO8 6QL,Total Exemption Small,Paper stationery
53.72904,-1.88801,SABEL COSMETICS LIMITED,www.sabel.org.uk,HX1 4TZ,Total Exemption Small,"Perfumes, toilet preparations"
53.69731,-1.7713,JOHN DRURY & CO. LIMITED,www.john-drury.co.uk,HD6 1LY,Total Exemption Small,"Soap and detergents, cleaning"
53.6864,-1.83384,ASPIRE CRAFTS LTD,www.kanbancrafts.com,HX5 9AS,Total Exemption Small,Paper stationery
53.70811,-1.61162,MAIN CHEMICAL CO LIMITED,www.rishworth-school.co.uk,WF16 0XQ,Total Exemption Small,"Soap and detergents, cleaning"
53.62308,-1.88541,"COLE & WILSON,LIMITED",www.colewilson.co.uk,HD7 5AT,Small company,"Soap and detergents, cleaning"
53.94266,-1.13056,CHARLIE BIG LIMITED,,YO24 3LT,Not Available,Paper stationery
53.79682,-1.4265,DS SMITH PAPER LIMITED,www.dssmithrecycling.com,LS15 8ZB,Full accounts,"Paper, paperboard"
53.59689,-1.28095,CDM LABELS LIMITED,www.cdmlabels.co.uk,WF9 2SP,Total Exemption Small,Paper stationery
53.87613,-1.89614,HUMBER PRINT & PACKAGING LIMITED,www.humberprint.co.uk,BD21 4BZ,Total Exemption Small,"Paper, paperboard"
53.74327,-1.64156,UNILEVER UK LIMITED,www.unilever.com,WF17 9TB,Full accounts,"Soap and detergents, cleaning"
53.813751,-1.763038,CRAFT UK LIMITED,www.craftuk.net,BD2 1AX,Total Exemption Small,Paper stationery
53.71905,-0.4239,AMANDA ROSE DESIGNS LTD,,HU13 0DZ,Total Exemption Small,Paper stationery
54.55688,-1.31789,IN-PRINT TEESSIDE  LTD,www.inprintteesside.tel,TS18 3QZ,Total Exemption Small,Paper stationery
53.82067,-1.72382,MIDAS PAPER CONVERTERS LIMITED,www.vanguardpaper.com,BD2 2EE,Group,Paper stationery
53.75627,-1.50004,HONESTY SKINCARE LIMITED,,LS26 0ZD,Micro-entity accounts,"Perfumes, toilet preparations"
53.83655,-1.76944,REGENT ENVELOPES LIMITED,www.regentenvelopes.com,BD17 7SF,Total Exemption Small,Paper stationery
53.90817,-1.93684,THINK OFFICE SUPPLIES LIMITED,www.thinkofficesupplies.co.uk,BD20 0EE,Total Exemption Small,Paper stationery
53.79248,-0.35299,UNILEVER UK LIMITED,www.unilever.com,HU7 3DB,Full accounts,"Soap and detergents, cleaning"
53.78025,-1.07393,TAYLOR MCLURE MAINTENANCE PRODUCTS LIMITED,,YO8 4AU,Not Available,"Soap and detergents, cleaning"
53.6549,-1.76709,UNILEVER UK LIMITED,www.unilever.com,HD1 6PG,Full accounts,"Soap and detergents, cleaning"
53.76463,-0.35732,HACKETT & WILLIAMSON LIMITED,www.hacketts-print.co.uk,HU5 2NX,Total Exemption Small,Paper stationery
53.92712,-0.95356,TAYROL LIMITED,www.tayrol.co.uk,YO41 4AR,Total Exemption Small,Paper stationery
53.74755,-1.89304,PARSO TRADING LTD,,HX2 8EG,Total Exemption Small,Tobacco products
54.57308,-1.23645,SCENTZ OF SMELL LTD,,TS1 2JH,Not Available,"Perfumes, toilet preparations"
53.75572,-1.95172,BEEHIVE GREETING CARDS LTD,,HX2 7TR,Total Exemption Small,Paper stationery
53.52616,-1.12285,FUTUREPRINT (NORTHAMPTON) LIMITED,www.futureprint-npton.com,DN1 2ES,Total Exemption Small,Paper stationery
53.679401,-1.500734,MAURUS CHEMICAL AG,,WF1 5PF,Not Available,"Soap and detergents, cleaning"
53.63802,-1.83854,PRETTY LITTLE TREAT CO LTD,,HD3 4QS,Micro-entity accounts,"Soap and detergents, cleaning"
53.93899,-1.50543,TONY MALEEDY HAIR LTD.,,HG3 1HD,Not Available,"Soap and detergents, cleaning"
53.73782,-0.35125,THE PROMOTION COMPANY (HULL) LIMITED,www.thepromotioncompany.co.uk,HU3 2AA,Total Exemption Small,Paper stationery
53.5455,-1.14665,ANNE NORTHERN BOTANICALS LTD,,DN5 0AA,Total Exemption Small,"Perfumes, toilet preparations"
53.62595,-1.86054,SUNDROPS LIMITED,www.thorntonross.com,HD7 5QH,Full accounts,"Soap and detergents, cleaning"
53.84398,-1.62939,STEPHENSON GROUP LTD,www.stephensongroup.co.uk,LS18 5PU,Medium Company,"Soap and detergents, cleaning"
53.75026,-0.44355,FIVE O'CLOCK PRODUCTS LIMITED,,HU10 7LP,Micro-entity accounts,"Perfumes, toilet preparations"
53.84816,-0.41035,SONOCO LIMITED,www.sonoco-trident.com,HU17 0LS,Full accounts,"Paper, paperboard"
53.75906,-0.28881,KOORAX LTD,,HU9 3PS,Not Available,"Soap and detergents, cleaning"
53.75525,-0.33663,THE BINDER AND BOX COMPANY LTD,www.binderandbox.com,HU2 0LN,Total Exemption Small,Paper stationery
54.65991,-1.21223,NS INDUSTRIES LTD,,TS25 1UD,Not Available,"Soap and detergents, cleaning"
53.7967,-1.55331,CCA OCCASIONS LIMITED,www.christmas-connections.co.uk,LS1 2AY,Small company,Paper stationery
53.83023,-1.45681,UNILEVER UK LIMITED,www.unilever.com,LS14 2AR,Full accounts,"Soap and detergents, cleaning"
53.78186,-0.41569,GRAPHIC POWER LIMITED,www.graphicpower.co.uk,HU16 4BB,Total Exemption Small,Paper stationery
53.71929,-1.86834,SHERPRINT LTD,,HX1 2TE,Not Available,Paper stationery
53.79487,-1.76911,EYETAG LIMITED,,BD7 1JD,Total Exemption Full,Paper stationery
53.87613,-1.89614,FIKKERTS LIMITED,www.fikkerts.com,BD21 4BZ,Total Exemption Small,"Perfumes, toilet preparations"
54.00223,-1.57183,KAILIZ LTD,,HG3 2XD,Total Exemption Small,Paper stationery
54.0316,-0.9406,LONETREE CARDS LTD,,YO60 7SD,Total Exemption Small,"Paper, paperboard"
53.56069,-0.13841,SYNTEC MANUFACTURING LIMITED,www.syntecchemicals.com,DN37 9RQ,Total Exemption Small,"Soap and detergents, cleaning"
53.83963,-0.41461,APPLIED LABEL SOLUTIONS LTD,www.appliedlabels.co.uk,HU17 0PT,Total Exemption Small,Paper stationery
53.85673,-1.74353,UK ENVELOPE CENTRE LIMITED,www.ukenvelopecentre.co.uk,BD17 7QD,Total Exemption Small,Paper stationery
53.79616,-0.35829,SONOCO LIMITED,www.sonoco-trident.com,HU7 3AP,Full accounts,"Paper, paperboard"
53.85939,-1.88545,TAPING APPLICATIONS LIMITED,,BD21 4SA,Total Exemption Small,Paper stationery
53.7669,-1.57695,ROBERT MCBRIDE LTD,www.mcbride.co.uk,LS11 0LU,Full accounts,"Soap and detergents, cleaning"
53.78523,-1.73925,CHRISTEYNS UK LTD,www.christeyns.co.uk,BD4 7EA,Full accounts,"Soap and detergents, cleaning"
54.70971,-1.23956,CB TRADE SOLUTIONS LTD,,TS24 9NT,Not Available,Paper stationery
53.75384,-0.32244,RECKITT BENCKISER HEALTHCARE (UK) LIMITED,www.refluxadvice.co.uk,HU8 7DS,Full accounts,"Household, sanitary, toilet goods"
53.80395,-1.80247,S ORGANICS LIMITED,,BD8 0AG,Not Available,"Soap and detergents, cleaning"
53.52682,-0.03773,PROTOLINC LIMITED,www.protolinc.co.uk,DN36 4SX,Micro-entity accounts,"Soap and detergents, cleaning"
54.61676,-1.28787,KATHY ROSE LIMITED,,TS23 3DH,Not Available,Paper stationery
53.72798,-0.42527,TAYLORS VAPE LIMITED,,HU13 9JQ,Not Available,Tobacco products
53.91499,-0.17948,EMPACK LTD.,,HU18 1EQ,Total Exemption Small,"Paper, paperboard"
54.26097,-0.92209,JEAN BARRINGTON LTD,www.jeanbarrington.co.uk,YO62 6QR,Total Exemption Small,Paper stationery
53.78354,-0.40718,JACEE PRINT AND PUBLICITY LIMITED,www.jaceeprint.co.uk,HU16 4LL,Total Exemption Small,Paper stationery
53.74307,-0.3372,LUSH LTD.,www.lush.co.uk,HU1 2EX,Full accounts,"Perfumes, toilet preparations"
53.65776,-1.57188,AMLICO LTD,www.pcsamlico.co.uk,WF4 5NW,Total Exemption Small,"Household, sanitary, toilet goods"
53.56909,-1.79021,THE AUSTONLEY SOAP COMPANY LTD,,HD9 2JT,Total Exemption Small,"Soap and detergents, cleaning"
53.81221,-1.76113,PRIMA YORKSHIRE LIMITED,www.primayorks.co.uk,BD2 1QN,Total Exemption Full,Paper stationery
53.76773,-1.84331,CONITEX SONOCO UK LIMITED,,BD13 1QA,Total Exemption Full,"Paper, paperboard"
54.43336,-0.53585,BLAZERGOLD LIMITED,,YO22 4RR,Total Exemption Full,"Perfumes, toilet preparations"
53.9191,-1.10535,CHROMASOL LIMITED,,YO23 2RR,Micro-entity accounts,"Soap and detergents, cleaning"
53.95896,-1.0842,LUSH LTD.,www.lush.co.uk,YO1 9QL,Full accounts,"Perfumes, toilet preparations"
53.68618,-1.57229,DENYKEM LIMITED,www.denykem.com,WF5 9JA,Total Exemption Small,"Soap and detergents, cleaning"
53.63685,-1.87148,PERRY PRINT LIMITED,,HD7 4JT,Total Exemption Small,Paper stationery
54.06004,-0.258079,GREENSTIK LIMITED,www.greenstik.co.uk,YO15 3QY,Total Exemption Small,"Paper, paperboard"
53.80005,-1.54564,UNILEVER UK LIMITED,www.unilever.com,LS1 8TL,Full accounts,"Soap and detergents, cleaning"
53.83072,-1.75878,LELLI-BOT CRAFTS LTD,,BD18 1JQ,Total Exemption Small,Paper stationery
53.90416,-1.64151,WEIDMANN WHITELEY LIMITED,www.wicor.com,LS21 1RP,Full accounts,"Paper, paperboard"
53.74388,-0.3353,PRINT FINISHED LIMITED,,HU1 2AS,Micro-entity accounts,Paper stationery
53.90715,-1.31871,FERNDALE PHARMACEUTICALS LIMITED,www.ferndalepharma.co.uk,LS23 7FX,Small company,"Perfumes, toilet preparations"
53.76222,-1.74591,THE LONDON OIL REFINING CO. LIMITED,www.astonishcleaners.co.uk,BD6 1DW,Full accounts,"Soap and detergents, cleaning"
53.78184,-1.58766,MABUR CHEMICALS LIMITED,www.maburchemicals.co.uk,LS12 6ER,Total Exemption Small,"Soap and detergents, cleaning"
53.806538,-1.666731,SUNFIELD BUSINESS FORMS LIMITED,www.sunfield-group.co.uk,LS28 6DN,Total Exemption Small,Paper stationery
53.72258,-1.72435,R & D PRODUCTS UK LIMITED,www.rd-products.co.uk,BD19 5DR,Total Exemption Small,"Soap and detergents, cleaning"
53.679401,-1.500734,GEA FARM TECHNOLOGIES (UK) LTD,www.agroserve.co.uk,WF1 5PF,Full accounts,"Soap and detergents, cleaning"
53.63802,-1.83854,PRETTY LITTLE TREAT CO LTD,,HD3 4QS,Micro-entity accounts,"Soap and detergents, cleaning"
53.51428,-1.09676,UNILEVER UK LIMITED,www.unilever.com,DN4 7PD,Full accounts,"Soap and detergents, cleaning"
