latitude,longitude,name,url,postcode,Registered_accounts_type,subactivity
53.69978,-1.77065,TOTAL POLYFILM LIMITED,www.totalpolyfilm.com,HD6 1PT,Full accounts,Plastic packing goods
53.79154,-1.86801,JAMMPAC LTD,www.jammpac.co.uk,BD13 3NW,Total Exemption Small,Plastic packing goods
53.7623,-1.41385,J F PLASTICS LTD,www.jfplastics.co.uk,LS26 8XT,Total Exemption Small,"Plastic plates, sheets, tubes etc"
54.3596,-1.42925,RACE CASK VENTILATORS LIMITED,,DL6 2RP,Total Exemption Small,Other plastic
53.73328,-1.8951,CHOCOLATE MOULD DESIGNS UK LIMITED,www.chocolatemoulddesigns.co.uk,HX2 0TG,Total Exemption Small,Other plastic
54.5197,-1.29083,PROFLEX PACKAGING CO LTD,,TS17 9JY,Small company,Plastic packing goods
53.679401,-1.500734,KID KUNSTSTOFFINDUSTRIE-DIENSTLEISTUNG LTD.,,WF1 5PF,Total Exemption Small,Other plastic
54.23156,-0.74289,THE DERWENT HUNT LIMITED,,YO18 7SJ,Total Exemption Small,"Hunting, trapping, related activities"
53.55468,-0.83296,WATCHMAN PACKAGING (FLEXIBLES) LIMITED,,DN9 1PG,Total Exemption Small,Plastic packing goods
53.91637,-1.31299,GROUND-GUARDS LTD,,LS23 7AU,Total Exemption Small,Other plastic
53.5354,-1.04594,ROUNDBRAND LIMITED,www.bifoldaspect.co.uk,DN3 3EE,Full accounts,Other plastic
53.79624,-1.76384,PLASTIC DISPLAYS (BRADFORD) LIMITED,www.butterfieldsigns.co.uk,BD1 2RZ,Full accounts,Other plastic
53.75875,-0.80417,TRU GROUP LIMITED,www.trugroup.co.uk,DN14 7PL,Total Exemption Small,Other plastic
53.70057,-1.63162,CONSERVATORY SOLUTIONS LIMITED,www.conservatorysolutions.co.uk,WF13 2HE,Total Exemption Small,Other plastic
53.8702,-1.90677,BRYANT PLASTICS LTD,www.bryantplastics.co.uk,BD21 3BB,Total Exemption Small,Other plastic
54.13227,-1.45686,FABRICANT LIMITED,www.fabricant.co.uk,HG4 5AY,Total Exemption Small,Other plastic
53.66906,-1.68857,TECHNOPARTS ELECTRICAL LTD,www.technoparts.co.uk,WF14 8NA,Total Exemption Small,Other plastic
54.54352,-1.32876,HONG KONG & CHINA MOULDS LIMITED,www.hcmmoulds.co.uk,TS18 3RB,Total Exemption Small,Other plastic
54.57651,-1.10056,SABIC INNOVATIVE PLASTICS ABS UK LIMITED,www.sabic-ip.com,TS10 4RF,Full accounts,Plastics in primary forms
53.81725,-1.66487,COVERTECH LIMITED,,LS28 5LY,Total Exemption Small,Other plastic
53.79624,-1.76384,BUTTERFIELD SIGNS LIMITED,www.butterfieldsigns.co.uk,BD1 2RZ,Group,Other plastic
53.67842,-1.83297,A-SAFE INTERNATIONAL LTD,,HX5 9JP,Not Available,Other plastic
54.07019,-1.2204,BIG O'S AID TO MATHS LIMITED,,YO61 1PU,Not Available,Other plastic
53.43167,-1.02189,DMSGRP LTD.,,DN10 6TF,Total Exemption Small,Other plastic
53.70325,-1.91636,RYBURN RUBBER LTD,www.ryburnrubber.co.uk,HX6 3BW,Total Exemption Small,Other rubber
53.79884,-1.54829,T & A PRECISION PLASTICS LIMITED,,LS1 5QS,Total Exemption Small,"Plastic plates, sheets, tubes etc"
53.75465,-0.32658,ECOFRAMES & ENERGY SAVING SOLUTIONS LTD,www.ecoframeshull.co.uk,HU8 8AE,Total Exemption Small,Other plastic
53.70246,-0.89403,CREATESCAPE LTD.,www.createscape.eu,DN14 6XF,Total Exemption Small,Other rubber
53.68834,-0.42748,HUMBERSIDE MOULDINGS LIMITED,,DN18 5RP,Micro-entity accounts,Other plastic
53.73735,-1.19854,AUSTOPS LIMITED,,WF11 9LR,Total Exemption Small,Other plastic
53.5573,-1.08181,ROBIMATIC LIMITED,polypipe.com,DN3 1QR,Full accounts,Plastics in primary forms
53.78432,-1.75275,NPS GRP LIMITED,www.npsgrpltd.co.uk,BD5 7RN,Total Exemption Small,Other plastic
54.21899,-0.57065,RIVERSIDE GAME AND SHOOTING LTD,,YO13 9DH,Not Available,"Hunting, trapping, related activities"
53.81024,-1.58562,DATAPLAS LIMITED,www.dataplas.co.uk,LS4 2PU,Total Exemption Small,Other plastic
53.88093,-1.86482,GROUP FOUR GLASSFIBRE CO. LIMITED,www.groupfourglassfibre.co.uk,BD20 5UP,Total Exemption Small,Other plastic
53.68677,-1.83031,NU-FIT PVCU WINDOWS & DOORS LIMITED,www.nufitwindows.com,HX5 9DZ,Total Exemption Small,Other plastic
53.5968,-0.64153,ROUNDBRAND LIMITED,www.bifoldaspect.co.uk,DN15 0DH,Full accounts,Other plastic
54.43704,-0.77381,IMPERIAL POLYTHENE PRODUCTS LIMITED,www.imperialpolythene.co.uk,YO21 1XD,Full accounts,Other plastic
53.67949,-1.36583,EXPRESS SIGNS (YORKSHIRE) LIMITED,www.expresssigns.co.uk,WF7 6NX,Total Exemption Small,Other plastic
53.93365,-1.37794,ANSON PACKAGING LIMITED,www.ansonpackaging.com,LS22 7RD,Full accounts,Other plastic
53.78879,-1.23045,LINPAC PACKAGING LIMITED,www.linpacpackaging.com,LS25 6ES,Full accounts,Plastic packing goods
53.59823,-0.64655,A. KAYE WINDOWS & CONSERVATORIES LIMITED,www.akayewindows.com,DN15 6XH,Total Exemption Small,"Plastic plates, sheets, tubes etc"
53.8587,-0.4022,JANA ENTERPRISES LIMITED,www.janaenterprises.co.uk,HU17 9RT,Total Exemption Small,Other plastic
53.79501,-1.22768,TITUS TOOL COMPANY LIMITED,www.titusplus.com,LS25 6NA,Total Exemption Full,Other plastic
53.81101,-1.10029,AKD COMPONENTS LTD,,YO8 3UT,Total Exemption Small,Other plastic
54.40124,-1.65974,INTERNATIONAL PIPELINE PRODUCTS LIMITED,www.inpipeproducts.co.uk,DL10 7JH,Medium Company,Other plastic
53.98012,-1.55913,N.M.J. ENTERPRISES LIMITED,,HG2 0AU,Total Exemption Small,Other plastic
53.71103,-1.90895,ROSEHILL POLYMERS LTD,www.rosehillpolymers.com,HX6 2JT,Full accounts,Other plastic
53.93662,-1.37833,KINPARS INDUSTRIAL PLASTICS LIMITED,www.kinpars.co.uk,LS22 7DN,Total Exemption Small,Other plastic
54.28152,-0.40536,RIMCO SERVICES LIMITED,www.rimco.co.uk,YO11 1JU,Total Exemption Small,Other plastic
53.56086,-0.03089,PEST MASTERS (LINCS) LIMITED,,DN35 8JN,Not Available,"Hunting, trapping, related activities"
54.13547,-0.80622,RIMCO SERVICES LIMITED,www.rimco.co.uk,YO17 7BH,Total Exemption Small,Other plastic
53.74987,-1.75806,A & K ECOFILM LIMITED,www.thecombirange.co.uk,BD12 0LP,Medium Company,Plastic packing goods
53.677277,-1.706414,DS PLASTICS LIMITED,,WF14 9DD,Total Exemption Small,Other plastic
53.7519,-0.30532,RED DRAGON RETREADING LIMITED,www.reddragonretreadingltd.co.uk,HU9 2RL,Total Exemption Small,"Rubber tyres, tubes, retreading"
53.74682,-0.34147,PNEU-TREAD (HUMBERSIDE) LIMITED,,HU1 3TG,Total Exemption Small,Other rubber
54.5816,-1.25768,FLAT FREE TYRES  LIMITED,www.flatfree.co.uk,TS2 1UU,Total Exemption Small,Other plastic
54.55625,-1.31195,PIONEER MOULDINGS LIMITED,,TS18 3AW,Not Available,Other plastic
53.74181,-0.31787,PLASTIC ENGINEERING PRODUCTS LTD,www.plasticengineeringproductsltd.co.uk,HU9 1QH,Total Exemption Small,Other plastic
53.75622,-0.33357,RAINBOW PROFESSIONAL LIMITED,www.rainbow.eu.com,HU2 0PP,Total Exemption Small,"Plastic plates, sheets, tubes etc"
53.80212,-0.91715,MEM-TEQ VENTURES LIMITED,www.mem-teq.co.uk,YO8 6DS,Total Exemption Small,Other plastic
53.48887,-0.98373,WS BELTING LIMITED,,DN9 3RD,Total Exemption Small,Other rubber
53.76454,-1.6462,KINGFISHER UPVC WINDOWS & DOORS LIMITED,www.kingfisherwindows.co.uk,BD11 1NQ,Full accounts,Other plastic
53.5771,-0.62845,S.M. GOODCHILD LIMITED,www.smgoodchilds.co.uk,DN16 1DE,Total Exemption Small,Other rubber
53.85287,-1.62719,P.E.C. (NORTHERN) LIMITED,,LS16 7BW,Total Exemption Small,Other plastic
53.67208,-1.48393,KEWELL CONVERTERS LIMITED,www.kewell-converters.co.uk,WF1 5JA,Total Exemption Small,"Plastic plates, sheets, tubes etc"
53.61641,-1.15228,CONVEYOR AND TRANSMISSION SERVICES LIMITED,,DN6 9WP,Micro-entity accounts,Other rubber
53.75001,-0.32252,ELTHERINGTON INDUSTRIES LIMITED,www.eltherington.co.uk,HU8 7LA,Full accounts,Other plastic
53.61767,-0.94939,POLYPIPE LIMITED,www.polypipe.com,DN8 5JS,Full accounts,Plastics in primary forms
53.61804,-0.16853,POLYNT COMPOSITES UK LIMITED,www.ccpcomposites.com,DN41 8DR,Full accounts,Plastics in primary forms
53.81024,-1.58562,FIND SIGNAGE LTD,www.findsignage.co.uk,LS4 2PU,Total Exemption Small,Other plastic
53.53542,-0.04471,LINCS PLASTICS LIMITED,,DN36 4AS,Not Available,Plastic packing goods
53.87613,-1.89614,PFF PACKAGING LIMITED,www.pff.uk.com,BD21 4BZ,Full accounts,Plastic packing goods
54.43509,-0.53601,BOND-A-BAND (TRANSMISSIONS) LIMITED,www.bondaband.com,YO22 4RA,Total Exemption Small,Plastics in primary forms
53.68031,-1.57881,CIT TECHNOLOGY LIMITED,www.conductiveinkjet.com,WF5 9WS,Full accounts,Other plastic
54.54511,-1.32927,MITRE PLASTICS (STOCKTON) LIMITED,www.mitreplastics.co.uk,TS18 3TF,Total Exemption Small,Other plastic
53.8308,-1.539,PACK SOLUTIONS LIMITED,,LS7 3QB,Not Available,Plastic packing goods
53.7837,-1.51347,ADROIT PLASTICS LTD,,LS9 0PF,Micro-entity accounts,Other plastic
53.50843,-1.11738,PORTOLA PACKAGING LIMITED,www.silgan-closures.com,DN4 5NT,Full accounts,Other plastic
53.58572,-1.69939,B.G.M.PLASTICS LIMITED,www.xtexpolythene.co.uk,HD8 8EA,Small company,Other plastic
53.77856,-0.34668,ADVANCED PLASTICS LIMITED,www.advanced-plastics.co.uk,HU7 0YQ,Medium Company,Other plastic
54.56943,-1.30435,AANCO (UK) LIMITED,www.aanco.co.uk,TS18 2LS,Total Exemption Small,Other plastic
54.59137,-1.08906,DU PONT (U.K.) LIMITED,www.dupont.ca,TS10 4XX,Full accounts,Plastics in primary forms
53.78931,-1.41701,CIRCLE PLASTICS LIMITED,www.circlemarketing.co.uk,LS15 4LG,Total Exemption Small,Other plastic
53.83543,-1.76556,KAYLAN OFFSHORE LIMITED,www.kaylan.co.uk,BD18 1QF,Total Exemption Small,Other plastic
54.57507,-1.27743,AANCO (UK) LIMITED,www.aanco.co.uk,TS18 2RB,Total Exemption Small,Other plastic
53.74911,-0.29979,POINT ENGINEERING (UK) LIMITED,www.pointeng.com,HU9 1SD,Total Exemption Small,Other rubber
53.69061,-1.63757,DIESPEKER LIMITED,www.diespeker-grp.co.uk,WF13 2LZ,Total Exemption Small,Other plastic
53.84536,-1.4383,BARTUF EUROPE LIMITED,www.bartuf.co.uk,LS14 3DN,Total Exemption Small,Other plastic
53.67679,-1.48853,THEME BINS (INTERNATIONAL) LTD,www.themebins.co.uk,WF1 5DL,Total Exemption Small,Other plastic
53.64115,-1.79827,TYRESEAL LIMITED,,HD1 3JD,Total Exemption Small,Other rubber
53.57441,-1.17666,SACHETEC LTD,www.sachetec.co.uk,DN6 7AZ,Micro-entity accounts,Other plastic
53.94418,-1.81446,HILTON DOCKER MOULDINGS LIMITED,www.hiltondoc.co.uk,LS29 0DN,Total Exemption Small,Other plastic
53.79282,-1.22117,EDGE-SAFE LIMITED,www.edge-safe.co.uk,LS25 6PL,Total Exemption Small,Other rubber
53.67417,-1.66623,CHEM RESIST GROUP LIMITED,www.chemresist.com,WF13 3SX,Total Exemption Small,Other plastic
53.68266,-1.58141,ATACK LTD.,www.atack.ltd.uk,WF5 9DG,Total Exemption Small,Other plastic
53.79736,-1.76374,BUTTERFIELD SIGNS LIMITED,www.butterfieldsigns.co.uk,BD1 2RX,Group,Other plastic
53.58075,-0.11548,TRI-PACK PLASTICS LIMITED,www.tri-pack.co.uk,DN31 2TB,Small company,Plastic packing goods
53.49544,-1.18206,WIRQUIN LTD,www.polypipe.com,DN4 9LS,Full accounts,Other plastic
54.54819,-1.32051,ALMARK LIMITED,www.almark-limited.co.uk,TS18 3TQ,Total Exemption Small,Other plastic
53.97185,-1.08773,SMART STABLE LIMITED,,YO30 6DF,Not Available,Other plastic
53.54512,-0.02593,MADE TO MEASURE WINDOW SYSTEMS LIMITED,www.madetomeasurewindows.com,DN35 0JE,Total Exemption Small,Other plastic
54.60938,-1.58644,MEDISAFE SYSTEMS LIMITED,,DL5 6EA,Total Exemption Small,Other plastic
53.80769,-1.43006,TEAM VACFORM LIMITED,www.teamvacform.co.uk,LS15 8AR,Total Exemption Small,Other plastic
54.56007,-1.32187,ROO ENTERPRISES LIMITED,,TS18 3NJ,Total Exemption Small,Other plastic
53.74199,-1.64846,SPECIALIST BUILDING PRODUCTS LIMITED,www.cellularsiding.com,WF17 9LU,Full accounts,Other plastic
53.73403,-0.3811,DEARING PLASTICS LIMITED,www.dearingplastics.co.uk,HU3 5JL,Total Exemption Small,Other plastic
53.67702,-1.37257,LINPAC PACKAGING LIMITED,www.linpacpackaging.com,WF7 5DE,Full accounts,Plastic packing goods
53.60658,-0.66252,MONDI SCUNTHORPE LIMITED,www.wheatleypackaging.com,DN15 8QJ,Full accounts,Plastic packing goods
54.43517,-0.55808,SENSIBLE PRODUCTS LTD,,YO22 4PP,Total Exemption Small,Other plastic
54.65048,-1.19649,SOLUTIONS-INJECTION MOULDING LIMITED,,TS25 2BE,Total Exemption Small,Other plastic
53.55931,-0.06742,MADE TO MEASURE WINDOW SYSTEMS LIMITED,www.madetomeasurewindows.com,DN32 9PL,Total Exemption Small,Other plastic
53.55528,-0.09265,CUBBY SAFETY PRODUCTS LIMITED,www.cubbysafetyproducts.com,DN34 5AS,Total Exemption Small,"Plastic plates, sheets, tubes etc"
53.60849,-0.66049,PREMIER SEALANT SYSTEMS LIMITED,www.premseal.co.uk,DN15 8RE,Total Exemption Small,Other plastic
54.58109,-1.25663,CELESTIAL WINDOWS AND CONSERVATORIES LIMITED,www.celestialwindows.co.uk,TS2 1UX,Total Exemption Small,Other plastic
53.58075,-0.11548,FLOCKTONS T.V.P. LTD,www.flocktonstvp.co.uk,DN31 2TB,Total Exemption Small,Other plastic
54.30649,-1.73602,GREYSCALE CONSULTANTS LTD.,,DL8 5RJ,Not Available,"Hunting, trapping, related activities"
53.86336,-1.84353,KIMBLEDALE LIMITED,www.kimbledale.co.uk,BD16 3HP,Total Exemption Small,Other plastic
53.73286,-1.604,EURO TRANSPORT MANUFACTURING LIMITED,www.eurotransman.co.uk,LS27 0BN,Full accounts,Other plastic
53.75001,-0.32252,DIRECT GASKETS LIMITED,www.direct-gaskets.co.uk,HU8 7LA,Total Exemption Small,Other rubber
53.79465,-1.77195,EUROCELL PROFILES LIMITED,www.eurocell.co.uk,BD7 1JZ,Full accounts,Other plastic
53.97757,-0.85645,I & M TARPAULINS LIMITED,www.tarpaulins-york.co.uk,YO41 1HS,Total Exemption Small,"Plastic plates, sheets, tubes etc"
53.64013,-1.8122,T G ENGINEERING PLASTICS LIMITED,www.tgplastics.com,HD1 4TL,Total Exemption Small,Other plastic
54.56642,-1.31874,SWAINSTONS LIMITED,www.swainstons.co.uk,TS18 1QN,Total Exemption Small,Other plastic
53.67842,-1.83297,A-FAX LIMITED,www.asafe.com,HX5 9JP,Group,Plastics in primary forms
53.63712,-1.8424,ALPHA INDUSTRIAL PLASTICS LIMITED,,HD3 4QF,Total Exemption Small,"Plastic plates, sheets, tubes etc"
53.8577,-1.68598,OLGELIN LIMITED,www.plaslant.com,LS19 6AP,Total Exemption Small,Plastics in primary forms
53.57565,-0.10025,ROUNDBRAND LIMITED,www.bifoldaspect.co.uk,DN31 2SG,Full accounts,Other plastic
53.71454,-1.52474,PC PEST CONTROL LIMITED,,WF2 0XW,Total Exemption Small,"Hunting, trapping, related activities"
53.71195,-1.26384,CORE INDUSTRIAL PLASTICS LIMITED,,WF11 8NA,Total Exemption Small,"Plastic plates, sheets, tubes etc"
53.50812,-1.12,PALRAM POLYCARB LIMITED,www.palram.com,DN4 5JH,Group,Other plastic
53.72959,-1.9735,A D PLASTIC SOLUTIONS LIMITED,http://adplastics.com,HX7 5QQ,Total Exemption Small,Other plastic
53.74398,-1.35174,LINPAC PACKAGING LIMITED,www.linpacpackaging.com,WF10 2AL,Full accounts,Plastic packing goods
54.60294,-1.29806,DML EXCHANGER SPARES LTD,,TS23 2PE,Not Available,Other rubber
53.91677,-1.70346,WINTER HOME IMPROVEMENTS LIMITED,,LS21 2AW,Total Exemption Small,Other plastic
53.70853,-1.61807,RELIANT RUBBER ENGINEERS LIMITED.,www.reliantrubber.co.uk,WF17 6LN,Total Exemption Small,Other rubber
53.73356,-0.37968,DEARING PLASTICS LIMITED,www.dearingplastics.co.uk,HU3 5JA,Total Exemption Small,Other plastic
53.73541,-1.86885,LOCK WAY PLASTICS LIMITED,www.lockwayplastics.co.uk,HX3 6PL,Total Exemption Small,Other plastic
53.77869,-0.34138,RETAIL ENGINEERING DESIGN LIMITED,www.plasticonline.co.uk,HU7 0YG,Total Exemption Small,Other plastic
53.64119,-1.52649,TOP TREADS (NORTH WEST) LIMITED,www.toptreads.com,WF4 3HT,Total Exemption Small,"Rubber tyres, tubes, retreading"
53.63813,-1.78488,XL PLASTIC DISPLAYS LIMITED,,HD1 3RR,Total Exemption Small,Other plastic
53.72195,-1.88577,GATESIGNAL LIMITED,,HX1 4JR,Total Exemption Small,Other plastic
53.75956,-0.34162,KUBEX (U.K.) LIMITED,www.kubex.co.uk,HU5 1HX,Total Exemption Small,Other plastic
53.67417,-1.66623,CHEM-RESIST PLASTIC FABRICATIONS LIMITED,www.chemresist.com,WF13 3SX,Total Exemption Small,Other plastic
53.58922,-0.65353,POLYPEARL MOULDED PRODUCTS LIMITED,www.polypearl.co.uk,DN15 7PQ,Total Exemption Small,Other plastic
53.54478,-1.10169,POLYPIPE LIMITED,www.polypipe.com,DN2 4PG,Full accounts,Plastics in primary forms
53.72743,-1.35777,ROUNDBRAND LIMITED,www.bifoldaspect.co.uk,WF10 1PD,Full accounts,Other plastic
53.79608,-1.59068,QUALITY PLASTICS LTD,,LS12 1XB,Total Exemption Small,Other plastic
53.71959,-1.88484,PFTR LIMITED,www.polyframe.co.uk,HX1 3TT,Full accounts,Other plastic
54.53522,-1.36067,NIFCO UK LIMITED,www.nifcoeu.com,TS16 0PS,Full accounts,Other plastic
53.94095,-1.99329,CINETIC CARBON COMPOUNDS LIMITED,,BD20 9EX,Total Exemption Small,Other plastic
53.77869,-0.34138,PLASTIC ONLINE LIMITED,www.plasticonline.co.uk,HU7 0YG,Total Exemption Small,Other plastic
54.20437,-0.29424,EMJ PLASTICS LIMITED,www.emjplastics.com,YO14 0AD,Total Exemption Small,Other plastic
53.79624,-1.76384,BUTTERFIELD NEON SERVICE LIMITED,www.butterfieldsigns.co.uk,BD1 2RZ,Total Exemption Small,Other plastic
53.69407,-1.70927,RAPID PROCESSING LIMITED,,WF14 0DG,Total Exemption Small,Plastic packing goods
53.74398,-1.35174,REGAIN POLYMERS LIMITED,www.regainpolymers.com,WF10 2AL,Full accounts,Other plastic
53.48535,-1.17967,ROBIMATIC LIMITED,polypipe.com,DN12 1ES,Full accounts,Plastics in primary forms
54.51528,-1.43091,PARAGON RAPID TECHNOLOGIES LTD,www.paragon-rt.com,DL2 1NA,Total Exemption Small,Other plastic
53.72534,-1.36967,AQUA PLASTICS LIMITED,www.aquaplastics.co.uk,WF10 1BY,Total Exemption Small,Other plastic
53.72195,-1.88577,PFTR LIMITED,www.polyframe.co.uk,HX1 4JR,Full accounts,Other plastic
53.7289,-1.68288,YORKSHIRE WET ROOMS LTD,,BD19 4PY,Total Exemption Small,Other plastic
54.24847,-0.37519,GREENSTRIPE GROUND CARE LTD,,YO11 3QF,Total Exemption Small,"Hunting, trapping, related activities"
53.83139,-0.40082,J.K.N. POLYMERS LIMITED,www.jknpolymersltd.co.uk,HU17 0TB,Total Exemption Small,Other plastic
54.00406,-1.44897,BNL (UK) LIMITED,www.bnl-bearings.com,HG5 8LF,Full accounts,Other plastic
53.66835,-1.77737,LEXCAST LIMITED,www.lexcast.co.uk,HD2 1DU,Small company,Other plastic
53.94435,-2.11339,BABY KABOODLE LIMITED,,BD23 3AY,Total Exemption Small,Other rubber
53.72175,-1.25864,M B VULCANISING LIMITED,,WF11 9NW,Micro-entity accounts,Other rubber
53.655831,-1.741455,PLASTICRAFT DISPLAYS (HUDDERSFIELD) LIMITED,,HD5 9TB,Total Exemption Small,Other plastic
54.18944,-1.36565,FLEXIBLE MACHINE PRODUCTS LIMITED,,YO7 3HW,Micro-entity accounts,Other rubber
53.65846,-1.51622,A.J.GLASSFIBRE LIMITED,,WF2 7BJ,Total Exemption Small,Other plastic
53.74754,-0.3388,ASSOCIATED PLASTIC COMPONENTS LIMITED,www.apcmouldings.co.uk,HU2 8DA,Small company,Other plastic
53.68547,-1.83339,LINERTECH LIMITED,www.interbulkgroup.com,HX5 9BX,,Plastic packing goods
53.67214,-1.68686,BRITISH BUNG MANUFACTURING COMPANY LIMITED(THE),www.britishbung.com,WF14 8LY,Small company,Other plastic
53.72277,-1.89508,NIKO (INT) LIMITED,www.nikoltd.com,HX2 0AX,Full accounts,Other plastic
53.48817,-1.01211,WS BELTING LIMITED,,DN9 3GA,Total Exemption Small,Other rubber
53.80744,-1.56055,CREATE 3D PRINTING SERVICES LTD,,LS2 9DF,Not Available,Other plastic
53.74249,-0.32702,PLASTIC ENGINEERING PRODUCTS LTD,www.plasticengineeringproductsltd.co.uk,HU9 1TQ,Total Exemption Small,Other plastic
54.58571,-1.25231,THE STICKER HAUS UK LIMITED,,TS2 1RH,Total Exemption Small,Other plastic
54.52518,-1.56186,RUBBER SPRAY SOLUTIONS LIMITED,www.rubberspraysolutions.co.uk,DL3 7SD,Total Exemption Small,Other rubber
53.69234,-1.42286,GREENWICH WINDOWS & CONSERVATORIES LIMITED,www.greenwichwindows.com,WF6 1BB,Total Exemption Small,Other plastic
53.63712,-1.8424,KEL-AIR (PLASTICS) LIMITED,www.tanksandsystems.co.uk,HD3 4QF,Total Exemption Small,Other plastic
53.67434,-1.6678,ZETA PLASTIC COMPONENTS LIMITED,www.zetaplastics.com,WF13 3SZ,Total Exemption Small,Other plastic
53.74271,-1.61317,DENA NANO LTD,www.dena.co.uk,LS27 0JP,Total Exemption Small,Other rubber
53.72195,-1.88577,POLYFRAME NORWICH LTD,www.polyframetrade.co.uk,HX1 4JR,Full accounts,Other plastic
53.78083,-1.74359,EXPANDED RUBBER PRODUCTS (UK) LIMITED,,BD4 7HG,Not Available,Other rubber
54.304068,-2.196822,HIGH COTTERDALE SPORTING SOCIETY LIMITED,,DL8 3QS,Total Exemption Small,"Hunting, trapping, related activities"
53.76453,-1.54896,TOTAL POLYFILM LIMITED,www.totalpolyfilm.com,LS11 5SS,Full accounts,Plastic packing goods
54.02918,-0.82538,ROB HALL SHOOTING SUPPLIES LIMITED,,YO17 9RW,Total Exemption Small,"Hunting, trapping, related activities"
54.02279,-1.60401,CABLE TRAIL LIMITED,www.cabletrail.co.uk,HG3 2EJ,,"Plastic plates, sheets, tubes etc"
53.72699,-1.71636,GRILLE BOX LTD.,www.grille-box.co.uk,BD19 3NX,Total Exemption Small,Other plastic
53.79806,-1.57088,TOTAL TRADE FRAMES LTD,www.totaltradeframes.co.uk,LS12 2EJ,Total Exemption Small,Other plastic
54.60393,-1.27984,STRUCTURE-FLEX LIMITED,www.structure-flex.co.uk,TS23 4AN,Full accounts,Plastic packing goods
53.90836,-1.93501,VACFORM COMPOSITES LIMITED,www.vacformcomposites.co.uk,BD20 0EF,Total Exemption Small,Other rubber
53.60559,-0.42205,BEMIS ELSHAM LIMITED,www.bemis.com,DN20 0SP,Full accounts,Other plastic
54.23005,-1.35451,POWER PLASTICS LIMITED,www.powerplastics.co.uk,YO7 1PZ,Total Exemption Small,Other plastic
53.74911,-0.29979,DIRECT GASKETS LIMITED,www.direct-gaskets.co.uk,HU9 1SD,Total Exemption Small,Other rubber
54.57525,-1.18221,ERW JOINERY LIMITED,www.erwltd.co.uk,TS6 6HA,Total Exemption Small,Other plastic
53.77138,-1.54199,SCOTT BADER COMPANY LIMITED,www.scottbader.com,LS11 5JW,Group,Plastics in primary forms
53.77696,-0.33556,BERICAP U.K. LIMITED.,www.bericap.com,HU7 0YN,Full accounts,Plastic packing goods
53.72067,-0.42647,ARCOLA PRODUCTS LIMITED,www.arcolaproducts.co.uk,HU13 9PB,Total Exemption Small,Other plastic
53.59745,-1.83347,HAROLD FISHER (PLASTICS) LIMITED,www.fisherplastics.co.uk,HD9 4AP,Total Exemption Small,Other plastic
53.86492,-1.67338,R E P WINDOWS LIMITED,www.repglass.co.uk,LS19 7BN,Total Exemption Small,Other plastic
53.736696,-0.35604,PRIZETRACK LIMITED,,HU3 2BH,Total Exemption Small,Other rubber
53.71877,-1.81481,PERROTT ENGINEERING GROUP LIMITED,www.perrottengineering.co.uk,HX3 8PS,Small company,Other plastic
53.76347,-0.10638,STICK CLIP LIMITED,,HU12 9AX,Not Available,Plastic packing goods
53.7887,-1.49287,"ROBERTS,MART & CO.LIMITED",www.roberts-mart.co.uk,LS9 0AN,Full accounts,Plastic packing goods
53.5207,-1.12343,COLONNADE PANELS LIMITED,,DN1 2EG,Total Exemption Small,Other plastic
54.0168,-0.94035,R L T (DESIGN) LIMITED,www.partyloo.co.uk,YO41 1JZ,Total Exemption Small,Other plastic
53.79115,-1.52309,PHONECATCHER LIMITED,,LS9 8RR,Micro-entity accounts,Other plastic
53.82891,-0.43135,WOODMAN EXTRUSIONS LIMITED,,HU17 8UQ,Total Exemption Small,Other plastic
53.83837,-0.76412,SUREFILL VALVE SYSTEMS LIMITED,,YO43 4BG,Total Exemption Small,Plastic packing goods
53.58036,-0.09975,DUNLOP OIL & MARINE LIMITED,www.dunlop-oil-marine.co.uk,DN31 2SY,Full accounts,Other rubber
53.58075,-0.11548,LINCS PLASTICS LIMITED,,DN31 2TB,Not Available,Plastic packing goods
53.77131,-1.57484,LEEDS PLASTIC ENGINEERING LIMITED,www.leedsplasticengineering.co.uk,LS11 8JQ,Total Exemption Small,Other plastic
53.79907,-1.57424,HWL TRADE FRAMES LIMITED,www.hwlwindows.co.uk,LS12 2EL,Total Exemption Small,Other plastic
53.57174,-0.61959,MOULDED FOAMS LIMITED,www.mouldedfoams.com,DN16 3RT,Full accounts,Other plastic
54.08286,-0.20075,ROUNDBRAND LIMITED,www.bifoldaspect.co.uk,YO15 3HA,Full accounts,Other plastic
54.16698,-1.26775,SPARE LEG LIMITED,,YO7 3NE,Not Available,Other plastic
53.52383,-1.12709,PETER PERKS LIMITED,www.peterperksltd.com,DN1 2EZ,Total Exemption Small,"Plastic plates, sheets, tubes etc"
53.741341,-1.769842,BUTTERFIELD SIGNS LIMITED,www.butterfieldsigns.co.uk,BD12 8HS,Group,Other plastic
54.30104,-0.44902,PINDAR SPORTING PARTNERS LIMITED,,YO13 0RP,Total Exemption Small,"Hunting, trapping, related activities"
53.70625,-1.38792,REALLY USEFUL PRODUCTS LTD,www.reallyusefulproducts.com,WF6 1TN,Full accounts,Plastic packing goods
53.76773,-1.84331,MERIDIAN COLOUR (UK) LIMITED,,BD13 1QA,Total Exemption Small,Other plastic
53.68031,-1.57881,CARCLO TECHNICAL PLASTICS LIMITED,www.carclo-ctp.co.uk,WF5 9WS,Full accounts,Other plastic
53.77586,-0.92411,GRAHAM PACKAGING PLASTICS LIMITED,www.gpceurope.eu,YO8 6ET,Full accounts,Plastic packing goods
54.58742,-1.25479,UNIFIT RAINCOVERS LIMITED,,TS2 1RP,Total Exemption Small,Other plastic
53.83315,-1.82284,WATT PLASTICS LIMITED,,BD16 1PY,Total Exemption Small,Other plastic
53.6931,-1.30798,LINPAC PACKAGING LIMITED,www.linpacpackaging.com,WF7 5XE,Full accounts,Plastic packing goods
53.70006,-1.7696,CROMPTON MOULDINGS LIMITED,www.cromptonmouldings.co.uk,HD6 1QG,Total Exemption Small,Other plastic
53.57553,-0.12362,LYNX POLYTHENE LIMITED,www.lynxpolythene.com,DN31 2TP,Total Exemption Small,Plastic packing goods
53.90859,-1.93586,VACFORM COMPOSITES LIMITED,www.vacformcomposites.co.uk,BD20 0DL,Total Exemption Small,Other rubber
54.67483,-1.20891,GUARDIAN WINDOWS & CONSERVATORIES LTD,www.guardian-windows.co.uk,TS25 1PX,Total Exemption Small,Other plastic
53.70746,-1.91661,STOCKMEIER URETHANES UK LIMITED,www.greenfieldpolymers.com,HX6 1AA,Small company,Plastics in primary forms
53.68865,-1.57915,STYLE ENGRAVERS LIMITED,www.styleengravers.co.uk,WF5 9NJ,Total Exemption Small,Other plastic
54.55688,-1.31789,ALL SEASONS WINDOWS (N/E) LIMITED,,TS18 3QZ,Total Exemption Small,Other plastic
53.80478,-1.6211,VENTURE ORANGE LIMITED,,LS13 4AD,Total Exemption Small,Other plastic
53.58572,-1.69939,XTEX POLYTHENE LIMITED,www.xtex.co.uk,HD8 8EA,Small company,Other plastic
54.52588,-1.35912,LEWIS PENNICOTT DESIGN LIMITED,,TS16 0RU,Total Exemption Small,Other plastic
53.8702,-1.90677,RED ARETE LIMITED,www.red-arete.co.uk,BD21 3BB,Total Exemption Small,Other plastic
53.78897,-1.60641,FENCE FEET LIMITED,www.fencefeet.co.uk,LS12 4XF,Total Exemption Small,Other plastic
53.68367,-0.01476,GRANDTRAX LIMITED,www.grandtrax.co.uk,HU12 0NA,Total Exemption Small,Other plastic
53.70593,-1.93981,EZIKERB LTD,www.ezikerb.co.uk,HX6 1LP,Total Exemption Small,Other plastic
54.15674,-0.69407,ELLIS PATENTS LIMITED,www.ellispatents.co.uk,YO17 8LA,Full accounts,Other plastic
53.61641,-1.15228,THE BELT COMPANY LIMITED,www.thebeltcompany.co.uk,DN6 9WP,Total Exemption Small,Other rubber
54.65048,-1.19649,RAVATHERM UK LIMITED,,TS25 2BE,Not Available,"Plastic plates, sheets, tubes etc"
53.80244,-1.53067,LEEWAYS PACKAGING SERVICES LIMITED,www.leeways.co.uk,LS9 7DR,Full accounts,Plastic packing goods
53.83279,-1.45757,CD PLASTIC MOULDINGS LIMITED,www.plastic-mouldings.com,LS14 2LA,Full accounts,Other plastic
53.72288,-1.66656,PARAMITE PEST SOLUTION LTD,,WF16 9BE,Total Exemption Small,"Hunting, trapping, related activities"
54.60938,-1.58644,INOVYN NEWTON AYCLIFFE LIMITED,www.ineos.com,DL5 6EA,Full accounts,Other plastic
53.79724,-1.55411,HEXDEV LIMITED,www.hexdevprecision.co.uk,LS1 2EY,Total Exemption Small,Other plastic
53.86536,-1.85525,CYTEC PROCESS MATERIALS (KEIGHLEY) LIMITED,www.cytec.com,BD20 5NG,Full accounts,Other plastic
53.58202,-1.01929,TKLJ LTD,,DN7 4HA,Not Available,"Hunting, trapping, related activities"
54.26096,-1.76767,JERVAULX GAME FARM LIMITED,,DL8 4ST,Total Exemption Small,"Hunting, trapping, related activities"
53.78959,-1.53818,MEDASIL SURGICAL LIMITED,www.medasil.com,LS10 1AU,Small company,Other plastic
53.71395,-1.69251,GRILLE BOX LTD.,www.grille-box.co.uk,WF15 6EB,Total Exemption Small,Other plastic
53.72625,-0.4005,MEDI-CLEAR LIMITED,www.medi-clear.com,HU4 7DX,Total Exemption Small,Plastic packing goods
53.78918,-1.56664,BARTUF EUROPE LIMITED,www.bartuf.co.uk,LS11 9RU,Total Exemption Small,Other plastic
53.70826,-1.90887,DUGDALE LIMITED,www.dugdalepvc.com,HX6 2AA,Full accounts,Plastics in primary forms
53.63809,-1.83759,LEXCAST LIMITED,www.lexcast.co.uk,HD3 4QG,Small company,Other plastic
54.66188,-1.44849,LINPAC PACKAGING LIMITED,www.linpacpackaging.com,TS21 3EE,Full accounts,Plastic packing goods
53.72967,-1.71528,COUNTRYWIDE GROUNDS WEST YORKSHIRE LIMITED,,BD19 4EZ,Total Exemption Small,"Hunting, trapping, related activities"
53.6746,-1.86083,CARPENTER LIMITED,www.carpenter.ltd.uk,HX4 9BL,Full accounts,Other plastic
53.66762,-1.20165,COUNTRYWIDE GROUNDS WEST YORKSHIRE LIMITED,,DN6 9AY,Total Exemption Small,"Hunting, trapping, related activities"
53.86675,-1.89376,AMMERAAL BELTECH LIMITED,www.ammeraalbeltech.com,BD21 4PL,Full accounts,Other plastic
53.64868,-1.73283,FORTEQ (UK) LIMITED,www.forteq-group.com,HD5 0QR,Full accounts,Other plastic
53.63339,-1.79169,THE LOCKWOOD WINDOW COMPANY LIMITED,www.lockwoodwindows.co.uk,HD4 6BW,Total Exemption Small,Other plastic
53.84536,-1.4383,BARTUF LIMITED,www.bartuf.co.uk,LS14 3DN,Total Exemption Small,Other plastic
53.99223,-0.91878,ROSTI AUTOMOTIVE LARKHALL LTD.,www.rosti.com,YO41 1AL,Full accounts,Other plastic
53.72624,-1.36665,CUSTOMPAC LIMITED,www.custompac.co.uk,WF10 1PA,Total Exemption Small,Plastic packing goods
53.72296,-1.68852,AK PRODUCTS LIMITED,,BD19 4HZ,Total Exemption Small,Other plastic
53.7837,-1.51347,ZENITH PLASTIC DEVELOPMENTS LIMITED,www.zenithplastics.co.uk,LS9 0PF,Total Exemption Small,Other plastic
53.74193,-0.73121,TRU GROUP LIMITED,www.trugroup.co.uk,HU15 2TB,Total Exemption Small,Other plastic
54.08348,-0.89646,SPORTSELECT LIMITED,,YO60 7JJ,Total Exemption Small,"Hunting, trapping, related activities"
53.89552,-0.533,SCORBOROUGH SPORTING LIMITED,,HU17 7PN,Total Exemption Small,"Hunting, trapping, related activities"
54.0028,-1.5022,TROPHY CATZ LTD,,HG1 4QJ,Micro-entity accounts,Other plastic
53.98622,-1.10025,NUPLAS LIMITED,www.nuplas.eu,YO30 4XG,Total Exemption Small,Other plastic
53.48535,-1.17967,POLYPIPE LIMITED,www.polypipe.com,DN12 1ES,Full accounts,Plastics in primary forms
53.65509,-1.48907,ATACK LTD.,www.atack.ltd.uk,WF2 7HY,Total Exemption Small,Other plastic
53.679401,-1.500734,LEEWAYS PACKAGING SERVICES LIMITED,www.leeways.co.uk,WF1 5PF,Full accounts,Plastic packing goods
53.72793,-0.41103,DELIVERANCE BAIT BOATS LIMITED,,HU4 7AP,Total Exemption Small,Other plastic
53.76947,-1.54541,SCOTT BADER COMPANY LIMITED,www.scottbader.com,LS11 5UU,Group,Plastics in primary forms
54.13473,-1.40356,VULCAN UK LIMITED,www.vulcanrubber.co.uk,YO7 3DH,Total Exemption Small,Other rubber
53.75386,-0.33482,THE BELT COMPANY LIMITED,www.thebeltcompany.co.uk,HU2 0PJ,Total Exemption Small,Other rubber
53.77615,-0.33642,J.K.N. POLYMERS LIMITED,www.jknpolymersltd.co.uk,HU7 0YW,Total Exemption Small,Other plastic
53.83203,-1.6383,PETER PERKS LIMITED,www.peterperksltd.com,LS18 4NW,Total Exemption Small,"Plastic plates, sheets, tubes etc"
53.63937,-1.33814,MARK B HEWITT LIMITED,www.thirstymilo.co.uk,WF7 7DW,Total Exemption Small,Other plastic
53.80569,-1.66581,TAYLOR'S BLOODSTOCK LTD,,LS28 6ER,Micro-entity accounts,"Hunting, trapping, related activities"
54.52637,-1.54979,PLASSES LTD,,DL1 1GB,Total Exemption Full,Other plastic
54.575852,-1.244942,DUPONT TEIJIN FILMS U.K. LIMITED,www.dupontteijinfilms.com,TS90 8JF,Full accounts,Plastic packing goods
54.52518,-1.56186,TEES VALLEY PLASTICS LIMITED,,DL3 7SD,Not Available,Other plastic
53.82476,-1.3434,KENT GROUNDCARE LIMITED,,LS25 3DE,Micro-entity accounts,"Hunting, trapping, related activities"
53.75794,-0.32872,QUADLINKS LIMITED,,HU8 8BQ,Total Exemption Small,Other plastic
53.84398,-1.62939,ALKON SOLUTIONS LTD,,LS18 5PU,Not Available,Synthetic rubber in primary forms
53.75318,-1.60572,COVERTECH LIMITED,,LS27 9PR,Total Exemption Small,Other plastic
53.83409,-0.68849,L & S CRAVEN & SONS LIMITED,,YO43 4LD,Total Exemption Small,"Hunting, trapping, related activities"
53.77983,-1.61304,SPECIALIST HOSE SUPPLIES LIMITED,www.hosessuppliersyorkshire.co.uk,LS12 5JB,Total Exemption Small,Other plastic
53.81492,-1.72099,GRAHAM PACKAGING PLASTICS LIMITED,www.gpceurope.eu,BD2 3RJ,Full accounts,Plastic packing goods
53.67842,-1.83297,A-SAFE SOLUTIONS UK LTD,,HX5 9JP,Not Available,Other plastic
54.49633,-1.13118,KLIPEEZE LIMITED,,TS9 6DL,Total Exemption Small,Other plastic
53.79893,-1.76745,GIRLINGTON GLASS + JOINERY LTD,www.girlingtonglass.com,BD8 8RY,Total Exemption Small,Other plastic
53.71944,-0.45881,HALLITE POLYTEK LIMITED,www.hallite.com,HU13 0PW,Total Exemption Small,Plastics in primary forms
53.72893,-1.80573,KEDEL LIMITED,www.kedel.co.uk,HX3 8NS,Total Exemption Small,"Plastic plates, sheets, tubes etc"
53.74388,-0.3353,UK LEISURE AND TRADE SUPPLIES LIMITED,,HU1 2AS,Not Available,Other plastic
53.64725,-1.52423,SAFETYSHIELDPRODUCTS LTD,www.safetyshieldproducts.co.uk,WF4 3BY,Total Exemption Small,Other plastic
53.71992,-0.43338,BRIDGEWOOD (UK) LIMITED,www.bridgewooduk.com,HU13 0TP,Full accounts,Other plastic
54.33428,-1.44742,GRAYSON SPA LIMITED,,DL7 8NR,Total Exemption Small,Other plastic
54.57134,-1.18498,SEALTIGHT WINDOWS (N E) LIMITED,www.sealtightwindows.co.uk,TS6 6DX,Total Exemption Small,Other plastic
53.98126,-2.1094,JAYPLAS LIMITED,,BD23 3NL,Total Exemption Small,Other plastic
53.79676,-1.60514,BEECHCRAFT LIMITED,www.beechcraft-ltd.com,LS12 3LP,Total Exemption Small,Other plastic
53.79082,-1.65154,"MOULDS, PATTERNS AND MODELS LIMITED",www.mpmbradford.co.uk,LS28 9LY,Total Exemption Full,Other plastic
53.78902,-1.39271,PRECISION RUBBER ROLLERS LIMITED,,LS25 1LL,Total Exemption Small,Other rubber
53.679401,-1.500734,PROARTCO LTD,,WF1 5PF,Total Exemption Small,Other rubber
54.52116,-1.2236,COWIE TECHNOLOGY GROUP LIMITED,www.cowie.com,TS8 0TQ,Group,Other plastic
53.84543,-1.82274,BUTTERCREAM AND SPARKLES LIMITED,,BD16 4RQ,Not Available,"Plastic plates, sheets, tubes etc"
54.01242,-1.53686,ELLIES SAFETY LIMITED,www.tapsock.com,HG1 3EA,Total Exemption Small,Other rubber
53.41085,-1.07116,W P HYDRAULICS LTD,,DN11 8NE,Total Exemption Small,Other rubber
53.71944,-0.45881,HALLITE SEALS INTERNATIONAL LIMITED,www.hallite.com,HU13 0PW,Full accounts,Plastics in primary forms
54.12684,-0.818,WINDOW DISTRIBUTION LIMITED,www.windowdist.com,YO17 6YA,Total Exemption Small,Other plastic
53.62163,-1.87944,D. & B. INJECTION MOULDERS LIMITED,www.dbmoulders.co.uk,HD7 5JS,Total Exemption Small,Other plastic
53.76232,-0.70928,TOILLED LTD,,HU15 2PX,Total Exemption Full,"Hunting, trapping, related activities"
53.74633,-0.24829,ANTIVIBE (HULL) LIMITED,www.antivibe.co.uk,HU9 5NX,Total Exemption Small,Other rubber
53.8559,-1.8184,ORCHARD WATERCARE LIMITED,www.orchardwatercare.co.uk,BD16 3PH,Total Exemption Small,Other plastic
53.67417,-1.66623,CHEM-RESIST (N.E.) LIMITED,www.chemresist.com,WF13 3SX,Total Exemption Small,Other plastic
53.73413,0.02848,BYDALES GAMESTOCK LIMITED,,HU19 2AT,Total Exemption Small,"Hunting, trapping, related activities"
54.23647,-0.75985,RESINOUS CASTINGS YORKSHIRE LTD,,YO18 7NA,Total Exemption Small,"Plastic plates, sheets, tubes etc"
53.77797,-1.75914,SIGN N PRINT BRADFORD LTD,,BD5 7DB,Not Available,Other plastic
54.5197,-1.29083,PRO-FLEX PACKAGING EUROPE LTD,,TS17 9JY,Small company,Plastic packing goods
53.94571,-2.01691,SKIPTON RUBBER MOULDINGS LIMITED,www.skiptonrubber.co.uk,BD23 2QR,Total Exemption Small,Other rubber
53.71835,-1.41376,VAPLAS LIMITED,www.vaplas.com,WF6 2AE,Total Exemption Small,Other plastic
53.71959,-1.88484,PF1NI LIMITED,,HX1 3TT,Not Available,Other plastic
53.51027,-1.14455,FRESH PRINTS SHOP LIMITED,,DN4 0RE,Not Available,Plastic packing goods
53.46938,-1.19744,ENGINE HOUSE PLASTICS LIMITED,,DN12 1QA,Total Exemption Small,Other plastic
53.5573,-1.08181,SENIOR AND DICKSON LIMITED,www.senior&dickson.,DN3 1QR,Total Exemption Small,Other plastic
53.67784,-1.62654,GLYNWED PIPE SYSTEMS LIMITED,www.durapipe.co.uk,WF12 9BG,Full accounts,Other plastic
53.58228,-1.17921,ARMOUR PLASTICS LIMITED,www.renaissance-baths.co.uk,DN6 8DA,Total Exemption Small,Other plastic
53.74836,-1.75663,A & K ECOFILM LIMITED,www.thecombirange.co.uk,BD12 0RG,Medium Company,Plastic packing goods
53.69289,-1.83588,V-SEAL LIMITED,www.vseal.co.uk,HX5 9HX,Total Exemption Small,Other plastic
53.72195,-1.88577,POLYFRAME COMPOSITE DOORS LTD,www.polyframetrade.co.uk,HX1 4JR,Small company,Other plastic
53.71422,-1.77893,RENAISSANCE WINDOW SYSTEMS LIMITED,www.renaissance-systems.co.uk,HD6 4BW,Small company,"Plastic plates, sheets, tubes etc"
53.71592,-1.34166,ENGINEERING AND RECYCLING SOLUTIONS LIMITED,,WF10 4PY,Total Exemption Small,"Plastic plates, sheets, tubes etc"
53.78819,-1.50793,BARKSTON PLASTICS ENGINEERING LIMITED,www.barkstonltd.co.uk,LS9 0DX,Total Exemption Small,Other plastic
53.78689,-1.5012,VACFORM GROUP LIMITED,www.vacformgroup.com,LS9 0ST,Total Exemption Small,Other plastic
53.99325,-1.49499,N. MINIKIN & SONS LIMITED,www.minikins.co.uk,HG2 7DB,Total Exemption Small,Other rubber
53.74989,-0.33918,LIQUID LEVER IRRIGATION LIMITED,www.liquidlever.com,HU2 8EF,Total Exemption Small,Other plastic
53.96217,-1.07933,MAKE YOUR MARK RUBBER STAMPS LIMITED,www.makeyourmarkstamps.co.uk,YO1 7LG,Total Exemption Small,Other rubber
54.63738,-1.32609,PSI PLASTICS LTD,www.psiglobal.co.uk,TS22 5FE,Full accounts,Other plastic
53.63809,-1.83759,HARTFORD BATHROOMS LIMITED,,HD3 4QG,Small company,Other plastic
53.92495,-1.79826,HOLO LILO LIMITED,www.holo-lilo.com,LS29 8PN,Total Exemption Small,Other plastic
54.17444,-1.59368,THE WEST OF YORE LTD,,HG4 3JH,Total Exemption Small,"Hunting, trapping, related activities"
54.03334,-0.39815,OLD BYLAND WOODLANDS LIMITED,,YO25 4LD,Total Exemption Full,"Hunting, trapping, related activities"
53.51821,-0.53124,ONE STOP GRAPHICS SHOP LIMITED,,DN20 9DU,Total Exemption Small,Other plastic
53.70381,-1.39959,DIRECT TRADE (YORKSHIRE) LIMITED,www.directtradeltd.co.uk,WF6 1QT,Medium Company,Other plastic
53.865141,-1.914337,PANELS DIRECT LIMITED,www.panelsdirectltd.com,BD21 4PG,Total Exemption Small,Other plastic
53.71276,-1.33561,A.J.GLASSFIBRE LIMITED,,WF10 4SB,Total Exemption Small,Other plastic
53.47809,-1.05205,PARKINSON PLASTICS LIMITED,,DN11 0NY,Total Exemption Small,Other plastic
53.73079,-1.71345,BENSON BELTINGS LIMITED,www.benson-beltings.co.uk,BD19 4EW,Small company,Other plastic
54.14465,-2.28164,HAWK EXPERIENCE LIMITED,,BD24 0EU,Total Exemption Small,"Hunting, trapping, related activities"
53.65549,-1.51923,HAIR SECRETZ LIMITED,,WF4 3FL,Not Available,Other plastic
53.62329,-0.68359,PET POLYMERS LIMITED,,DN15 8RR,Total Exemption Small,Other plastic
53.60149,-0.64519,VACU-LUG TRACTION TYRES LIMITED,www.tyre-equipment.co.uk,DN15 8XE,Full accounts,"Rubber tyres, tubes, retreading"
53.65116,-1.78834,MINNOVATE LTD.,,HD1 5BZ,Not Available,Other plastic
53.95779,-2.01703,GOODYEAR DUNLOP TYRES UK LIMITED,www.goodyear.eu,BD23 2PQ,Group,"Rubber tyres, tubes, retreading"
54.50838,-1.31508,ROO ENTERPRISES LIMITED,,TS17 0FJ,Total Exemption Small,Other plastic
53.79868,-1.70488,DISTRUPOL LIMITED,www.distrupol.com,BD3 7AY,Full accounts,Plastics in primary forms
53.61798,-0.94779,D.T. INDUSTRIES LIMITED,www.dt-industries.com,DN8 5JU,Total Exemption Small,Other plastic
53.76347,-0.10638,RLA MODERNITY LIMITED,,HU12 9AX,Total Exemption Small,Other plastic
53.64119,-1.52649,ASH MOULDINGS UK LTD,www.ashmouldings.co.uk,WF4 3HT,Total Exemption Small,Other plastic
53.70846,-1.90597,DENROYD LIMITED,www.denroyd.co.uk,HX6 3LD,Total Exemption Small,Other plastic
53.5386,-1.12006,PLASTECH LIMITED,www.plastechtitan.co.uk,DN2 4LT,Total Exemption Small,Other plastic
53.67429,-1.69552,WALKER PLASTICS LIMITED,,WF14 8AT,Total Exemption Small,Other plastic
53.72384,-0.40985,MEDI-CLEAR LIMITED,www.medi-clear.com,HU4 7DY,Total Exemption Small,Plastic packing goods
53.51219,-1.05727,FUNSLINGER LTD,www.funslinger.tel,DN3 3QG,Total Exemption Small,Other plastic
54.30425,-2.19816,WEMMERGILL MOOR LIMITED,,DL8 3RA,Total Exemption Small,"Hunting, trapping, related activities"
53.75589,-0.33102,KWIKFRAMES LIMITED,www.kwikframes.co.uk,HU2 0QE,Total Exemption Small,Other plastic
54.23871,-0.41199,DURAWELD LIMITED,www.duraweld.co.uk,YO11 3UP,Total Exemption Small,Other plastic
54.30425,-2.19816,STAGS FELL LIMITED,,DL8 3RA,Total Exemption Small,"Hunting, trapping, related activities"
53.64119,-1.52649,TOP TREADS LIMITED,www.toptreads.co.uk,WF4 3HT,Total Exemption Small,"Rubber tyres, tubes, retreading"
54.33098,-0.47418,WHISPERDALES FARM LIMITED,,YO13 0DN,Total Exemption Small,"Hunting, trapping, related activities"
53.96534,-1.30647,PLASTIC ACCESS PANELS LTD,www.plastic-access-panels.co.uk,YO26 7QF,Total Exemption Small,Other plastic
53.74195,-0.36422,KINGSTON ORNATE PLASTER LIMITED,www.kingstonornateplaster.co.uk,HU3 2TR,Total Exemption Small,Other plastic
53.71478,-1.62745,GOBIO LIMITED,,WF17 5NH,Not Available,Other plastic
53.64917,-1.78758,CIMPOL LIMITED,,HD1 5JL,Total Exemption Small,Plastic packing goods
53.74495,-0.31875,KINGSTON PLASTICS LTD,,HU9 1LG,Total Exemption Small,Other plastic
54.24992,-1.2504,ZEMA LIMITED,,YO7 2DJ,Micro-entity accounts,Other plastic
54.5581,-1.2986,UNIQUE RESINS LIMITED,www.coatingcompany.co.uk,TS17 7AH,Total Exemption Small,Other plastic
54.26021,-1.11819,RIEVAULX SPORTING LIMITED,,YO62 5LB,Total Exemption Small,"Hunting, trapping, related activities"
54.59461,-1.33631,G AND G MOULDINGS LIMITED,,TS20 1UA,Micro-entity accounts,Other plastic
54.60768,-1.10286,APJ UPVC LTD,,TS10 5JU,Total Exemption Small,Other plastic
53.83679,-1.52959,KINPARS INDUSTRIAL PLASTICS LIMITED,www.kinpars.co.uk,LS17 6NW,Total Exemption Small,Other plastic
53.78819,-1.50793,BARKSTON PLASTICS (NEWCASTLE) LIMITED,,LS9 0DX,Total Exemption Small,Other plastic
53.78083,-1.74359,BRADFORD RUBBER SERVICES LIMITED,www.bradfordrubber.co.uk,BD4 7HG,Total Exemption Small,Other rubber
54.57651,-1.10056,DUPONT TEIJIN FILMS U.K. LIMITED,www.dupontteijinfilms.com,TS10 4RF,Full accounts,Plastic packing goods
54.52139,-1.29398,SABIC INNOVATIVE PLASTICS ABS UK LIMITED,www.sabic-ip.com,TS17 9LT,Full accounts,Plastics in primary forms
53.924,-0.27843,PLAS-TECH THERMOFORMING LIMITED,www.plastech.co.uk,YO25 8EJ,Total Exemption Small,Other plastic
53.71944,-0.45881,INDICO (EUROPE) LIMITED,,HU13 0PW,Total Exemption Small,Other rubber
53.99223,-0.91878,ROSTI UK LTD.,,YO41 1AL,Not Available,Other plastic
53.7569,-0.72321,ALTEREVER LIMITED,,HU15 2UP,Total Exemption Small,"Rubber tyres, tubes, retreading"
53.6908,-1.69296,PGC INSPECTION LTD,,WF14 0LA,Total Exemption Small,Other plastic
53.67847,-1.3126,YORKSHIRE RUBBER AND PLASTICS LTD,,WF8 3QW,Total Exemption Small,Other rubber
53.74524,-0.3187,ASSOCIATED PLASTIC COMPONENTS LIMITED,www.apcmouldings.co.uk,HU9 1NJ,Small company,Other plastic
54.66575,-1.21421,SOLUTIONS-INJECTION MOULDING LIMITED,,TS25 1PD,Total Exemption Small,Other plastic
53.58874,-1.65311,A B PRECISION ENGINEERING LIMITED,,HD8 9BT,Total Exemption Small,Other plastic
53.74635,-0.23327,GRP SHOWER SOLUTIONS LIMITED,,HU12 8FB,Total Exemption Small,Other plastic
53.8033,-1.03922,COLLINS (EXTRUSIONS) LIMITED,www.collins-extrusions.co.uk,YO8 5JP,Total Exemption Small,Other rubber
53.79624,-1.76384,BUTTERFIELD SIGN SERVICE LIMITED,www.butterfieldsigns.co.uk,BD1 2RZ,Total Exemption Small,Other plastic
53.90817,-1.93684,BRENMOOR LTD,www.brenmoor.com,BD20 0EE,Total Exemption Small,Other plastic
53.82831,-1.71636,WINTER PRODUCTS (UK) LIMITED,www.upvcsecuritywindows.co.uk,BD10 0QH,Total Exemption Small,Other plastic
53.74365,-0.38731,CLW RURAL SOLUTIONS LIMITED,,HU3 6UU,Total Exemption Small,"Hunting, trapping, related activities"
53.76453,-1.54896,MARPAK EXTRUSIONS LIMITED,www.marpak.co.uk,LS11 5SS,Full accounts,Plastic packing goods
54.55651,-1.30327,CLEVELAND PROMOTIONS LIMITED,www.pro-heat-ne.co.uk,TS17 6DE,Total Exemption Small,Other plastic
53.69338,-1.31511,GOODYEAR DUNLOP TYRES UK LIMITED,www.goodyear.eu,WF8 4PQ,Group,"Rubber tyres, tubes, retreading"
53.84432,-1.50548,AMERICHEM EUROPE LIMITED,www.americhem.com,LS8 2EZ,Full accounts,Plastics in primary forms
53.91543,-1.27939,S.M. (WREKIN) LTD.,,LS24 8BG,Total Exemption Small,"Hunting, trapping, related activities"
53.66835,-1.77737,TROJAN PLASTICS LIMITED,www.trojanplastics.co.uk,HD2 1DU,Full accounts,Other plastic
53.79864,-1.42813,MILLER GRAPHICS (U.K.) LIMITED,www.millergraphics.com,LS15 8GB,Small company,Other rubber
53.81906,-1.72178,K.J. THERMOSETS LIMITED,www.kjthermosets.co.uk,BD2 2DD,Total Exemption Small,Other plastic
54.68341,-1.29891,TURNBULL SEALS AND MOULDINGS LIMITED,www.gtgroup.co.uk,TS27 3EJ,Small company,Other plastic
53.86415,-1.91505,E DOBSON & COMPANY (GASKETS) LIMITED,www.dobsongasket.com,BD21 1QQ,Total Exemption Small,Other rubber
53.78753,-1.53799,KINYO UK LIMITED,www.kinyo-uk.co.uk,LS10 1JD,Full accounts,Other rubber
53.57296,-0.09355,IRBY ESTATE SHOOT SPORTING SOCIETY LIMITED,,DN31 1SQ,Total Exemption Small,"Hunting, trapping, related activities"
53.75066,-1.68381,PC TOOLING MANAGEMENT LIMITED,,BD11 2LJ,Total Exemption Small,Other plastic
53.75866,-1.87295,BOND-A-BAND (TRANSMISSIONS) LIMITED,www.bondaband.com,HX2 9TP,Total Exemption Small,Plastics in primary forms
53.79185,-1.72448,ANZECKBIO LTD,www.anzeck.co.uk,BD3 8EX,Total Exemption Small,Other plastic
54.48248,-0.60813,GT DISPLAY LIMITED,www.g4display.com,YO22 4ET,Total Exemption Small,Other plastic
53.80689,-1.62353,TYRE REVIVERS LIMITED,www.tyrerevivers.co.uk,LS13 2BW,Total Exemption Small,"Rubber tyres, tubes, retreading"
53.81753,-1.64485,F P PLASTICS (ENGINEERING) LTD,,LS13 1BG,Total Exemption Small,Other plastic
53.63855,-1.7526,ECO RESOURCE LIMITED,,HD5 8NS,Not Available,Other plastic
53.67702,-1.37257,LA 2012 LIMITED,www.linpacpackaging.com,WF7 5DE,Full accounts,Other plastic
54.23685,-0.41408,SWC TRADE FRAMES LIMITED,,YO11 3UT,Not Available,Other plastic
53.49769,-1.15908,RED DRAGON RETREADING LIMITED,www.reddragonretreadingltd.co.uk,DN4 9AU,Total Exemption Small,"Rubber tyres, tubes, retreading"
53.82891,-0.43135,J.K.N. POLYMERS LIMITED,www.jknpolymersltd.co.uk,HU17 8UQ,Total Exemption Small,Other plastic
54.30537,-1.79994,M B GAME CONSULTANCY LIMITED,,DL8 5PZ,Total Exemption Small,"Hunting, trapping, related activities"
53.81381,-0.38532,BURSTALERT LTD,,HU17 0RT,Total Exemption Small,Other plastic
53.68031,-1.57881,CARCLO DIAGNOSTIC SOLUTIONS LIMITED,www.carclo.co.uk,WF5 9WS,Full accounts,Other plastic
53.89459,-1.98829,PANELS DIRECT LIMITED,www.panelsdirectltd.com,BD20 7JD,Total Exemption Small,Other plastic
53.8787,-1.92336,PERRIFLEX PRODUCTS LIMITED,www.perriflex.co.uk,BD20 6LW,Total Exemption Small,Other rubber
54.2794,-0.40856,RESINOUS CASTINGS LIMITED,,YO11 1SX,Total Exemption Small,Other plastic
53.86077,-1.84585,FAST CAST MOULDING LTD,,BD16 2HB,Not Available,Other plastic
53.7993,-1.5506,DORMIE PLASTIC TWO LIMITED,,LS1 2NE,Total Exemption Small,Other plastic
53.77096,-1.41664,ITW LIMITED,www.itwcp.co.uk,LS26 8BS,Full accounts,Other plastic
53.74599,-0.32721,GAMEBORE CARTRIDGE CO. LIMITED,,HU9 1AR,Medium Company,"Hunting, trapping, related activities"
53.72067,-0.42647,AMERICHEM EUROPE LIMITED,www.americhem.com,HU13 9PB,Full accounts,Plastics in primary forms
53.71051,-1.67678,MORTON INDUSTRIAL PLASTICS LIMITED,www.mipuk.com,WF16 9JG,Total Exemption Small,Other plastic
53.96002,-1.07777,OXIRIS LTD,www.oxirischemicals.com,YO1 8NQ,Total Exemption Small,Synthetic rubber in primary forms
53.48817,-1.01211,AMERICHEM EUROPE LIMITED,www.americhem.com,DN9 3GA,Full accounts,Plastics in primary forms
53.6772,-1.62401,J.THWAITES LIMITED,www.tufgrip.com,WF12 9BJ,Total Exemption Small,Other plastic
53.73711,-0.23884,NIPPON GOHSEI UK LTD.,www.nippon-gohsei.com,HU12 8DS,Full accounts,Plastics in primary forms
53.567365,-0.063534,B.W. MANUFACTURING (PLASTICS) LIMITED,www.bwmplastics.co.uk,DN32 7TE,Total Exemption Small,Other plastic
53.75313,-0.34968,DISCOUNT GLASS (HULL) LIMITED,www.discountglasshull.com,HU3 1RU,Total Exemption Small,Other plastic
53.85708,-1.55909,PRISM MOULDINGS LIMITED,,LS17 7BQ,Total Exemption Small,Other plastic
53.69269,-1.83393,BCA LEISURE LTD,www.bcagroup.co.uk,HX5 9HF,Full accounts,Other plastic
53.56086,-0.03089,PESTCOTEK LIMITED,,DN35 8JN,Total Exemption Small,"Hunting, trapping, related activities"
53.71103,-1.90895,RYBURN RUBBER LTD,www.ryburnrubber.co.uk,HX6 2JT,Total Exemption Small,Other rubber
54.13433,-0.77053,YORK PLASTICS (ENGINEERING) LIMITED,,YO17 9ND,Total Exemption Small,Other plastic
53.79907,-1.57424,HWL WINDOWS GROUP LIMITED,www.hwlwindows.co.uk,LS12 2EL,Total Exemption Small,Other plastic
53.77953,-1.78505,GTW ENTERPRISES LTD,,BD7 3DP,Total Exemption Small,Other plastic
53.75735,-0.38868,SUPERCAST LIMITED,www.europacrafts.com,HU5 4HF,Total Exemption Small,Other plastic
54.39718,-1.65627,PIPELINE ENGINEERING & SUPPLY CO. LIMITED,www.pipelineengineering.com,DL10 7JG,Full accounts,Other plastic
53.70709,-1.69956,KAUTEX TEXTRON (UK) LIMITED,www.kautex.com,WF15 6QA,Full accounts,Other plastic
53.80101,-1.55623,RIEVAULX SPORTING LIMITED,,LS3 1AB,Total Exemption Small,"Hunting, trapping, related activities"
53.74181,-0.31787,REVO ENGINEERING LIMITED,,HU9 1QH,Total Exemption Small,Other plastic
53.72067,-0.42647,SYNPAC LIMITED,www.synpac.co.uk,HU13 9PB,Total Exemption Small,Plastic packing goods
54.57888,-1.25559,FLAT FREE TYRES  LIMITED,www.flatfree.co.uk,TS2 1QW,Total Exemption Small,Other plastic
53.78689,-1.5012,EPCO INTERNATIONAL MINING SUPPLIES LIMITED,www.epco-ims.com,LS9 0ST,Total Exemption Small,"Plastic plates, sheets, tubes etc"
53.85275,-1.05152,ELIMENTS LIMITED,www.eliments.co.uk,YO19 6ED,Total Exemption Small,Other plastic
53.60559,-0.42205,I.G. INDUSTRIES PUBLIC LIMITED COMPANY,www.igindustries.co.uk,DN20 0SP,Full accounts,Other plastic
53.95341,-1.07574,GABRIEL-CHEMIE U.K. LIMITED,www.gabriel-chemie.com,YO10 4AH,Small company,Other plastic
53.94745,-1.03269,TECHSTYLE-EUROPE LTD,www.techstyle-europe.co.uk,YO10 5GA,Total Exemption Small,Other plastic
54.52655,-1.2955,HENRY GALLACHER LIMITED,www.henrygallacher.co.uk,TS17 9LN,Total Exemption Small,Other rubber
53.82403,-1.86156,XTEX POLYTHENE LIMITED,www.xtex.co.uk,BD15 0DX,Small company,Other plastic
53.5573,-1.08181,AIRHALF LIMITED,www.pirtek.co.uk,DN3 1QR,Total Exemption Small,Other plastic
53.87941,-1.67018,WKH GROUP LIMITED,www.wkhgroup.co.uk,LS19 7BD,Total Exemption Small,Other plastic
53.78755,-1.742,BCT OUTDOORS LIMITED,www.bctoutdoors.com,BD4 7AQ,Total Exemption Small,Other plastic
54.549208,-1.329319,BRITISH POLYTHENE INDUSTRIES LIMITED,www.bpipoly.com,TS18 3RD,Group,Other plastic
53.75735,-0.38868,RICHARDS OF HULL (1998) LIMITED,www.richards.uk.com,HU5 4HF,Total Exemption Small,Other plastic
53.69978,-1.77065,TOTAL POLYFILM LIMITED,www.totalpolyfilm.com,HD6 1PT,Full accounts,Plastic packing goods
53.83543,-1.76556,KAY DEE ENGINEERING (PLASTICS) LIMITED,www.kaylan.co.uk,BD18 1QF,Total Exemption Small,Other plastic
54.39929,-1.73858,PUNCTURESAFE NORTHERN LIMITED,www.puncturesafe-northern.co.uk,DL10 4RH,Micro-entity accounts,Other rubber
53.98302,-1.14231,ROUNDBRAND LIMITED,www.bifoldaspect.co.uk,YO26 6NA,Full accounts,Other plastic
54.58212,-1.24039,STANLEY VICKERS LIMITED,www.sv-ltd.co.uk,TS2 1LG,Total Exemption Small,"Plastic plates, sheets, tubes etc"
54.66188,-1.44849,KAMA EUROPE LIMITED,www.pactivpackaging.co.uk,TS21 3EE,Full accounts,Plastic packing goods
54.39699,-1.65761,PIPELINE ENGINEERING & SUPPLY CO. LIMITED,www.pipelineengineering.com,DL10 7JQ,Full accounts,Other plastic
53.79438,-1.59642,BARTUF LIMITED,www.bartuf.co.uk,LS12 3AL,Total Exemption Small,Other plastic
54.07592,-1.73702,PLASTIC ENGINEERING TECHNIQUES LIMITED,,HG3 5DY,Total Exemption Small,Other plastic
53.63809,-1.83759,TROJAN PLASTICS LIMITED,www.trojanplastics.co.uk,HD3 4QG,Full accounts,Other plastic
53.7526,-1.87362,PDS PLASTICS LIMITED,www.pdsplastics.co.uk,HX3 6SN,Total Exemption Small,Other plastic
54.23647,-0.75985,MALTON PLASTICS (UK) LIMITED,www.maltonplastics.com,YO18 7NA,Total Exemption Small,Other plastic
53.43167,-1.02189,PO SERVICE & SUPPLIES LTD,,DN10 6TF,Total Exemption Small,Other rubber
54.57526,-1.22755,"SIGNS AND PLASTIC PRODUCTS, LIMITED",www.spp.uk.com,TS1 2AA,Total Exemption Small,Other plastic
53.78475,-1.74441,EXSKAN LIMITED,www.exskan.fsnet.co.uk,BD4 7DL,Total Exemption Small,Other plastic
54.08802,-1.41401,N. MINIKIN & SONS LIMITED,www.minikins.co.uk,YO51 9NS,Total Exemption Small,Other rubber
53.85232,-1.68459,HEYES CONSULTING LIMITED,,LS19 6AX,Total Exemption Small,Other rubber
54.52282,-1.40884,THERMALMATE UK LIMITED,www.thermalmate.co.uk,TS16 0QU,Total Exemption Small,Other plastic
53.68031,-1.57881,CARCLO PLC,www.carclo.co.uk/,WF5 9WS,Group,Other plastic
53.67341,-1.49522,POLYURETHANE PROGRESS LIMITED,www.polyglobal.co.uk,WF1 5QY,Total Exemption Small,Other plastic
53.94571,-2.01691,FIBRELITE COMPOSITES LIMITED,www.petrolplaza.com,BD23 2QR,Full accounts,Other plastic
53.65776,-1.57188,VULCAN CONVEYORS LIMITED,www.vulcanconveyors.co.uk,WF4 5NW,Total Exemption Small,Other rubber
53.91373,-1.18864,A. SCHULMAN THERMOPLASTIC COMPOUNDS LIMITED,www.aschulman.com,YO23 3PN,Full accounts,Plastics in primary forms
53.60342,-0.64933,SKYMARK PACKAGING INTERNATIONAL LIMITED,www.skymark.co.uk,DN15 8XF,Group,Other plastic
53.80392,-1.65863,ACTIONPLAS LIMITED,www.actionplas.co.uk,LS28 6QW,Total Exemption Full,Other plastic
54.30702,-1.81742,BARBER HEALTH CARE LIMITED,www.barberhealthcare.com,DL8 5QA,Total Exemption Small,Other rubber
53.8609,-1.70037,EMKAY ENGINEERING LIMITED,www.emkayengineering.com,LS19 7YT,Total Exemption Small,Other plastic
53.79624,-1.76384,BUTTERFIELD ILLUMINATED SIGNS LIMITED,www.butterfieldsigns.co.uk,BD1 2RZ,Total Exemption Small,Other plastic
53.60665,-0.41879,EPCO LIMITED,www.epco-plastics.com,DN20 0SQ,Total Exemption Small,Other plastic
53.83315,-1.82284,MECANEX LIMITED,www.mpmbradford.co.uk,BD16 1PY,Total Exemption Small,Plastics in primary forms
53.75941,-1.79245,CORAL WINDOWS (BRADFORD) LIMITED,www.coralwindows.co.uk,BD6 2DN,Small company,Other plastic
53.74724,-0.25158,STRAIGHT LIMITED,www.straight.co.uk,HU9 5PE,Full accounts,Other plastic
53.83621,-1.78036,ROLAND INTERNATIONAL LTD,www.roland.eu,BD17 7DB,Full accounts,Other plastic
53.72976,-0.37344,LINERTECH LIMITED,www.interbulkgroup.com,HU3 4AE,,Plastic packing goods
53.99223,-0.91878,ROSTI AUTOMOTIVE STAMFORD BRIDGE LTD.,,YO41 1AL,Not Available,Other plastic
53.99223,-0.91878,ROSTI AUTOMOTIVE PICKERING LTD.,,YO41 1AL,Not Available,Other plastic
53.7809,-1.60562,SPECIALIST HOSE SUPPLIES LIMITED,www.hosessuppliersyorkshire.co.uk,LS12 5XE,Total Exemption Small,Other plastic
54.5288,-1.54966,BOND-A-BAND (TRANSMISSIONS) LIMITED,www.bondaband.com,DL1 1GY,Total Exemption Small,Plastics in primary forms
53.78315,-1.52587,LEEDS VACUUM FORMERS LIMITED,www.leedsvacform.com,LS10 1TD,Total Exemption Small,Plastic packing goods
53.69269,-1.83393,TECHNETICS GROUP UK LIMITED,www.techneticsgroup.com,HX5 9HF,Full accounts,Other rubber
53.70126,-1.61709,TOPPSTOPPA LTD,,WF12 7PE,Total Exemption Small,Other plastic
53.77489,-0.33894,PLASTICON UK LIMITED,www.plasticoneurope.com,HU7 0XW,Full accounts,Other plastic
54.528363,-1.516858,RUGBY PLASTICS LIMITED,www.rugbyplastics.com,DL1 1YU,Total Exemption Small,Other plastic
53.97548,-1.56692,BOND-A-BAND (TRANSMISSIONS) LIMITED,www.bondaband.com,HG3 1GY,Total Exemption Small,Plastics in primary forms
53.6722,-1.49496,GREEN PEAS PACKAGING SOLUTIONS LIMITED,,WF1 5RG,Total Exemption Small,Plastic packing goods
54.5103,-1.31837,TAPEMATE LIMITED,,TS17 0FB,Not Available,Other plastic
53.55694,-0.49788,ROCAL EXTRUSIONS LIMITED,www.rocal.co.uk,DN20 8AR,Small company,Other plastic
53.67784,-1.62654,CONNECTOMATIC LIMITED,www.connectomatic.co.uk,WF12 9BG,Micro-entity accounts,Other plastic
53.7839,-1.78963,CREST TYRE COMPANY LIMITED,www.cresttyrecompanyltd.co.uk,BD7 2LF,Total Exemption Small,"Rubber tyres, tubes, retreading"
53.7103,-1.38226,ITW LIMITED,www.itwcp.co.uk,WF10 5QU,Full accounts,Other plastic
53.56486,-1.18883,J.W.T GROUNDS MAINTENANCE & CONSERVATION LTD,,DN6 7JZ,Not Available,"Hunting, trapping, related activities"
53.94571,-2.01691,DICKINSON PHILIPS LTD,www.dickinsonphilips.com,BD23 2QR,Total Exemption Small,Other plastic
53.60861,-0.2144,THE KYMBO COMPANY LTD,www.kymbomobilityservices.co.uk,DN40 1RD,Total Exemption Small,Other plastic
53.76898,-0.33338,INO-PLAZ LIMITED,www.ino-plaz.co.uk,HU6 7QD,Total Exemption Small,Other plastic
53.49544,-1.18206,POLYPIPE LIMITED,www.polypipe.com,DN4 9LS,Full accounts,Plastics in primary forms
53.924,-0.27843,PROTOMOULD PLASTICS LIMITED,www.plastech.co.uk,YO25 8EJ,Total Exemption Small,Other plastic
53.87767,-1.90035,PFF PACKAGING LIMITED,www.pff.uk.com,BD21 4DG,Full accounts,Plastic packing goods
53.87613,-1.89614,OAKLEAF REPRODUCTIONS LIMITED,www.oakleaf.co.uk,BD21 4BZ,Total Exemption Small,Other plastic
53.60658,-0.66252,ULTIMATE PACKAGING LIMITED,www.ultimate-packaging.co.uk,DN15 8QJ,Full accounts,Plastic packing goods
54.13274,-1.51067,QPS PLASTICS LIMITED,www.poopscoop.biz,HG4 1NL,Total Exemption Small,Other plastic
53.83279,-1.45757,CONCEPT DATA DISPLAY LIMITED,www.concept-data.com,LS14 2LA,Group,Other plastic
53.77428,-1.52243,PLASTNIR UK LIMITED,www.plastnir.com,LS10 2RU,Total Exemption Small,Plastic packing goods
53.69407,-1.70927,EUROBUNG LIMITED,www.eurobung.co.uk,WF14 0DG,Total Exemption Small,Plastic packing goods
53.84521,-1.63265,ZENITH PLASTIC DEVELOPMENTS LIMITED,www.zenithplastics.co.uk,LS18 5AZ,Total Exemption Small,Other plastic
53.69407,-1.70927,WYKE PLASTICS LIMITED,,WF14 0DG,Total Exemption Small,Plastic packing goods
53.71454,-1.52474,PLASTIFLEX (UK) LIMITED,www.plastiflex.com,WF2 0XW,Small company,Other plastic
53.70223,-0.88687,SHERWOOD PLASTIC PRODUCTS LIMITED,www.sherwoodplastic.co.uk,DN14 6TA,Total Exemption Small,Other plastic
53.70742,-1.2561,ACUMEN RECYCLING SERVICES LIMITED,,WF11 0LA,Full accounts,Other rubber
54.23685,-0.41408,OSPREY LIMITED,www.osprey-plastics.co.uk,YO11 3UT,Full accounts,Other plastic
53.820027,-0.624796,SUREFILL VALVE SYSTEMS LIMITED,,YO43 4SP,Total Exemption Small,Plastic packing goods
53.73617,-1.78353,TATRA ROTALAC LIMITED,www.tatra.co.uk,HX3 8QD,Full accounts,Other plastic
53.75603,-0.3808,GABLECRAFT LIMITED,www.gablecraft.com,HU5 4JF,Total Exemption Small,Other plastic
53.55851,-1.07778,DIRECT TRADE (YORKSHIRE) LIMITED,www.directtradeltd.co.uk,DN3 1QL,Medium Company,Other plastic
53.72546,-1.65864,UNITED PLASTICS LIMITED,www.united-plastics.co.uk,WF17 8AX,Total Exemption Small,Other plastic
53.89873,-1.97262,ECOEASE LTD,,BD20 8UY,Total Exemption Small,Other plastic
53.83621,-1.76481,GDM INDUSTRIES LIMITED,,BD18 1QG,Not Available,Plastic packing goods
53.78689,-1.5012,EPCO LIMITED,www.epco-plastics.com,LS9 0ST,Total Exemption Small,Other plastic
53.56086,-0.03089,IRBY SPORTING SOCIETY LIMITED,,DN35 8JN,Not Available,"Hunting, trapping, related activities"
53.99966,-1.02887,R L T (DESIGN) LIMITED,www.partyloo.co.uk,YO32 9SU,Total Exemption Small,Other plastic
53.74724,-0.25158,STRAIGHT MANUFACTURING LIMITED,www.straight.co.uk,HU9 5PE,Full accounts,Other plastic
53.73692,-0.34998,HEYDAY INDUSTRIAL LTD.,www.apolloplasticshull.co.uk,HU3 2DH,Total Exemption Small,Other plastic
53.87767,-1.90035,INTELLIGENT PACKAGING SOLUTIONS LIMITED,,BD21 4DG,Full accounts,Plastic packing goods
54.56041,-1.34698,CLEVELAND PROMOTIONS LIMITED,www.pro-heat-ne.co.uk,TS18 5AQ,Total Exemption Small,Other plastic
54.53453,-1.25972,FEROX ENGINEERING SOLUTIONS LTD.,,TS5 8TD,Not Available,Other plastic
53.63339,-1.79169,LOCKWOOD WINDOWS COLOURED FRAMES LIMITED,www.lockwoodwindow.co.uk,HD4 6BW,Total Exemption Small,Other plastic
53.55694,-0.49788,ROCAL FOILING LIMITED,www.rocal.co.uk,DN20 8AR,Small company,Other plastic
53.64094,-1.26881,B&BMH LTD,,WF8 3EH,Total Exemption Small,"Hunting, trapping, related activities"
53.73519,-1.71837,SEALEX LIMITED,www.flexitallic.eu,BD19 4LN,Full accounts,"Plastic plates, sheets, tubes etc"
54.59557,-1.02777,ANSON PACKAGING LIMITED,www.ansonpackaging.com,TS11 6AW,Full accounts,Other plastic
53.7363,-1.60798,VACU-LUG TRACTION TYRES LIMITED,www.tyre-equipment.co.uk,LS27 0AZ,Full accounts,"Rubber tyres, tubes, retreading"
53.72954,-1.71893,ULTIMATE WINDOWS (YORKSHIRE) LIMITED,,BD19 3TF,Total Exemption Small,Other plastic
53.78374,-1.52729,FIBERGLASS SUPPLIES (LEEDS) LIMITED,www.fiberglasssupplies.co.uk,LS10 1QP,Total Exemption Small,Other plastic
53.58667,-0.13097,ULTIMATE PACKAGING LIMITED,www.ultimate-packaging.co.uk,DN37 9TS,Full accounts,Plastic packing goods
54.06004,-0.258079,MILLER GRAPHICS (U.K.) LIMITED,www.millergraphics.com,YO15 3QY,Small company,Other rubber
53.87613,-1.89614,ARVENSIS PACKAGING FILMS LIMITED,www.arvensis.uk.com,BD21 4BZ,Full accounts,"Plastic plates, sheets, tubes etc"
54.681896,-1.210652,DEEPDALE SOLAR LTD,www.deepdalesolutions.co.uk,TS25 5TB,Total Exemption Small,Other plastic
54.27069,-0.45776,APOLLO PLASTIC SYSTEMS LIMITED,www.apollocovers.co.uk,YO12 5TG,Total Exemption Small,Other plastic
53.48573,-1.22308,VARITECH TOOLS LIMITED,www.varitechtools.co.uk,DN12 3EE,Total Exemption Small,Other plastic
54.56943,-1.30435,R T WINDOWS LIMITED,,TS18 2LS,Total Exemption Small,Other plastic
53.67741,-1.6217,THERMOVAC PLASTICS (UK) LTD,www.thermovacplastics.co.uk,WF12 9BS,Total Exemption Small,Plastics in primary forms
53.74915,-1.62719,BELGRADE INSULATIONS LIMITED,www.belgrade-polymer.com,LS27 7JZ,Medium Company,Other plastic
53.73068,-0.36842,G F G PLASTIC FABRICATIONS LIMITED,,HU3 4HH,Total Exemption Small,"Plastic plates, sheets, tubes etc"
