latitude,longitude,name,url,postcode,Registered_accounts_type,subactivity
54.46137,-1.17888,PETCH WATERS LIMITED,www.petchwaters.co.uk,TS9 5QT,Total Exemption Small,Non-hazardous waste collection
53.78199,-1.34035,CAIRD PECKFIELD LIMITED,www.cairdpeckfield.com,LS25 4DW,Full accounts,"Non-hazardous treatment, disposal"
53.56674,-0.08115,SJP SKIP HIRE LIMITED,,DN31 1NX,Total Exemption Small,Non-hazardous waste collection
53.6026,-1.79786,HONLEY ENVIRONMENTAL SERVICES LIMITED,,HD9 6JP,Total Exemption Small,Hazardous waste collection
53.98622,-1.10025,UNIT 2 MANAGEMENT LIMITED,www.u2myork.co.uk,YO30 4XG,Total Exemption Small,"Hazardous treatment, disposal"
53.53044,-1.12829,SUEZ RECYCLING AND RECOVERY UK LTD,www.sita.co.uk,DN1 2SG,Full accounts,Non-hazardous waste collection
53.85417,-1.53051,T. O`SHEA LIMITED,,LS17 8DR,Total Exemption Small,Non-hazardous waste collection
53.71224,-1.38208,DIAMOND & BRIGHT LTD,,WF10 5PQ,Not Available,"Non-hazardous treatment, disposal"
54.52035,-1.3973,THE GRAB MAN LTD,,TS16 0QH,Total Exemption Small,Non-hazardous waste collection
53.75535,-0.33395,CLEANTANK (HULL) LIMITED,,HU2 0PU,Not Available,"Non-hazardous treatment, disposal"
53.78269,-1.57155,INNOVATIVE WATER MANAGEMENT LIMITED,www.iwmlimited.co.uk,LS11 0DS,Not Available,Non-hazardous waste collection
53.59016,-1.69952,3E SERVICING AND MAINTENANCE LIMITED,,HD8 8BJ,Total Exemption Small,"Non-hazardous treatment, disposal"
54.23788,-0.41197,RB RECYCLING SCARBOROUGH LIMITED,,YO11 3UZ,Total Exemption Small,Hazardous waste collection
54.27366,-1.35756,TWC FACILITIES LTD,www.twc-group.com,YO7 4DY,Total Exemption Small,Non-hazardous waste collection
53.91645,-1.31437,ASB ENVIRONMENTAL LIMITED,www.asbenvironmental.co.uk,LS23 7BF,Full accounts,"Hazardous treatment, disposal"
53.67812,-1.91472,P. CASEY ENVIRO LIMITED,www.casey.co.uk,HX4 0AJ,Medium Company,"Non-hazardous treatment, disposal"
53.7837,-1.51347,LSS WASTE MANAGEMENT LIMITED,www.lsswaste.co.uk,LS9 0PF,Medium Company,Non-hazardous waste collection
53.79744,-1.55144,GREAT GREEN SYSTEMS LIMITED,www.greatgreensystems.com,LS1 2RY,Total Exemption Small,"Non-hazardous treatment, disposal"
53.74926,-1.60222,MLAS COLLECTIONS LTD,,LS27 9DQ,Micro-entity accounts,Non-hazardous waste collection
54.5741,-1.18573,BIFFA WASTE SERVICES LIMITED,www.r3mc.co.uk,TS6 6JA,Full accounts,Non-hazardous waste collection
53.6607,-1.57618,T.C. TEXTILES LIMITED,www.icwukltd.co.uk,WF4 5HX,Total Exemption Small,Non-hazardous waste collection
53.76916,-0.32942,LWOL LIMITED,,HU7 0BH,Total Exemption Small,Hazardous waste collection
53.76275,-0.616,GELDOF RECYCLING LTD,,HU15 2HG,Total Exemption Small,"Non-hazardous treatment, disposal"
53.69679,-0.42673,THE KNOTTED NOTE LIMITED,www.carltoneducation.org.uk,DN18 5RD,Total Exemption Full,Non-hazardous waste collection
53.78354,-0.40718,SANDSTOP QUARRIES LTD,,HU16 4LL,Total Exemption Small,"Non-hazardous treatment, disposal"
54.52967,-1.57729,COMPASS ENVIRONMENTAL SERVICES LIMITED,,DL3 9NF,Micro-entity accounts,Non-hazardous waste collection
53.65532,-1.77789,SUEZ RECYCLING AND RECOVERY KIRKLEES LTD,www.suez.com,HD1 6BZ,Full accounts,Non-hazardous waste collection
53.76383,-0.32401,THE DRAIN COMPANY (HULL) LIMITED,www.thedraincompany.co.uk,HU8 8HL,Total Exemption Small,Non-hazardous waste collection
54.06544,-1.09227,HPL ENVIRONMENTAL LTD,,YO61 1EY,Not Available,"Non-hazardous treatment, disposal"
53.52805,-0.88761,TAYLOR & SON AUTOMOTIVE COMPONENTS LTD,,DN9 1EF,Not Available,Non-hazardous waste collection
53.98247,-0.506569,TOTAL ENVIRONMENTAL TECHNOLOGY LIMITED,www.totalenvironmental.co.uk,YO25 9DU,Total Exemption Small,Non-hazardous waste collection
53.79438,-1.59642,OATES ENVIRONMENTAL LIMITED,www.oatesenvironmental.co.uk,LS12 3AL,Total Exemption Small,Hazardous waste collection
53.49487,-1.13743,SIMPLAS WASTE MANAGEMENT LTD,,DN4 8GD,Total Exemption Small,Non-hazardous waste collection
54.55618,-1.30802,SORTOLOGY LIMITED,,TS17 6SB,Total Exemption Small,Non-hazardous waste collection
53.43167,-1.02189,OVERLAND INTERNATIONAL ENERGY COMPANY LTD,,DN10 6TF,Not Available,Non-hazardous waste collection
54.46862,-0.62815,WILF NOBLE RECYCLING LTD,,YO22 5HL,Not Available,Non-hazardous waste collection
53.784309,-1.742442,ASSOCIATED WASTE MANAGEMENT LIMITED,www.awm.uk.com,BD4 7DY,Full accounts,Non-hazardous waste collection
53.96046,-1.10282,AUTOHORN ENVIRONMENTAL LIMITED,,YO26 4XD,Full accounts,Non-hazardous waste collection
53.70299,-1.24659,K.M.R. WASTE MANAGEMENT LIMITED,www.kmrskiphire.co.uk,WF11 0JP,Total Exemption Small,Non-hazardous waste collection
53.73636,-1.52388,STAN ELLIS WASTE PAPER COLLECTIONS LIMITED,,WF3 3BX,Total Exemption Small,Non-hazardous waste collection
53.64954,-1.49699,DRY CLEANING WORLD LTD,,WF2 7JE,Total Exemption Small,"Non-hazardous treatment, disposal"
53.77268,-1.79207,ARM GRAB HIRE LTD,,BD7 4LB,Total Exemption Small,Non-hazardous waste collection
53.86776,-1.94811,WASTE MANAGER LTD,,BD22 0PT,Total Exemption Small,Hazardous waste collection
53.78947,-1.54993,NUCO OIL LIMITED,,LS11 9BU,Not Available,Non-hazardous waste collection
54.53376,-1.53528,H & R WARD LIMITED,,DL1 2LD,Total Exemption Small,Non-hazardous waste collection
53.91645,-1.31437,AUGEAN NORTH LIMITED,WWW.AUGEANPLC.COM,LS23 7BF,Full accounts,Non-hazardous waste collection
53.5968,-0.64153,THOMPSON WASTE RECYCLING LTD,,DN15 0DH,Not Available,Non-hazardous waste collection
53.74323,-1.66068,FOX HALL ENVIRONMENTAL SERVICES LTD,www.foxhall-ltd.co.uk,WF17 9BW,Total Exemption Small,"Hazardous treatment, disposal"
54.17039,-0.63057,KNAPTON QUARRY LIMITED,,YO17 8JA,Not Available,"Non-hazardous treatment, disposal"
53.67564,-1.74583,KWIKCLEAR (PVT) LIMITED,,HD2 1TN,Not Available,Non-hazardous waste collection
53.65511,-1.54056,RGN (TEXTILES) LIMITED,www.rgntextiles.com,WF4 5ER,Total Exemption Small,Non-hazardous waste collection
53.8585,-1.50706,RIPON RECYCLING (HESSAY) LIMITED,,LS17 8SH,Not Available,Non-hazardous waste collection
54.24406,-1.49223,ALAN OXTOBY LIMITED,,YO7 4JY,Total Exemption Small,Non-hazardous waste collection
53.88497,-1.73512,LICENSED TYRE DISPOSALS LIMITED,,LS29 6QL,Total Exemption Small,Non-hazardous waste collection
53.69772,-1.7677,BIFFA WASTE SERVICES LIMITED,www.r3mc.co.uk,HD6 1PZ,Full accounts,Non-hazardous waste collection
53.80011,-1.78203,STS METAL RECYCLING LIMITED,,BD8 9ER,Total Exemption Small,Non-hazardous waste collection
53.77113,-1.42127,YORKSHIRE WASTE RECYCLING LIMITED,,LS26 8QR,Total Exemption Small,Non-hazardous waste collection
53.54908,-0.49775,T W S FACIAS LIMITED,,DN20 8NA,Total Exemption Small,Non-hazardous waste collection
54.61012,-1.26081,BIOCHEMICA AIR LIMITED,,TS23 4JD,Not Available,"Non-hazardous treatment, disposal"
53.78372,-1.7455,UK WASTE MANAGEMENT LIMITED,www.scottishslimmers.com,BD4 7EZ,Full accounts,Non-hazardous waste collection
53.70195,-1.9203,CALDER VALLEY SKIP HIRE LIMITED,www.caldervalleyskiphire.co.uk,HX6 3LL,Total Exemption Small,Non-hazardous waste collection
53.58296,-1.1813,D KELBIE MACHINERY SALES LIMITED,,DN6 8DP,Total Exemption Small,Non-hazardous waste collection
53.75762,-1.75293,MAGNA SKIP HIRE LIMITED,,BD12 0QD,Total Exemption Small,Non-hazardous waste collection
53.67576,-1.84836,P. CASEY ENVIRO LIMITED,www.casey.co.uk,HX5 0TD,Medium Company,"Non-hazardous treatment, disposal"
53.96046,-1.10282,110 LONGFELLOW LTD,,YO26 4XD,Not Available,Non-hazardous waste collection
53.82116,-0.77351,ALLENSWAY RECYCLING LIMITED,www.allensway.co.uk,YO43 4BT,Micro-entity accounts,Non-hazardous waste collection
53.76518,-1.60946,ASSOCIATED WASTE MANAGEMENT LIMITED,www.awm.uk.com,LS27 7NA,Full accounts,Non-hazardous waste collection
53.67789,-1.08028,GASKIN WASTE RECYCLING LIMITED,,DN14 0BA,Not Available,Non-hazardous waste collection
53.71863,-1.87302,SUMMERHOUSE INC LTD,,HX1 1EB,Not Available,Non-hazardous waste collection
53.92982,-0.77991,MATTS METALS LTD,,YO42 2QR,Total Exemption Small,Non-hazardous waste collection
53.93408,-0.76746,ETTRICKHALL LIMITED,,YO42 2NA,Total Exemption Small,"Non-hazardous treatment, disposal"
53.80171,-1.53792,YORK RECYCLING SERVICE LTD,,LS2 7PN,Not Available,Non-hazardous waste collection
54.06004,-0.258079,BURLINGTON HEALTHCARE SUPPLIES LIMITED,www.clinicare.org.uk,YO15 3QY,Total Exemption Small,"Non-hazardous treatment, disposal"
53.68772,-1.63787,BLACKBURNS WASTE DISPOSAL LIMITED,www.cjblackburn.co.uk,WF12 9QB,Total Exemption Small,Non-hazardous waste collection
53.7861,-1.5904,M&N OILS LIMITED,,LS12 4SD,Not Available,Non-hazardous waste collection
54.64897,-1.23361,YORK WASTE CENTRE LTD,,TS25 5TG,Total Exemption Small,Non-hazardous waste collection
53.78595,-1.74396,WASTE TYRE TRADERS LIMITED,,BD4 7DE,Not Available,Hazardous waste collection
53.79604,-1.65559,MR WASTE (LEEDS) LTD,,LS28 9BG,Not Available,Non-hazardous waste collection
53.73614,-0.34089,HAWK ENVIRONMENTAL SERVICES LTD,,HU1 2DS,Not Available,Non-hazardous waste collection
54.5222,-1.55534,SPENCER INDUSTRIAL (NORTH WALES) LIMITED,www.spencerindustrial.co.uk,DL1 5SF,Total Exemption Small,Non-hazardous waste collection
53.75278,-0.33353,SAM ALLON (CONTRACTS) LIMITED,www.samallon.co.uk,HU2 0PE,Total Exemption Small,Non-hazardous waste collection
53.81601,-0.54477,WESTWOOD RECYCLING LIMITED,,HU17 8TA,Total Exemption Small,Non-hazardous waste collection
53.63689,-0.62931,BIFFA WASTE SERVICES LIMITED,www.r3mc.co.uk,DN15 0BD,Full accounts,Non-hazardous waste collection
54.32042,-1.48154,WARD RECYCLING LIMITED,www.palmrecycling.co.uk,DL7 9JX,Full accounts,Non-hazardous waste collection
53.73842,-0.33425,TARREC LIMITED,,HU1 1XE,Not Available,"Non-hazardous treatment, disposal"
54.59099,-1.56069,STONEGRAVE AGGREGATES LIMITED,www.johnwadeaggregates.co.uk,DL5 6NB,Full accounts,"Non-hazardous treatment, disposal"
53.7694,-1.58328,EGISTA SERVICES LTD,,LS11 0JN,Total Exemption Small,"Non-hazardous treatment, disposal"
54.06996,-2.2919,MARINE OIL RECYCLING LTD,,BD24 0BY,Not Available,"Hazardous treatment, disposal"
53.79514,-1.76906,AASKIPS LIMITED,,BD7 1JB,Total Exemption Small,Non-hazardous waste collection
54.53379,-1.26564,TEESSIDE UTILITIES LIMITED,,TS5 8UF,Total Exemption Small,Non-hazardous waste collection
53.52494,-0.78239,BIFFA WASTE SERVICES LIMITED,www.r3mc.co.uk,DN9 1JA,Full accounts,Non-hazardous waste collection
54.2367,-1.31242,TWC FACILITIES LTD,www.twc-group.com,YO7 2ED,Total Exemption Small,Non-hazardous waste collection
53.79983,-1.7155,E-SAFE RECYCLING LIMITED,,BD3 8JX,Total Exemption Small,"Hazardous treatment, disposal"
54.08376,-0.193,A BRUNTON LIMITED,,YO15 2AE,Total Exemption Small,Non-hazardous waste collection
54.46046,-1.70462,INDIGO WORKPLACE SERVICES LIMITED,www.indigo-fm.co.uk,DL10 5NY,Total Exemption Small,Non-hazardous waste collection
54.60101,-1.06688,1ST CHOICE SKIP HIRE LIMITED,www.1stchoiceskips.com,TS10 4LY,Total Exemption Small,"Non-hazardous treatment, disposal"
53.734,-1.66332,RECYCLE8 LIMITED,,WF17 9HW,Total Exemption Small,Non-hazardous waste collection
53.5644,-1.07982,KAYSER (UK) LIMITED,www.kayserbuildingsupplies.co.uk,DN3 1FB,Total Exemption Small,Non-hazardous waste collection
54.61765,-1.10075,1ST CHOICE SKIP HIRE LIMITED,www.1stchoiceskips.com,TS10 5AU,Total Exemption Small,"Non-hazardous treatment, disposal"
53.56196,-1.07899,KAYSER (UK) LIMITED,www.kayserbuildingsupplies.co.uk,DN3 1LL,Total Exemption Small,Non-hazardous waste collection
53.64133,-1.72903,ADDY ENGINEERING SERVICES LTD,,HD5 8SX,Total Exemption Small,"Non-hazardous treatment, disposal"
53.87411,-1.7258,FORTITUDE ENVIRONMENTAL LIMITED,www.fortitudeenvironmental.com,LS20 8JU,Total Exemption Small,"Hazardous treatment, disposal"
53.7932,-1.58914,APAL WASTE LIMITED,www.apalwaste.co.uk,LS12 1QJ,Micro-entity accounts,Non-hazardous waste collection
53.75743,-1.75588,ND COLLECTION LTD,,BD12 0PY,Not Available,Non-hazardous waste collection
53.74145,-1.62881,BIFFA WASTE SERVICES LIMITED,www.r3mc.co.uk,LS27 0LS,Full accounts,Non-hazardous waste collection
53.74633,-1.76549,BUSY BEES COLLECTIONS LIMITED,,BD12 8PR,Total Exemption Small,Non-hazardous waste collection
53.76355,-0.72954,CITY PLANT LIMITED,,HU15 2QG,Small company,"Non-hazardous treatment, disposal"
53.75406,-1.39407,BIFFA WASTE SERVICES LIMITED,www.r3mc.co.uk,LS26 8AL,Full accounts,Non-hazardous waste collection
53.7802,-1.74723,ON THE DOT LIMITED,www.onthedotskips.co.uk,BD4 7EX,Total Exemption Small,Non-hazardous waste collection
54.65048,-1.19649,CAISTOR LOGISTICS LIMITED,,TS25 2BE,Total Exemption Small,Non-hazardous waste collection
53.49276,-1.01955,GOODWINS TYRE DISPOSAL LTD,,DN9 3ET,Total Exemption Small,Hazardous waste collection
53.77876,-0.85762,C6 FUEL TESTING LIMITED,,DN14 7NG,Not Available,"Non-hazardous treatment, disposal"
53.62122,-1.17636,A.W. SWEEPER HIRE LIMITED,,DN6 9LF,Not Available,Non-hazardous waste collection
53.7574,-1.2342,VALIANT WASTE MANAGEMENT LIMITED,,LS25 5ED,Not Available,Non-hazardous waste collection
53.58048,-0.10266,BIFFA WASTE SERVICES LIMITED,www.r3mc.co.uk,DN31 2SJ,Full accounts,Non-hazardous waste collection
53.77279,-1.74139,GLOBAL RECYCLING TRADERS (UK) LTD,,BD5 8QU,Not Available,Non-hazardous waste collection
53.79012,-0.81341,ASHTON'S COMPOSTING LIMITED,,DN14 7ND,Total Exemption Small,"Non-hazardous treatment, disposal"
53.80974,-1.64473,ASKIP4ULEEDS LTD,,LS13 3DR,Not Available,Non-hazardous waste collection
54.08567,-2.27537,FAIRHURST CONCRETE LIMITED,,BD24 9NP,Total Exemption Small,"Hazardous treatment, disposal"
53.61983,-0.20677,S.A.R. METALS LIMITED,www.sar-metals.com,DN40 2LF,,Non-hazardous waste collection
53.80376,-1.54469,WILLIAM MARTIN FIREFLY LTD,www.fireflyrisksolutions.co.uk,LS2 8AJ,Total Exemption Small,Non-hazardous waste collection
53.61212,-1.64491,HYGIENE SERVICES (YORKSHIRE) LIMITED,www.hygieneservices.uk.com,HD8 9QY,Total Exemption Small,"Non-hazardous treatment, disposal"
53.86411,-1.70637,AIREBOROUGH SKIP HIRE LIMITED,www.aireboroughskiphire.co.uk,LS19 7JE,Total Exemption Small,Non-hazardous waste collection
53.90265,-0.2844,SANDSFIELD GRAVEL COMPANY LIMITED,www.sandsfield.co.uk,YO25 8SB,Total Exemption Small,"Non-hazardous treatment, disposal"
54.59235,-1.62618,EDGAR F SHEPHERD LTD,,DL2 2TU,Total Exemption Small,"Non-hazardous treatment, disposal"
53.77922,-1.58993,UPTOWN BIODIESEL LIMITED,www.uptownoil.co.uk,LS12 6AJ,Total Exemption Small,Non-hazardous waste collection
53.7905,-1.39649,AKM RECYCLING LIMITED,,LS25 1BP,Not Available,Non-hazardous waste collection
54.56159,-1.24282,GEE DEE CLEANSING LIMITED,,TS5 6HH,Total Exemption Small,"Non-hazardous treatment, disposal"
53.59133,-1.30712,REUSE GLASS UK LIMITED,www.berrymans.co.uk,WF9 3NR,Group,"Non-hazardous treatment, disposal"
53.73328,-0.5454,AGRIPLASS LIMITED,www.agriplass.co.uk,HU15 1PG,Micro-entity accounts,Non-hazardous waste collection
53.73781,-0.33792,VAN WERVEN UK LIMITED,,HU1 2BN,Small company,Non-hazardous waste collection
53.75209,-0.3228,PROFESSIONAL WASHROOM SERVICES (NORTHERN) LIMITED,www.professionalwashroomservices.com,HU8 7FB,Total Exemption Small,Non-hazardous waste collection
53.7696,-0.87406,COUNTRYSIDE RECYCLING LIMITED,,DN14 7LA,Total Exemption Small,"Non-hazardous treatment, disposal"
53.67781,-1.83918,WEST YORKSHIRE PLANT HIRE LIMITED,www.wysh.co.uk,HX5 0PA,Total Exemption Small,Non-hazardous waste collection
53.79864,-1.42813,SILLARS (TMWD) LIMITED,,LS15 8GB,Micro-entity accounts,Non-hazardous waste collection
53.65511,-1.54056,T.C. TEXTILES LIMITED,www.icwukltd.co.uk,WF4 5ER,Total Exemption Small,Non-hazardous waste collection
54.68542,-1.20767,A1 MUCKAWAY LIMITED,,TS24 7DA,Total Exemption Small,Non-hazardous waste collection
53.72625,-1.53575,SPECIALISED WASTE SOLUTIONS LTD,,WF3 2DD,Total Exemption Small,Non-hazardous waste collection
53.98869,-1.53604,THE WASTE TEAM LIMITED,www.thewasteteam.co.uk,HG1 1EP,Total Exemption Full,Non-hazardous waste collection
53.73403,-0.3811,PETROTECH SERVICES LIMITED,www.petrotechservices.co.uk,HU3 5JL,Total Exemption Small,Hazardous waste collection
53.81321,-1.52381,ALHAYEE METALS LIMITED,,LS8 5EZ,Total Exemption Small,Non-hazardous waste collection
53.96534,-1.30647,BIFFA WASTE SERVICES LIMITED,www.r3mc.co.uk,YO26 7QF,Full accounts,Non-hazardous waste collection
53.80572,-1.48009,ANDIDRAIN LIMITED,www.andidrain.co.uk,LS14 6FD,Total Exemption Small,"Non-hazardous treatment, disposal"
53.77397,-1.57823,BIFFA WASTE SERVICES LIMITED,www.r3mc.co.uk,LS11 8BA,Full accounts,Non-hazardous waste collection
53.65765,-1.77034,MYERS SKIP HIRE LTD,www.myersgroup.co.uk,HD1 6PB,Small company,Non-hazardous waste collection
54.00413,-0.43998,SAFE SHALE LIMITED,,YO25 6RA,Not Available,"Non-hazardous treatment, disposal"
53.7534,-0.33461,SWIFT SKIPS (HULL) LIMITED,www.swiftskips.co.uk,HU2 0PH,Total Exemption Small,Non-hazardous waste collection
53.64572,-1.90867,COLNE VALLEY METALS & SKIP HIRE LIMITED,www.colnevalleyskiphire.co.uk,HD3 3FR,Total Exemption Small,Non-hazardous waste collection
53.79884,-1.54829,KKL MANAGEMENT,,LS1 5QS,Not Available,"Non-hazardous treatment, disposal"
53.57134,-0.05512,ORANGE METALS LIMITED,,DN35 7AQ,Not Available,"Non-hazardous treatment, disposal"
53.6044,-1.06674,LODGE RESOURCE MANAGEMENT LIMITED,,DN7 5SS,Total Exemption Small,Non-hazardous waste collection
53.7802,-1.74723,NEW STRATTON ENERGIES LIMITED,,BD4 7EX,Not Available,Non-hazardous waste collection
53.81329,-1.95382,ALLAN BURNS LIMITED,,BD22 9LE,Total Exemption Small,Non-hazardous waste collection
53.63685,-1.87148,CHEAP AS SKIPS LIMITED,,HD7 4JT,Not Available,Non-hazardous waste collection
53.74186,-1.59774,Y-RECYCLE LTD,,LS27 9AL,Total Exemption Small,"Non-hazardous treatment, disposal"
53.9564,-2.03709,GREENS OF SKIPTON LIMITED,www.greensofskipton.co.uk,BD23 1TX,Total Exemption Small,"Non-hazardous treatment, disposal"
53.99123,-0.49954,GWE BIOGAS LTD,www.gwebiogas.co.uk,YO25 9DR,Total Exemption Small,"Non-hazardous treatment, disposal"
53.83158,-1.05936,GREENSMAN LIMITED,www.greensmanltd.co.uk,YO19 6PT,Total Exemption Small,Hazardous waste collection
54.58134,-1.23983,DCE RECYCLE IT LTD,,TS2 1LP,Total Exemption Small,Non-hazardous waste collection
53.74337,-1.28505,INGS ENVIRONMENTAL LIMITED,www.ingsenvironmental.co.uk,WF11 9JA,Total Exemption Small,Non-hazardous waste collection
53.90317,-1.70643,LILI WASTE SERVICES LTD,,LS21 3JP,Total Exemption Small,Non-hazardous waste collection
53.76332,-0.33114,GREENLINE RECYCLING SOLUTIONS LIMITED,www.mytumwaste.com,HU8 8DN,Total Exemption Small,"Non-hazardous treatment, disposal"
54.53639,-1.53344,C HERRIOTT AND SONS SKIP HIRE NORTH EAST LTD,,DL1 2LE,Not Available,Non-hazardous waste collection
53.74643,-1.86407,ACE RECYCLE LIMITED,,HX3 6UF,Total Exemption Small,"Non-hazardous treatment, disposal"
54.11479,-1.1812,WHITKIRK WASTE SOLUTIONS LIMITED,www.whitkirkwaste.co.uk,YO61 3ET,Total Exemption Small,"Non-hazardous treatment, disposal"
53.85314,-1.53175,TSK ENGINEERS UK LTD,,LS17 8DT,Not Available,"Non-hazardous treatment, disposal"
53.70908,-1.22542,TRADEBE SOLVENT RECYCLING LIMITED,www.tradebe.com,WF11 8DZ,Full accounts,"Hazardous treatment, disposal"
53.80804,-1.53946,ASE GENERAL CLEANING LTD COMPANY LIMITED,,LS7 1SH,Not Available,Non-hazardous waste collection
53.81241,-1.58826,NEW AGE PLUMBING & HEATING SOLUTIONS LTD,,LS4 2SP,Not Available,"Hazardous treatment, disposal"
53.74238,-1.88554,CREST HYGIENE SERVICES LIMITED,www.cresthygieneservices.co.uk,HX2 8DB,Total Exemption Small,Non-hazardous waste collection
53.943023,-1.10478,KIER INTEGRATED SERVICES LIMITED,www.maygurney.co.uk,YO24 1GS,Full accounts,Non-hazardous waste collection
53.68967,-1.69585,A.M.B ENVIRONMENTAL SERVICES LTD,www.ambenvironmental.co.uk,WF14 0NF,Total Exemption Small,Non-hazardous waste collection
53.94468,-2.045519,ATTERO LTD,www.medicalwastecollection.co.uk,BD23 3ET,Total Exemption Small,Hazardous waste collection
53.76518,-1.60946,FLAPPIT TIPPING AND RECYCLING LIMITED,,LS27 7NA,Total Exemption Small,"Non-hazardous treatment, disposal"
54.56326,-1.31667,WATERMAN WASTE MANAGEMENT LIMITED,www.stocktonbusinesscentre.org,TS18 1DW,Total Exemption Small,Hazardous waste collection
54.64588,-1.20103,NIRAMAX RUBBER PRODUCTS LIMITED,,TS25 2BQ,Not Available,"Non-hazardous treatment, disposal"
53.86667,-0.67657,MARKET WEIGHTON METALS LIMITED,,YO43 3GA,Total Exemption Small,Non-hazardous waste collection
53.7788,-0.24726,GREAT NORTHERN  CLEANING LTD,,HU11 4AA,Total Exemption Small,Non-hazardous waste collection
53.78595,-1.74396,WASTE SOLUTIONS (BRADFORD) LIMITED,,BD4 7DE,Total Exemption Small,Non-hazardous waste collection
53.80089,-1.57865,FORGE RECYCLING (UK) LIMITED,www.forgerecycling.co.uk,LS12 2PY,Total Exemption Small,Non-hazardous waste collection
54.5085,-1.3109,CLEAR IT! (TEESSIDE) LTD,,TS17 0QN,Not Available,Non-hazardous waste collection
53.59875,-1.0302,CARLS RECYCLING SERVICES LTD,,DN7 5RL,Micro-entity accounts,Non-hazardous waste collection
53.80244,-1.53067,METAL & WASTE RECYCLING LIMITED,www.metalandwaste.com,LS9 7DR,Full accounts,Non-hazardous waste collection
53.93188,-0.5622,LEWIS RILEY & SON LIMITED,,YO25 9UB,Not Available,Non-hazardous waste collection
53.61983,-0.20677,S.A.R. RECYCLING LTD,www.sarrecycle.com,DN40 2LF,,Non-hazardous waste collection
53.79326,-1.25824,MYTUM & SELBY WASTE RECYCLING LIMITED,www.mytumwasterecycling.com,LS25 6AT,Total Exemption Small,Non-hazardous waste collection
53.67597,-1.94442,ACE RECYCLE LIMITED,,HX6 4AZ,Total Exemption Small,"Non-hazardous treatment, disposal"
53.939979,-0.806303,MARKET WEIGHTON METALS LIMITED,,YO4 5HP,Total Exemption Small,Non-hazardous waste collection
53.79326,-1.25824,ONE CALL WASTE LTD,,LS25 6AT,Total Exemption Small,Non-hazardous waste collection
53.53509,-0.04616,CLEE METALS LIMITED,www.cleemetals.co.uk,DN36 4AW,Total Exemption Small,"Non-hazardous treatment, disposal"
53.76601,-0.32366,WHITES SKIP HIRE & RECYCLING LIMITED,,HU8 8EQ,Total Exemption Small,Non-hazardous waste collection
54.52176,-1.50909,TOTAL RECYCLING SERVICES LIMITED,www.totalrecyclingservices.co.uk,DL1 4PZ,Full accounts,Non-hazardous waste collection
54.49,-0.63316,STAY CLEAN (WHITBY) LTD,,YO21 3NU,Total Exemption Small,Non-hazardous waste collection
53.78778,-1.7224,BIFFA WASTE SERVICES LIMITED,www.r3mc.co.uk,BD4 8UF,Full accounts,Non-hazardous waste collection
53.59413,-1.68955,D S COOPER LIMITED,,HD8 8LT,Total Exemption Small,"Non-hazardous treatment, disposal"
53.52725,-1.15403,C.H.MIDDLETON LIMITED,www.rudsdale.co.uk,DN5 8BW,Total Exemption Small,Non-hazardous waste collection
53.70963,-1.84742,BW RECYCLING LTD,www.bwrecycling.co.uk,HX3 9JR,Total Exemption Small,Non-hazardous waste collection
53.70829,-1.85407,AVA WASTE MANAGEMENT GROUP LIMITED,www.avawastemanagement.co.uk,HX3 0PY,Not Available,Non-hazardous waste collection
54.55039,-1.046219,BIFFA WASTE SERVICES LIMITED,www.r3mc.co.uk,TS14 6RG,Full accounts,Non-hazardous waste collection
54.56109,-1.30608,SCOTT BROS. ENTERPRISES LIMITED,,TS17 6QP,Small company,Non-hazardous waste collection
54.58742,-1.25479,CHEMSEAL SOLUTIONS LTD,www.chemseal.co.uk,TS2 1RP,Total Exemption Small,Hazardous waste collection
53.50935,-1.12079,TOTAL TYRE RECYCLING LIMITED,www.totaltyre.co.uk,DN4 5NL,Total Exemption Small,Non-hazardous waste collection
54.33704,-1.60214,WASTE TRANSFER SERVICES LTD,,DL7 9NY,Total Exemption Small,"Non-hazardous treatment, disposal"
53.54861,-1.08472,ARMTHORPE SKIPS LTD,,DN2 4SA,Micro-entity accounts,Non-hazardous waste collection
54.52756,-1.56138,A1 RUBBISH REMOVAL LTD,,DL3 7BJ,Total Exemption Small,Non-hazardous waste collection
53.80412,-1.66819,J MURPHY AGGREGATES LIMITED,www.murphyaggregates.co.uk,LS28 6AU,Total Exemption Small,Non-hazardous waste collection
53.68684,-0.44427,THE KNOTTED NOTE LIMITED,www.carltoneducation.org.uk,DN18 5QA,Total Exemption Full,Non-hazardous waste collection
53.67773,-1.47951,BIFFA WASTE SERVICES LIMITED,www.r3mc.co.uk,WF1 5PJ,Full accounts,Non-hazardous waste collection
53.49801,-1.15245,SKIP2IT DONCASTER LIMITED,www.skip-hireindoncaster.co.uk,DN4 8QG,Total Exemption Small,Non-hazardous waste collection
53.74555,-0.40689,KINGSTON SKIP HIRE LIMITED,www.kingstonskiphireltd.co.uk,HU4 6AS,Total Exemption Small,Non-hazardous waste collection
53.61983,-0.20677,WORKSHOP RECYCLING LTD,www.workshoprecycling.co.uk,DN40 2LF,,Non-hazardous waste collection
53.75257,-0.40282,METAL & WASTE RECYCLING LIMITED,www.metalandwaste.com,HU5 5JN,Full accounts,Non-hazardous waste collection
53.70406,-1.27481,4RECYCLING LTD,www.4recycling.co.uk,WF11 0BU,Small company,Non-hazardous waste collection
54.65721,-1.19938,CLEVELAND WASTE PAPER LIMITED,www.cleveland-wastepaper.co.uk,TS25 2AG,Total Exemption Small,Non-hazardous waste collection
53.67376,-1.69602,WASTE COLLECTION SERVICES (UK) LTD,,WF14 8DD,Total Exemption Small,Non-hazardous waste collection
53.82791,-1.20267,RJC PLANT SERVICES LIMITED,,LS24 9RP,Total Exemption Small,Non-hazardous waste collection
54.61012,-1.26081,BIOCHEMICA LEISURE LIMITED,,TS23 4JD,Not Available,"Non-hazardous treatment, disposal"
54.59084,-1.26175,SUEZ RECYCLING AND RECOVERY TEES VALLEY LTD,www.sita.co.uk,TS23 1PY,Full accounts,"Non-hazardous treatment, disposal"
53.67376,-1.69602,WASTE COLLECTION SERVICES (UK) LTD,,WF14 8DD,Total Exemption Small,Non-hazardous waste collection
53.48201,-1.0857,ATTERO RECYCLING LIMITED,www.ra-ltd.co.uk,DN11 0PS,Total Exemption Small,"Non-hazardous treatment, disposal"
53.59011,-0.96081,GRANTHAM INDUSTRIES LIMITED,www.gbmuk.com,DN7 6HQ,Full accounts,"Non-hazardous treatment, disposal"
54.60101,-1.06688,1ST CHOICE SKIP HIRE NORTH EAST LTD,www.1stchoicewastegroup.co.uk,TS10 4LY,Total Exemption Small,"Non-hazardous treatment, disposal"
53.54206,-1.08688,B&K RECYCLING LIMITED,,DN2 5TB,Total Exemption Small,Non-hazardous waste collection
54.61012,-1.26081,BIOCHEMICA GROUP LIMITED,,TS23 4JD,Not Available,"Non-hazardous treatment, disposal"
53.77849,-0.99699,HYDROTEC INDUSTRIAL SERVICES LTD,,YO8 6NL,Not Available,"Non-hazardous treatment, disposal"
53.6441,-1.47147,BLK HOUSE CLEARANCE SERVICES LTD,,WF2 6PS,Not Available,Non-hazardous waste collection
53.68375,-1.50317,LORDGRADE ESTATES LIMITED,,WF1 2TA,Total Exemption Small,"Non-hazardous treatment, disposal"
53.65761,-1.553,EUROTEX LIMITED,www.eurotexlimited.co.uk,WF4 5BB,Total Exemption Small,Non-hazardous waste collection
54.67376,-1.2018,GRAB N GO SKIP HIRE (NORTH EAST) LIMITED,,TS25 1UB,Total Exemption Small,Non-hazardous waste collection
53.84764,-1.52112,J MCDONAGH & SONS LIMITED,www.jmdplanthire.co.uk,LS8 2AX,Total Exemption Small,Non-hazardous waste collection
53.71311,-1.50683,THE JUNK MONKEYS LIMITED,,WF1 2LA,Not Available,Non-hazardous waste collection
54.57569,-1.24159,SUNDERLAND SKIP SERVICES LTD,,TS1 5EH,Total Exemption Small,Non-hazardous waste collection
53.51121,-1.1309,TOTAL TYRE RECYCLING LIMITED,www.totaltyre.co.uk,DN4 5HZ,Total Exemption Small,Non-hazardous waste collection
53.79326,-1.25824,MYTUM AND SELBY (GOOLE) LIMITED,www.mytumwasterecycling.com,LS25 6AT,Total Exemption Small,"Non-hazardous treatment, disposal"
53.753,-1.66708,DENIS WASTE MANAGEMENT LIMITED,,BD11 1DD,Not Available,Non-hazardous waste collection
53.62926,-1.65856,STAN ELLIS WASTE PAPER COLLECTIONS LIMITED,,WF4 4BY,Total Exemption Small,Non-hazardous waste collection
53.74022,-0.48774,ECO-WIRES RECYCLING LTD,,HU14 3QR,Total Exemption Small,Hazardous waste collection
53.81478,-1.67447,R.G. BUCKLE ASBESTOS MANAGEMENT LIMITED,,LS28 5JG,Total Exemption Small,Non-hazardous waste collection
54.57133,-1.18816,RECYC-OIL LTD.,www.recyc-oil.co.uk,TS3 8TB,Total Exemption Small,Non-hazardous waste collection
54.56516,-1.35247,T5 INC LTD,,TS19 7DA,Total Exemption Small,Non-hazardous waste collection
53.61075,-0.66172,NORTHERN PLASTERBOARD RECYCLING LIMITED,www.northernplasterboardrecycling.co.uk,DN15 8QP,Total Exemption Small,"Non-hazardous treatment, disposal"
53.52383,-1.12709,G.A & M. SCHULLER & SONS LTD,,DN1 2EZ,Total Exemption Small,Non-hazardous waste collection
53.57525,-0.11793,BIFFA WASTE SERVICES LIMITED,www.r3mc.co.uk,DN31 2TG,Full accounts,Non-hazardous waste collection
53.96422,-1.07139,BUSINESS WASTE LTD,www.businesswaste.co.uk,YO31 7RE,Full accounts,"Non-hazardous treatment, disposal"
53.76694,-1.55648,BIBI RECYCLING LTD,,LS11 7JX,Total Exemption Small,"Non-hazardous treatment, disposal"
53.603929,-1.795601,J J S ENTERPRISES LIMITED,,HD9 6GD,Total Exemption Small,Non-hazardous waste collection
53.81821,-1.80528,SAM HOUSE LTD,,BD9 6RU,Micro-entity accounts,Non-hazardous waste collection
53.77929,-1.78449,LIFT & SHIFT FACTORY & PLANT LIMITED,,BD7 3LF,Total Exemption Small,Non-hazardous waste collection
53.82773,-1.51643,ROSS TRADERS LIMITED,,LS8 1NF,Not Available,Non-hazardous waste collection
53.7788,-0.24726,THE DRAIN COMPANY (HULL) LIMITED,www.thedraincompany.co.uk,HU11 4AA,Total Exemption Small,Non-hazardous waste collection
53.71267,-1.66611,DC WASTE MANAGEMENT LTD,www.dcwastemanagement.co.uk,WF16 9JU,Total Exemption Small,"Non-hazardous treatment, disposal"
53.86979,-1.68644,YELLOW BIN LIMITED,,LS19 7AY,Total Exemption Small,Hazardous waste collection
54.67376,-1.2018,CLEVELAND WASTE PAPER LIMITED,www.cleveland-wastepaper.co.uk,TS25 1UB,Total Exemption Small,Non-hazardous waste collection
54.54158,-1.59352,DARREN RICHMOND TRANSPORT LIMITED,,DL3 0JJ,Not Available,Non-hazardous waste collection
53.67513,-1.66585,CHEMWASTE LIMITED,www.chemwaste.co.uk,WF13 3LN,Total Exemption Small,"Hazardous treatment, disposal"
53.79188,-1.58537,ASKIP4ULEEDS LTD,,LS12 4BD,Not Available,Non-hazardous waste collection
54.01565,-0.9195,PAPERWISE LIMITED,www.paperwise.co.uk,YO41 1LH,Total Exemption Small,Non-hazardous waste collection
53.53298,-1.11019,LEX HYGIENE LTD,,DN2 5AT,Not Available,"Non-hazardous treatment, disposal"
53.92667,-0.81507,MURR PLANT & TRANSPORT LTD,,YO42 1NS,Not Available,Non-hazardous waste collection
53.69219,-1.70554,UK GRAB HIRE & RECYCLING LTD,,WF14 0DE,Micro-entity accounts,Non-hazardous waste collection
54.22592,-1.34394,TODDPLAS LTD,,YO7 1NG,Total Exemption Small,"Non-hazardous treatment, disposal"
53.77979,-1.50256,SKELTON LIMITED,www.skiphireleeds.co.uk,LS9 0SW,Total Exemption Small,Non-hazardous waste collection
53.80238,-1.53031,T&M REUSE YORKSHIRE LIMITED,www.tmreuse.co.uk,LS9 7DZ,Total Exemption Small,"Non-hazardous treatment, disposal"
53.55928,-1.74749,FPWM LIMITED,,HD9 7HS,Total Exemption Small,Non-hazardous waste collection
53.86848,-1.88799,ALLAN BURNS LIMITED,,BD21 4NQ,Total Exemption Small,Non-hazardous waste collection
53.88255,-1.68592,PLASTIC COMPOUNDERS YORKSHIRE LTD,,LS20 9NW,Total Exemption Small,Non-hazardous waste collection
53.7287,-1.55288,ARDSLEY WASTE SERVICES (AWS) LIMITED,www.ardsleywaste.co.uk,WF3 2EW,Micro-entity accounts,Non-hazardous waste collection
53.61835,-1.7989,COLTEX RECYCLING LTD,,HD4 7NR,Not Available,Non-hazardous waste collection
53.69348,-1.299,PONTEFRACT RECYCLING SERVICES LIMITED,www.pontefractrecyclingservices.co.uk,WF8 2HA,Total Exemption Small,Non-hazardous waste collection
54.59084,-1.26175,SCOTT BROS. LIMITED,www.scottbrothers.com,TS23 1PY,Full accounts,Non-hazardous waste collection
54.25732,-0.80032,JOHN SKAIFE LIMITED,www.johnsonsaccountants.co.uk,YO18 8PA,Total Exemption Small,Non-hazardous waste collection
54.07153,-1.19486,COAST TO COAST RECYCLING LIMITED,,YO61 1RA,Total Exemption Small,"Non-hazardous treatment, disposal"
53.57313,-1.6556,RGN (TEXTILES) LIMITED,www.rgntextiles.com,HD8 8RT,Total Exemption Small,Non-hazardous waste collection
53.73163,-1.75765,U CAN RECYCLING CIC,www.ucan-recycling.co.uk,BD12 9LU,Total Exemption Small,Non-hazardous waste collection
54.23212,-1.32878,F.D. TODD & SONS LIMITED,www.fdtodd.co.uk,YO7 3BX,Full accounts,"Non-hazardous treatment, disposal"
53.91645,-1.31437,AUGEAN PLC,www.augeanplc.com,LS23 7BF,Group,Hazardous waste collection
53.63858,-1.83296,J.S. BAMFORTH RECYCLING LTD,,HD3 4NY,Not Available,Non-hazardous waste collection
53.96132,-2.01438,SKIPTON METAL DISTRIBUTION LTD,,BD23 1EJ,Not Available,Non-hazardous waste collection
54.52344,-1.55815,GREAT NORTH AIR AMBULANCE SERVICE TRADING COMPANY LIMITED,www.greatnorthairambulance.co.uk,DL1 5NQ,Full accounts,Non-hazardous waste collection
54.52978,-1.31955,DELTA RECYCLING LIMITED,,TS17 5AL,Total Exemption Full,"Non-hazardous treatment, disposal"
53.54176,-1.00882,YORKSHIRE HORTICULTURAL SUPPLIES LIMITED,www.yorkshireaggs.co.uk,DN3 3EH,Total Exemption Small,"Non-hazardous treatment, disposal"
53.78372,-1.7455,BIFFA WASTE SERVICES LIMITED,www.r3mc.co.uk,BD4 7EZ,Full accounts,Non-hazardous waste collection
53.67171,-1.49347,NOBLE SKIP SERVICE LTD,www.nobleskipservice.co.uk,WF1 5RF,Not Available,"Non-hazardous treatment, disposal"
53.74375,-2.01274,PERICULA LIMITED,www.pericula.co.uk,HX7 7DD,Total Exemption Small,Hazardous waste collection
53.77277,-0.60147,KIER INTEGRATED SERVICES LIMITED,www.maygurney.co.uk,HU15 2AA,Full accounts,Non-hazardous waste collection
53.71311,-1.50683,THE TRASH MONKEYS LIMITED,,WF1 2LA,Not Available,Non-hazardous waste collection
53.70421,-1.39349,G.W.BUTLER LIMITED,www.gwbutler.co.uk,WF6 1TW,Small company,"Hazardous treatment, disposal"
53.78323,-1.5246,UK WASTE MANAGEMENT LIMITED,www.scottishslimmers.com,LS10 1GJ,Full accounts,Non-hazardous waste collection
53.5604,-1.81038,WASTE FOOD SOLUTIONS LIMITED,,HD9 2NY,Total Exemption Small,"Non-hazardous treatment, disposal"
53.86769,-1.91144,M I WASTE CARE LIMITED,,BD21 2AU,Total Exemption Small,Non-hazardous waste collection
53.659,-1.56647,NSS WAKEFIELD LTD,,WF4 5NF,Not Available,Non-hazardous waste collection
53.79511,-1.59559,P. CASEY ENVIRO LIMITED,www.casey.co.uk,LS12 3ES,Medium Company,"Non-hazardous treatment, disposal"
53.61794,-0.65884,RECYCLENET LIMITED,,DN15 9YG,Total Exemption Small,Non-hazardous waste collection
53.42175,-1.06128,STEEL & RECYCLING LTD,,DN11 8NW,Total Exemption Small,"Non-hazardous treatment, disposal"
53.93028,-0.77852,EARTHWISE ENVIRONMENTAL LTD,,YO42 2AR,Total Exemption Small,Non-hazardous waste collection
54.51106,-0.89717,AGRIPLASS LIMITED,www.agriplass.co.uk,TS13 4TH,Micro-entity accounts,Non-hazardous waste collection
53.97722,-1.52225,CLEARPOINT RECYCLING LIMITED,www.clearpointrecycling.co.uk,HG2 8QT,Total Exemption Small,Non-hazardous waste collection
53.67424,-1.67024,BIFFA GS (M&B) LIMITED,www.biffa.co.uk,WF13 3LX,Full accounts,Non-hazardous waste collection
53.77586,-0.92411,GREEN BIO FUELS (UK) LIMITED,,YO8 6ET,Total Exemption Small,Non-hazardous waste collection
53.83859,-1.76583,BRADFORD WASTE CHASERS LTD.,www.wastechasers.co.uk,BD17 7AR,Total Exemption Small,Non-hazardous waste collection
53.67171,-1.49347,NOBLE WASTE TREATMENT LTD,,WF1 5RF,Total Exemption Small,Non-hazardous waste collection
54.54804,-1.33424,SKIPPY WASTE SERVICES LIMITED,www.skippyskips.co.uk,TS18 3RU,Total Exemption Small,Non-hazardous waste collection
53.92432,-1.8241,PLANIT INKS LIMITED,www.planitinks.com,LS29 9LS,Total Exemption Small,Non-hazardous waste collection
53.71908,-1.5967,BIFFA WASTE SERVICES LIMITED,www.r3mc.co.uk,WF12 7JJ,Full accounts,Non-hazardous waste collection
53.72366,-0.53123,TRANSWASTE SERVICES LIMITED,www.transwasteltd.co.uk,HU14 3HH,Total Exemption Small,Non-hazardous waste collection
53.70742,-1.2561,AVISTA OIL SERVICES (UK) LTD,,WF11 0LA,Total Exemption Full,"Hazardous treatment, disposal"
53.70742,-1.2561,ACUMEN WASTE SERVICES LIMITED,www.acumenwaste.co.uk,WF11 0LA,Full accounts,Non-hazardous waste collection
53.82116,-0.77351,ALLENSWAY RECYCLING (GRIMSBY) LIMITED,,YO43 4BT,Micro-entity accounts,Non-hazardous waste collection
53.70005,-1.25172,REUSE GLASS UK LIMITED,www.berrymans.co.uk,WF11 0HP,Group,"Non-hazardous treatment, disposal"
54.27515,-0.40802,DUMITRESCU CLEANING LTD,,YO11 2LX,Total Exemption Small,Non-hazardous waste collection
53.77983,-1.61304,BILL DYSON SKIP HIRE & WASTE MANAGEMENT LIMITED,www.dysonskips.co.uk,LS12 5JB,Total Exemption Small,Non-hazardous waste collection
53.71822,-0.42817,BIOWOOD SERVICES LIMITED,,HU13 0EG,Not Available,"Non-hazardous treatment, disposal"
54.61012,-1.26081,EXPROMERE PRODUCTS LIMITED,,TS23 4JD,Not Available,"Non-hazardous treatment, disposal"
53.87027,-1.8931,HECTOR MOORE LIMITED,www.hml-recycling.co.uk,BD21 4LA,Total Exemption Small,"Non-hazardous treatment, disposal"
54.18065,-1.3428,PATERSONS OF THIRSK LIMITED,,YO7 3HU,Total Exemption Small,Non-hazardous waste collection
53.56308,-0.81671,ABLE SKIPS LTD,,DN9 1QH,Total Exemption Small,Non-hazardous waste collection
54.41101,-1.73508,BAC CONSTRUCTION SERVICES LIMITED,,DL10 4YT,Not Available,Non-hazardous waste collection
53.74635,-0.23327,TAYLORS ENVIRONMENTAL AND RECYCLING SERVICES LIMITED,www.taylorsenvironmental.co.uk,HU12 8FB,Total Exemption Small,Non-hazardous waste collection
53.76949,-1.63641,BORDER WELHA LIMITED,,LS12 5HP,Not Available,Non-hazardous waste collection
53.73219,-0.53915,UNISKIP ENVIRONMENTAL SERVICES LIMITED,,HU15 1FX,Total Exemption Small,Non-hazardous waste collection
53.76409,-0.29877,TIP-IT (HULL) LTD,,HU8 9AD,Not Available,Non-hazardous waste collection
54.07153,-1.19486,FBL RECYCLING LIMITED,,YO61 1RA,Total Exemption Small,Non-hazardous waste collection
54.63242,-1.31463,IMPETUS IRELAND LIMITED,www.impetuswastemanagement.com,TS22 5TB,Full accounts,"Hazardous treatment, disposal"
53.74643,-1.86407,ENVIROWASTE SERVICES LIMITED,www.leogroupltd.co.uk,HX3 6UF,Small company,"Non-hazardous treatment, disposal"
54.57899,-0.99139,CLEAN GREEN RECYCLING LTD,,TS12 1NU,Micro-entity accounts,Non-hazardous waste collection
53.70299,-1.24659,K.M.R. SKIP HIRE LIMITED,www.kmrskiphire.co.uk,WF11 0JP,Total Exemption Small,Non-hazardous waste collection
53.83288,-0.78005,ANYTIME WASTE TRANSFER LIMITED,,YO43 4BH,Total Exemption Small,Non-hazardous waste collection
53.75538,-0.37363,HULL SKIPS AND AGGREGATES LTD,,HU5 3TS,Total Exemption Small,Non-hazardous waste collection
53.82669,-1.50576,HARRY SANDERS LIMITED,,LS8 2HU,Total Exemption Small,"Non-hazardous treatment, disposal"
53.92712,-0.95356,SANDSFIELD GRAVEL COMPANY LIMITED,www.sandsfield.co.uk,YO41 4AR,Total Exemption Small,"Non-hazardous treatment, disposal"
53.63503,-0.46646,BIOGANIX LTD,www.bio-waste.co.uk,DN20 0PJ,Total Exemption Small,"Non-hazardous treatment, disposal"
54.33648,-1.4195,WESTPOINT ENVIRONMENTAL LIMITED,,DL6 1SN,Total Exemption Small,Hazardous waste collection
53.63858,-1.83296,DELTA UNION LIMITED,,HD3 4NY,Total Exemption Small,"Non-hazardous treatment, disposal"
53.50296,-1.12783,BROOKES SKIPS LTD,,DN4 8DE,Not Available,Non-hazardous waste collection
53.7749,-1.23415,THE MALTINGS ORGANIC TREATMENT LIMITED,,LS25 5FP,Total Exemption Small,"Non-hazardous treatment, disposal"
53.61644,-1.32428,NORTH STAR OIL LIMITED,,WF9 1BA,Total Exemption Small,Non-hazardous waste collection
53.5863,-0.12897,TULIP HEALTHCARE LIMITED,www.tuliphealthcare.co.uk,DN37 9TJ,Total Exemption Small,"Non-hazardous treatment, disposal"
53.68772,-1.63787,PRICE WASTE SERVICES LTD,www.pricewasteservices.co.uk,WF12 9QB,Total Exemption Small,Non-hazardous waste collection
54.67319,-1.20822,NIRAMAX GROUP LIMITED,www.niramax.net,TS25 1NS,Full accounts,"Non-hazardous treatment, disposal"
53.82027,-1.77599,RECYCLE 4 CASH (UK) LIMITED,,BD18 3AD,Total Exemption Small,Non-hazardous waste collection
53.6607,-1.57618,EUROTEX LIMITED,www.eurotexlimited.co.uk,WF4 5HX,Total Exemption Small,Non-hazardous waste collection
53.78069,-1.52934,NIXON CLEARANCE SERVICES LTD,,LS10 2QA,Micro-entity accounts,Non-hazardous waste collection
54.61059,-1.18009,FINE ENVIRONMENTAL SERVICES LIMITED,www.fineindustries.co.uk,TS2 1UB,Full accounts,"Hazardous treatment, disposal"
53.64903,-1.52578,YORKSHIRE ENVIRONMENTAL SOLUTIONS LIMITED,,WF4 3AQ,Not Available,"Non-hazardous treatment, disposal"
53.80598,-1.77128,BRADFORD ORGANICS COMPOSTING SERVICE,,BD8 8BD,Total Exemption Full,Non-hazardous waste collection
53.75112,-0.19618,EXPOTRAK LIMITED,www.shtc.org.uk,HU12 8UZ,Total Exemption Small,Non-hazardous waste collection
53.74302,-0.80631,WOLD SKIP SERVICES LIMITED,www.woldplant.co.uk,DN14 7XH,Total Exemption Small,Non-hazardous waste collection
54.67563,-1.2082,NIRAMAX GROUP LIMITED,www.niramax.net,TS25 1PU,Full accounts,"Non-hazardous treatment, disposal"
53.80311,-1.56012,IMARIQ LIMITED,,LS2 9NZ,Not Available,Non-hazardous waste collection
53.80138,-1.8092,J R CONCRETE SUPPLIERS LIMITED,,BD8 0DQ,Not Available,Non-hazardous waste collection
53.72654,-1.88229,SUEZ RECYCLING AND RECOVERY UK LTD,www.sita.co.uk,HX1 4PL,Full accounts,Non-hazardous waste collection
53.70406,-1.27481,BYPRODUCT RECOVERY LIMITED,www.4r-group.co.uk,WF11 0BU,Total Exemption Small,"Non-hazardous treatment, disposal"
53.7639,-1.23886,THE MALTINGS ORGANIC TREATMENT LIMITED,,LS25 5DN,Total Exemption Small,"Non-hazardous treatment, disposal"
53.79848,-1.75526,SCHOSWEEN 8 LIMITED,,BD1 4NS,Total Exemption Small,"Hazardous treatment, disposal"
53.90655,-1.35952,REEF RECYCLING LTD,,LS23 6EF,Total Exemption Small,Non-hazardous waste collection
53.7911,-1.74489,YORKSHIRE WASTE MANAGEMENT & RECYCLING LTD,,BD1 5LL,Not Available,Non-hazardous waste collection
53.90377,-1.70185,ARTHUR BROTHERTON LTD,,LS21 3JN,Total Exemption Small,"Non-hazardous treatment, disposal"
53.67265,-1.88149,BUNKER LOGISTICS LTD,,HX4 9HD,Not Available,Non-hazardous waste collection
54.05951,-0.44656,WOLDWASTE LTD,,YO25 3BG,Total Exemption Small,"Non-hazardous treatment, disposal"
53.78184,-1.58766,BW SKIP HIRE LIMITED,www.bwskiphire.co.uk,LS12 6ER,Total Exemption Small,Non-hazardous waste collection
53.47771,-0.5851,TIGHE ENVIRONMENTAL LTD,www.adlerandallan.co.uk,DN21 4NW,Small company,Non-hazardous waste collection
53.76551,-1.52591,WHEELIE CLEAN YORKSHIRE LIMITED,,LS10 3EA,Not Available,"Non-hazardous treatment, disposal"
53.6029,-0.14558,GRIMSBY OPERATIONS LIMITED,www.newlincs.com,DN41 8BZ,Full accounts,Non-hazardous waste collection
54.09432,-0.21015,OZ AN COLLECTION & RECYCLING UK LTD,,YO16 4QJ,Total Exemption Small,Non-hazardous waste collection
53.74365,-0.38731,ADDISON GREEN LIMITED,,HU3 6UU,Total Exemption Small,Hazardous waste collection
53.53077,-1.14385,CHANGE AID LTD,www.changeaid.co.uk,DN5 9SF,Total Exemption Small,Non-hazardous waste collection
53.72366,-0.53123,TRANSWASTE LIMITED,www.transwasteltd.com,HU14 3HH,Total Exemption Small,"Non-hazardous treatment, disposal"
54.31552,-1.82092,EESIGROW LIMITED,www.eesigrow.co.uk,DL8 5JG,Total Exemption Small,Non-hazardous waste collection
54.54206,-1.32297,GREEN ENERGY NORTH EAST LIMITED,,TS18 3SH,Not Available,"Non-hazardous treatment, disposal"
53.76518,-1.60946,BLACKSHAW LANDFILL LIMITED,www.blackshawholdings.co.uk,LS27 7NA,Total Exemption Small,"Non-hazardous treatment, disposal"
53.78782,-1.73888,G.W.BUTLER LIMITED,www.gwbutler.co.uk,BD4 8SL,Small company,"Hazardous treatment, disposal"
53.81321,-1.52381,ALLIED METALS LIMITED,,LS8 5EZ,Not Available,Non-hazardous waste collection
54.57014,-1.23839,ROSEWOOD RECYCLING LIMITED,,TS1 3QW,Micro-entity accounts,"Non-hazardous treatment, disposal"
53.79153,-1.54781,GREEN NORTH EAST TRADING BIDCO LIMITED,,LS11 5QR,Full accounts,"Non-hazardous treatment, disposal"
53.71805,-1.48496,WAKEFIELD SKIP SERVICES LIMITED,,WF3 3TH,Not Available,Non-hazardous waste collection
54.69523,-1.24301,THE BIG BLACK BAG LTD,,TS26 0TR,Not Available,Non-hazardous waste collection
54.57014,-1.23839,MONTWOOD MATERIAL RECYLING SOLUTIONS LIMITED,,TS1 3QW,Not Available,"Non-hazardous treatment, disposal"
54.58792,-1.26132,ALAB ENVIRONMENTAL SERVICES LIMITED,www.alabenvironmental.com,TS23 1PX,Full accounts,"Non-hazardous treatment, disposal"
53.78778,-1.7224,UK WASTE MANAGEMENT LIMITED,www.scottishslimmers.com,BD4 8UF,Full accounts,Non-hazardous waste collection
53.79326,-1.25824,MYTUM AND SELBY (HULL) LIMITED,www.mytumwasterecycling.com,LS25 6AT,Total Exemption Small,Non-hazardous waste collection
