latitude,longitude,name,url,postcode,Registered_accounts_type
53.84322,-1.52935,BHHS BAKERY LIMITED,www.bhhs.co.uk,LS17 6HQ,Micro-entity accounts
53.79716,-1.58914,HARDAKERS (HORSFORTH) LIMITED,,LS12 1UG,Micro-entity accounts
53.70218,-1.7794,X.L.PROPERTIES(BRIGHOUSE)LIMITED,,HD6 1RW,Total Exemption Small
53.59258,-0.64461,GREGGS PLC,www.greggs.co.uk,DN15 6SX,Group
53.9048,-1.69385,A.TEALE & SON LIMITED,,LS21 3HJ,Total Exemption Small
54.58691,-1.31039,GREGGS PLC,www.greggs.co.uk,TS20 1AH,Group
53.69221,-1.62787,FOSTERS BAKERY (STAINCROSS) LIMITED,www.bake-it.com,WF13 1QQ,Medium Company
54.23233,-1.34172,GREGGS PLC,www.greggs.co.uk,YO7 1LH,Group
53.99289,-1.53979,GREGGS PLC,www.greggs.co.uk,HG1 1RP,Group
53.75403,-1.81468,THE CAKE EMPORIUM LTD,www.thecakeemporium.net,HX3 7PB,Total Exemption Small
53.71046,-0.11479,THE ROLLING PIN 2011 LTD.,,HU12 9SX,Total Exemption Small
53.99369,-1.49631,BETTYS & TAYLORS OF HARROGATE LTD,www.bettys.co.uk,HG2 7LD,Full accounts
53.93217,-0.78424,GENTLE BAKEHOUSE LIMITED,,YO42 2DP,Not Available
54.0821,-0.19759,MALCOLM TYLER PIES LIMITED,,YO15 3EG,Total Exemption Small
53.99349,-1.54148,GREGGS PLC,www.greggs.co.uk,HG1 1PB,Group
53.78186,-0.41569,SUGAR 'N' SPICE CAKES LIMITED,www.sugarnspicecakes.co.uk,HU16 4BB,Total Exemption Small
53.80098,-1.55163,GREGGS PLC,www.greggs.co.uk,LS1 3BB,Group
53.7453,-0.34177,COOPLAND & SON (SCARBOROUGH) LIMITED,www.cooplands-bakery.co.uk,HU1 3RW,Full accounts
54.53543,-1.0521,COOPLAND & SON (SCARBOROUGH) LIMITED,www.cooplands-bakery.co.uk,TS14 6BG,Full accounts
53.71863,-1.87302,PGM BAKERIES LTD,,HX1 1EB,Total Exemption Small
53.63331,-1.79625,LORD HODGE LIMITED,www.hadfields-bakers.co.uk,HD1 3TW,Total Exemption Small
53.79703,-1.52216,MIDLAND BAKERY LIMITED,www.countrystyle.co.uk,LS9 8HY,Small company
53.79613,-1.76104,WORLD BREAD LOTTERY (KLA) LIMITED,,BD1 2PX,Not Available
53.63867,-1.84563,THE SUGAR VELVET CAKE COMPANY LIMITED,,HD7 4AR,Micro-entity accounts
54.30357,-2.19471,TANSEY BAKERY LTD,,DL8 3NH,Micro-entity accounts
53.78432,-1.75275,ABF GRAIN PRODUCTS LIMITED,www.alliedbakeries.co.uk,BD5 7RN,Full accounts
54.68427,-1.21394,GREGGS PLC,www.greggs.co.uk,TS24 7RS,Group
53.68704,-1.85521,LEADINGFORCE LIMITED,www.yorkshirebakery.co.uk,HX4 8AB,Total Exemption Small
53.96275,-2.01693,J.WILD(CONFECTIONERS)LIMITED,www.grandmawilds.co.uk,BD23 1JZ,Full accounts
53.74858,-1.6023,GREGGS PLC,www.greggs.co.uk,LS27 8EG,Group
53.78621,-1.06697,ABF GRAIN PRODUCTS LIMITED,www.alliedbakeries.co.uk,YO8 4EG,Full accounts
53.92901,-1.38479,THOMAS OF YORK LIMITED,,LS22 6FL,Full accounts
53.83901,-0.43332,TWO C PATISSERIE LIMITED,,HU17 8LH,Not Available
54.61826,-1.06604,COOPLAND & SON (SCARBOROUGH) LIMITED,www.cooplands-bakery.co.uk,TS10 3DR,Full accounts
53.95923,-1.04978,THOMAS OF YORK LIMITED,,YO10 3SD,Full accounts
54.56054,-1.24315,GREGGS PLC,www.greggs.co.uk,TS5 6HX,Group
53.72212,-1.85986,GREGGS PLC,www.greggs.co.uk,HX1 1DL,Group
53.96599,-1.07136,THE YORK PANTRY LTD,,YO31 7SZ,Micro-entity accounts
53.80744,-1.56055,MOONSHINE BAKERY LTD,,LS2 9DF,Not Available
53.43308,-1.10976,COOPLAND & SON (SCARBOROUGH) LIMITED,www.cooplands-bakery.co.uk,DN11 9HT,Full accounts
53.79703,-1.52216,COUNTRY STYLE FOODS LIMITED,www.countrystyle.co.uk,LS9 8HY,Group
53.72456,-1.71357,GREGGS PLC,www.greggs.co.uk,BD19 5AE,Group
53.57506,-0.0716,NICE TO ICE LIMITED,www.nice-to-ice.co.uk,DN31 3EW,Micro-entity accounts
53.56644,-0.64856,GREGGS PLC,www.greggs.co.uk,DN16 2SN,Group
53.86706,-1.90737,J.WILD(CONFECTIONERS)LIMITED,www.grandmawilds.co.uk,BD21 3QD,Full accounts
54.54538,-1.25787,PAUL MORGANS BAKERY LIMITED,www.morgans-bakery.co.uk,TS5 7BP,Total Exemption Small
53.63798,-1.81939,HADFIELDS THE BAKERY LTD,www.hadfields-bakers.co.uk,HD3 4LY,Total Exemption Small
53.55111,-0.49565,DUNHAMS OF BRIGG LIMITED,,DN20 8LP,Total Exemption Small
54.57613,-1.14653,PAUL MORGANS BAKERY LIMITED,www.morgans-bakery.co.uk,TS6 7HX,Total Exemption Small
53.75695,-0.44634,COOPLAND & SON (SCARBOROUGH) LIMITED,www.cooplands-bakery.co.uk,HU10 7UA,Full accounts
53.74345,-1.35989,BATESONS BAKERY LTD,,WF10 2BW,Total Exemption Small
54.27345,-0.40257,COOPLAND & SON (SCARBOROUGH) LIMITED,www.cooplands-bakery.co.uk,YO11 2QG,Full accounts
53.593512,-1.297417,POTTS (BAKERS) LIMITED,www.pottsbakers.co.uk,WF9 2AB,Total Exemption Small
53.91331,-1.75057,GREGGS PLC,www.greggs.co.uk,LS29 7JL,Group
53.68799,-1.50687,RRA FOOD LTD,,WF1 2QX,Not Available
53.76866,-1.80372,BERT MARSHALL BAKERS LIMITED,www.marshallsbakery.co.uk,BD6 3EW,Total Exemption Small
54.5595,-1.2512,GREGGS PLC,www.greggs.co.uk,TS5 5AL,Group
53.64628,-1.78143,LORD HODGE LIMITED,www.hadfields-bakers.co.uk,HD1 2RT,Total Exemption Small
53.53341,-1.14251,COOPLAND & SON (SCARBOROUGH) LIMITED,www.cooplands-bakery.co.uk,DN5 9SR,Full accounts
53.79613,-1.76104,BREAD LOTTERY LIMITED,,BD1 2PX,Not Available
53.87866,-2.04233,GREGGS PLC,www.greggs.co.uk,BD22 0NP,Group
53.95755,-2.01459,PHILLIPE'S BAKERY LIMITED,,BD23 2DX,Total Exemption Small
53.79966,-1.54419,GREGGS PLC,www.greggs.co.uk,LS1 8EQ,Group
53.79711,-1.54075,GREGGS PLC,www.greggs.co.uk,LS1 6BY,Group
53.76331,-0.35852,COOPLAND & SON (SCARBOROUGH) LIMITED,www.cooplands-bakery.co.uk,HU5 3AA,Full accounts
53.55989,-0.63039,GK BAKERY UK LTD,,DN16 3DA,Not Available
53.58228,-1.17921,G.H.E.PHILLIPS(FABRICS)LIMITED,www.janespantry.co.uk,DN6 8DA,Total Exemption Small
54.53518,-1.5787,MICHAELS BAKERY LTD,,DL3 9EL,Total Exemption Small
53.79701,-1.72609,WORLD BREAD LOTTERY (KLA) LIMITED,,BD3 9NR,Not Available
53.75783,-0.27297,COOPLAND & SON (SCARBOROUGH) LIMITED,www.cooplands-bakery.co.uk,HU9 5AQ,Full accounts
53.73048,0.03238,COOPLAND & SON (SCARBOROUGH) LIMITED,www.cooplands-bakery.co.uk,HU19 2HB,Full accounts
53.55208,-0.49055,GREGGS PLC,www.greggs.co.uk,DN20 8JE,Group
54.56242,-1.31205,GREGGS PLC,www.greggs.co.uk,TS18 1AL,Group
54.47011,-1.19287,GILLHAMS (SHROPSHIRE) LIMITED,www.gillhams.com,TS9 5DQ,Total Exemption Small
53.83195,-1.64204,GREGGS PLC,www.greggs.co.uk,LS18 4QD,Group
53.9056,-1.69403,GREGGS PLC,www.greggs.co.uk,LS21 3AQ,Group
53.75388,-0.37338,CHANTERLANDS BAKERY LTD,,HU5 3TT,Total Exemption Small
53.58922,-0.65353,ALBION ARTISAN FOODS LIMITED,www.albionbakery.co.uk,DN15 7PQ,Total Exemption Small
53.96005,-1.08312,COOPLAND & SON (SCARBOROUGH) LIMITED,www.cooplands-bakery.co.uk,YO1 8QR,Full accounts
53.68052,-1.70041,MAUGHANS CATERERS LIMITED,,WF14 9RW,Total Exemption Small
53.83329,-1.77783,GREGGS PLC,www.greggs.co.uk,BD18 3QJ,Group
53.86753,-1.9093,PERSONAL ICE LIMITED,,BD21 3RY,Total Exemption Small
53.79736,-1.58957,GREGGS PLC,www.greggs.co.uk,LS12 3AB,Group
54.53543,-1.0521,GREGGS PLC,www.greggs.co.uk,TS14 6BG,Group
53.7153,-1.88137,P. WILKINSON (BAKERS) LIMITED,,HX1 3JP,Total Exemption Small
53.83986,-1.63736,HARDAKERS (HORSFORTH) LIMITED,,LS18 4AH,Micro-entity accounts
54.55894,-1.15624,PAUL MORGANS BAKERY LIMITED,www.morgans-bakery.co.uk,TS6 9BZ,Total Exemption Small
54.57546,-1.23892,THOMAS OF YORK LIMITED,,TS1 5UB,Full accounts
53.82341,-0.74265,HOMEMADE BY ANNI LTD,,YO43 4DZ,Total Exemption Small
54.56127,-1.20494,PAUL MORGANS BAKERY LIMITED,www.morgans-bakery.co.uk,TS3 7PB,Total Exemption Small
53.80714,-1.58719,GREGGS PLC,www.greggs.co.uk,LS4 2EZ,Group
53.80509,-0.32843,COOPLAND & SON (SCARBOROUGH) LIMITED,www.cooplands-bakery.co.uk,HU7 5BZ,Full accounts
53.81725,-1.66487,TARTE AND BERRY LIMITED,,LS28 5LY,Not Available
54.13688,-1.52358,THOMAS OF YORK LIMITED,,HG4 1BW,Full accounts
54.50989,-1.35343,THE CAKE ROOM LIMITED,www.thecakeroomyarm.co.uk,TS15 9AL,Micro-entity accounts
53.79394,-1.7529,GREGGS PLC,www.greggs.co.uk,BD1 1PU,Group
53.70208,-1.78069,GREGGS PLC,www.greggs.co.uk,HD6 1AF,Group
53.7343,-0.36861,GREGGS PLC,www.greggs.co.uk,HU3 4EJ,Group
53.71905,-0.4239,WILLIAM JACKSON BAKERY (EXPORT) LIMITED,,HU13 0DZ,Full accounts
53.82088,-1.57873,ARTISAN BAKERY LIMITED,,LS6 3HG,Total Exemption Small
53.95925,-1.08101,GREGGS PLC,www.greggs.co.uk,YO1 8RT,Group
53.74495,-0.34172,GREGGS PLC,www.greggs.co.uk,HU1 3LS,Group
53.84943,-1.83682,J.WILD(CONFECTIONERS)LIMITED,www.grandmawilds.co.uk,BD16 4JD,Full accounts
53.94487,-1.04587,GREENS DESSERTS UK LTD,,YO10 5JU,Not Available
53.95896,-1.0842,GREGGS PLC,www.greggs.co.uk,YO1 9QL,Group
53.79906,-1.54287,COOPLAND & SON (SCARBOROUGH) LIMITED,www.cooplands-bakery.co.uk,LS1 6LR,Full accounts
53.79703,-1.52216,COUNTRY STYLE FOODS (EUROPE) LIMITED,www.devonshiredesserts.com,LS9 8HY,Small company
53.86531,-1.90746,J.WILD(CONFECTIONERS)LIMITED,www.grandmawilds.co.uk,BD21 3PQ,Full accounts
54.55696,-1.23321,PAUL MORGANS BAKERY LIMITED,www.morgans-bakery.co.uk,TS4 2TZ,Total Exemption Small
54.65518,-1.2336,GREGGS PLC,www.greggs.co.uk,TS25 2LS,Group
53.72245,-1.85933,LORD HODGE LIMITED,www.hadfields-bakers.co.uk,HX1 1DZ,Total Exemption Small
53.98764,-1.50799,LORD HODGE LIMITED,www.hadfields-bakers.co.uk,HG2 8PF,Total Exemption Small
54.00362,-0.43721,COOPLAND & SON (SCARBOROUGH) LIMITED,www.cooplands-bakery.co.uk,YO25 6PS,Full accounts
54.13241,-0.78878,DERVENTIO BAKERY LIMITED,,YO17 9HP,Total Exemption Small
54.28366,-0.39982,COOPLAND & SON (SCARBOROUGH) LIMITED,www.cooplands-bakery.co.uk,YO11 1DY,Full accounts
53.56614,-0.08611,GREGGS PLC,www.greggs.co.uk,DN31 1ED,Group
54.61825,-1.06446,PAUL MORGANS BAKERY LIMITED,www.morgans-bakery.co.uk,TS10 3DD,Total Exemption Small
54.68365,-1.21324,GREGGS PLC,www.greggs.co.uk,TS24 7RR,Group
53.56579,-0.08518,GREGGS PLC,www.greggs.co.uk,DN31 1UU,Group
53.59188,-0.64557,GREGGS PLC,www.greggs.co.uk,DN15 6SB,Group
53.80625,-1.71375,RATHBONE KEAR LIMITED,www.rathbones-bakery.co.uk,BD3 7DL,Full accounts
53.70698,-1.67509,GREGGS PLC,www.greggs.co.uk,WF16 0EZ,Group
53.79736,-1.76374,ZOYA DESSERTS LIMITED,,BD1 2RX,Total Exemption Small
53.79417,-1.54692,COOPLAND & SON (SCARBOROUGH) LIMITED,www.cooplands-bakery.co.uk,LS1 4BQ,Full accounts
53.63349,-1.71107,LORD HODGE LIMITED,www.hadfields-bakers.co.uk,HD8 0DS,Total Exemption Small
53.72986,-1.74981,LORD HODGE LIMITED,www.hadfields-bakers.co.uk,BD19 6EN,Total Exemption Small
53.95872,-1.07937,GREGGS PLC,www.greggs.co.uk,YO1 9UP,Group
54.52665,-1.55547,GREGGS PLC,www.greggs.co.uk,DL3 6SL,Group
53.52052,-1.13362,COOPLAND & SON (SCARBOROUGH) LIMITED,www.cooplands-bakery.co.uk,DN1 3JN,Full accounts
53.57934,-1.00145,RHODES OF THORNE LIMITED,,DN7 6QD,Total Exemption Small
53.8046,-1.56744,WISEMAN'S BAKERY LIMITED,,LS3 1DF,Total Exemption Small
53.68426,-0.43949,COOPLAND & SON (SCARBOROUGH) LIMITED,www.cooplands-bakery.co.uk,DN18 5ER,Full accounts
53.68406,-1.49823,GREGGS PLC,www.greggs.co.uk,WF1 3AN,Group
54.56341,-1.31347,GREGGS PLC,www.greggs.co.uk,TS18 1BB,Group
53.68591,-1.49831,GREGGS PLC,www.greggs.co.uk,WF1 3AQ,Group
53.62086,-1.88635,THE HANDMADE BAKERY (MARSDEN) LTD,www.thehandmadebakery.coop,HD7 5HA,Total Exemption Small
53.679791,-1.512613,WARBURTONS LIMITED,www.warburtons.co.uk,WF2 9NH,Full accounts
54.51027,-1.35553,PAUL MORGANS BAKERY LIMITED,www.morgans-bakery.co.uk,TS15 9BB,Total Exemption Small
54.56549,-1.31411,GREGGS PLC,www.greggs.co.uk,TS18 1RH,Group
54.1229,-1.19097,THOMAS OF YORK LIMITED,,YO61 3BJ,Full accounts
53.73455,-0.3693,BREADCAKES GALORE LIMITED,,HU3 3SD,Total Exemption Small
53.80005,-1.54564,GREGGS PLC,www.greggs.co.uk,LS1 8TL,Group
54.59164,-1.01878,THE YORKSHIRE GELATO COMPANY LIMITED,,TS11 7LD,Total Exemption Full
53.71376,-1.63242,GREGGS PLC,www.greggs.co.uk,WF17 5EF,Group
53.70017,-1.4185,GREGGS PLC,www.greggs.co.uk,WF6 2AF,Group
53.76288,-0.35902,GREGGS PLC,www.greggs.co.uk,HU5 2AL,Group
54.48529,-0.61655,COOPLAND & SON (SCARBOROUGH) LIMITED,www.cooplands-bakery.co.uk,YO21 1BN,Full accounts
53.81224,-1.67133,GREGGS PLC,www.greggs.co.uk,LS28 5LD,Group
53.80466,-1.4516,GREGGS PLC,www.greggs.co.uk,LS15 8BZ,Group
53.79528,-1.74878,GREGGS PLC,www.greggs.co.uk,BD1 4JB,Group
54.27686,-0.41287,COOPLAND & SON (SCARBOROUGH) LIMITED,www.cooplands-bakery.co.uk,YO12 5AX,Full accounts
53.73653,-0.35621,INDULGENT DESSERTS LTD,,HU3 2BG,Not Available
53.64121,-1.8264,LORD HODGE LIMITED,www.hadfields-bakers.co.uk,HD3 4HT,Total Exemption Small
53.7807,-1.58103,GREGGS PLC,www.greggs.co.uk,LS12 6DQ,Group
53.73365,-0.37559,YORKSHIRE SWEET PASSION LTD,,HU3 4UD,Not Available
53.69202,-1.31116,THOMAS OF YORK LIMITED,,WF8 1BA,Full accounts
53.79739,-1.5491,COOPLAND & SON (SCARBOROUGH) LIMITED,www.cooplands-bakery.co.uk,LS1 2JP,Full accounts
53.70502,-0.87173,GREGGS PLC,www.greggs.co.uk,DN14 5EZ,Group
53.78636,-0.32172,COOPLAND & SON (SCARBOROUGH) LIMITED,www.cooplands-bakery.co.uk,HU7 4EE,Full accounts
53.85437,-1.68425,PANY CHAUD BAKERY LTD,www.croissantdor.co.uk,LS19 6HJ,Total Exemption Small
53.95985,-1.0815,THOMAS OF YORK LIMITED,,YO1 8BA,Full accounts
53.80891,-1.76884,REGAL SWEETS AND SNACKS LTD,www.regalss.com,BD9 4PU,Total Exemption Small
53.68904,-1.69319,MAUGHANS CATERERS LIMITED,,WF14 0NW,Total Exemption Small
54.52533,-1.24037,PAUL MORGANS BAKERY LIMITED,www.morgans-bakery.co.uk,TS8 9JH,Total Exemption Small
54.53574,-1.05474,GREGGS PLC,www.greggs.co.uk,TS14 6EA,Group
53.74193,-0.73121,WARBURTONS LIMITED,www.warburtons.co.uk,HU15 2TB,Full accounts
53.71276,-1.33561,GREGGS PLC,www.greggs.co.uk,WF10 4SB,Group
53.72456,-1.71357,LORD HODGE LIMITED,www.hadfields-bakers.co.uk,BD19 5AE,Total Exemption Small
53.95958,-1.08152,GREGGS PLC,www.greggs.co.uk,YO1 8RR,Group
53.78316,-1.06948,GREGGS PLC,www.greggs.co.uk,YO8 4JS,Group
53.70753,-1.67663,MAUGHANS CATERERS LIMITED,,WF16 0HE,Total Exemption Small
53.75556,-0.33524,LIVWELL LIMITED,www.livwell.eu,HU2 0LF,Full accounts
53.75939,-1.73932,GREGGS PLC,www.greggs.co.uk,BD4 6SG,Group
53.75929,-1.69756,MARSDENS BAKERY LTD,,BD11 2BA,Micro-entity accounts
54.58289,-0.97351,COOPLAND & SON (SCARBOROUGH) LIMITED,www.cooplands-bakery.co.uk,TS12 1AE,Full accounts
53.87332,-1.71107,HAIGHS (GUISELEY) LIMITED,www.haighsbakery.co.uk,LS20 8AH,Total Exemption Small
54.5754,-1.23796,COOPLAND & SON (SCARBOROUGH) LIMITED,www.cooplands-bakery.co.uk,TS1 5ET,Full accounts
53.77195,-1.53069,THOS. DAWES & SON LIMITED,,LS10 2DH,Micro-entity accounts
53.72288,-0.43677,COOPLAND & SON (SCARBOROUGH) LIMITED,www.cooplands-bakery.co.uk,HU13 0RD,Full accounts
53.75046,-0.36067,JACKSON'S BAKERY LIMITED,www.williamjacksonbakery.co.uk,HU3 1EW,Full accounts
53.82935,-1.53782,GREGGS PLC,www.greggs.co.uk,LS7 4NY,Group
53.65124,-1.80684,LORD HODGE LIMITED,www.hadfields-bakers.co.uk,HD1 4LG,Total Exemption Small
53.65101,-1.32463,H.E.HINITT AND CO.LIMITED,,WF7 7LY,Total Exemption Small
54.28856,-1.59067,CUPCAKE DREAMS LIMITED,,DL8 2AD,Not Available
54.56127,-1.20494,COOPLAND & SON (SCARBOROUGH) LIMITED,www.cooplands-bakery.co.uk,TS3 7PB,Full accounts
53.64519,-1.7375,LORD HODGE LIMITED,www.hadfields-bakers.co.uk,HD5 9XP,Total Exemption Small
53.95802,-1.08279,THOMAS OF YORK LIMITED,,YO1 9QR,Full accounts
53.52902,-1.1356,THE TOPPING PIE COMPANY (RETAIL) LIMITED,www.toppingspies.co.uk,DN1 2RF,Total Exemption Small
54.13628,-0.79845,GREGGS PLC,www.greggs.co.uk,YO17 7JD,Group
53.75669,-1.53041,SIMONA'S CAKE CITY LTD,www.simonascakecity.com,LS10 3QA,Not Available
53.73996,-0.32465,CRUSTY COB INSTORE BAKERY LTD,,HU9 1PS,Total Exemption Small
53.72672,-1.35261,BATESONS BAKERY LTD,,WF10 1AE,Total Exemption Small
53.52826,-0.09155,ICING CABIN LIMITED,,DN33 2PY,Total Exemption Small
54.1343,-0.798,HOVINGHAM BAKERY LIMITED,,YO17 7AA,Total Exemption Small
53.96035,-1.08021,THOMAS OF YORK LIMITED,,YO1 8BH,Full accounts
53.74012,-0.199,THE ROLLING PIN 2011 LTD.,,HU12 8EU,Total Exemption Small
53.847183,-1.836811,J.WILD(CONFECTIONERS)LIMITED,www.grandmawilds.co.uk,BD16 1AW,Full accounts
53.95848,-1.08243,THOMAS OF YORK LIMITED,,YO1 8SR,Full accounts
53.9048,-1.69385,HAIGHS (GUISELEY) LIMITED,www.haighsbakery.co.uk,LS21 3HJ,Total Exemption Small
53.62839,-1.78393,LORD HODGE LIMITED,www.hadfields-bakers.co.uk,HD4 6JH,Total Exemption Small
53.85638,-1.51172,COOPLAND & SON (SCARBOROUGH) LIMITED,www.cooplands-bakery.co.uk,LS17 8TG,Full accounts
54.53114,-1.19891,GREGGS PLC,www.greggs.co.uk,TS7 8DU,Group
53.96159,-2.017129,GREGGS PLC,www.greggs.co.uk,BD23 1JP,Group
53.81277,-1.51697,GREGGS PLC,www.greggs.co.uk,LS8 5HS,Group
53.52902,-1.1356,THE TOPPING PIE COMPANY (CRYSTAL PEAKS) LIMITED,www.toppingspies.co.uk,DN1 2RF,Total Exemption Small
53.80664,-1.78408,NAFEES BAKERS LIMITED,www.nafees-bakers.com,BD9 5AJ,Total Exemption Small
53.81407,-1.55519,WHITELEYS THE BAKERS LTD,,LS6 2NY,Total Exemption Small
53.6995,-1.7045,NOISETTE BAKEHOUSE LIMITED,,WF15 7LE,Total Exemption Small
53.64437,-1.78359,GREGGS PLC,www.greggs.co.uk,HD1 2LT,Group
53.92215,-1.07747,THOMAS OF YORK LIMITED,,YO19 4TA,Full accounts
53.679401,-1.500734,LAKI LTD.,,WF1 5PF,Not Available
53.74397,-0.37398,COOPLAND & SON (SCARBOROUGH) LIMITED,www.cooplands-bakery.co.uk,HU3 6NS,Full accounts
53.89717,-1.99534,FANTICY LIMITED,www.fanticy.co.uk,BD20 8BP,Total Exemption Small
53.79531,-1.38851,GREGGS PLC,www.greggs.co.uk,LS25 1AF,Group
54.56242,-1.31205,COOPLAND & SON (SCARBOROUGH) LIMITED,www.cooplands-bakery.co.uk,TS18 1AL,Full accounts
54.6075,-1.29257,COOPLAND & SON (SCARBOROUGH) LIMITED,www.cooplands-bakery.co.uk,TS23 2ND,Full accounts
53.74608,-0.34492,COOPLAND & SON (SCARBOROUGH) LIMITED,www.cooplands-bakery.co.uk,HU2 8LA,Full accounts
53.62544,-1.85706,LORD HODGE LIMITED,www.hadfields-bakers.co.uk,HD7 5QQ,Total Exemption Small
53.81177,-1.62658,GREGGS PLC,www.greggs.co.uk,LS13 2ET,Group
53.59416,-1.29523,H.E.HINITT AND CO.LIMITED,,WF9 2AD,Total Exemption Small
54.23207,-1.34323,THOMAS OF YORK LIMITED,,YO7 1LB,Full accounts
54.60617,-1.08913,KAKE KRAFT LIMITED,,TS10 5HD,Total Exemption Small
53.74329,-0.34204,COOPLAND & SON (SCARBOROUGH) LIMITED,www.cooplands-bakery.co.uk,HU1 3RB,Full accounts
54.37477,-1.72309,GREGGS PLC,www.greggs.co.uk,DL9 3EN,Group
53.7839,-1.0719,THOMAS OF YORK LIMITED,,YO8 4ET,Full accounts
54.20872,-0.28727,COOPLAND & SON (SCARBOROUGH) LIMITED,www.cooplands-bakery.co.uk,YO14 9DQ,Full accounts
53.92982,-0.77991,TREATS FOR YOU LIMITED,,YO42 2QR,Total Exemption Small
53.5239,-1.13298,CRUSTY COB SHOP LIMITED(THE),,DN1 1HD,Total Exemption Small
53.78213,-0.41505,COOPLAND & SON (SCARBOROUGH) LIMITED,www.cooplands-bakery.co.uk,HU16 4BD,Full accounts
54.24267,-1.0535,THOMAS OF YORK LIMITED,,YO62 5DQ,Full accounts
53.93028,-0.77852,BECKY MACKENZIE HOMEMADE CAKES LIMITED,www.beckymackenziehomemadecakes.co.uk,YO42 2AR,Total Exemption Small
53.78636,-0.32172,GREGGS PLC,www.greggs.co.uk,HU7 4EE,Group
53.77455,-1.76082,GREGGS PLC,www.greggs.co.uk,BD5 8DJ,Group
53.63783,-1.80785,LORD HODGE LIMITED,www.hadfields-bakers.co.uk,HD4 5DA,Total Exemption Small
54.28151,-0.40273,COOPLAND & SON (SCARBOROUGH) LIMITED,www.cooplands-bakery.co.uk,YO11 1LD,Full accounts
53.75046,-0.36067,WILLIAM JACKSON BAKERY (EXPORT) LIMITED,,HU3 1EW,Full accounts
53.79768,-1.58831,GREGGS PLC,www.greggs.co.uk,LS12 3AH,Group
53.81304,-1.80671,GOOD FOOD DAY LIMITED,,BD9 6JN,Not Available
53.78284,-1.07529,THOMAS OF YORK LIMITED,,YO8 4HA,Full accounts
53.79482,-1.75507,GREGGS PLC,www.greggs.co.uk,BD1 1QY,Group
53.73885,-0.33556,HAPRIDGE LIMITED,,HU1 1UD,Micro-entity accounts
53.75402,-0.31282,COOPLAND & SON (SCARBOROUGH) LIMITED,www.cooplands-bakery.co.uk,HU9 2EU,Full accounts
54.24682,-1.061,THOMAS OF YORK LIMITED,,YO62 5BJ,Full accounts
53.64541,-1.81349,PGM BAKERIES LTD,,HD1 4RA,Total Exemption Small
53.56506,-0.68587,CRUSTY COB SHOP LIMITED(THE),,DN17 2AL,Total Exemption Small
53.99365,-1.53853,THOMAS OF YORK LIMITED,,HG1 1TU,Full accounts
53.80661,-1.52662,ORTONS BAKERY LIMITED,,LS9 7TU,Total Exemption Small
54.55357,-0.88375,STONEHOUSE BAKERY LIMITED,www.stonehousebakery.co.uk,TS13 4HG,Total Exemption Small
53.7517,-0.3601,NEW BAGHDAD BAKERY LIMITED,,HU3 1LU,Not Available
53.96138,-2.016,FANTICY LIMITED,www.fanticy.co.uk,BD23 1DZ,Total Exemption Small
54.1187,-1.19166,CLARK'S BAKERS (EASINGWOLD) LIMITED,www.clarksbakers.co.uk,YO61 3JB,Total Exemption Small
53.74735,-0.34452,COOPLAND & SON (SCARBOROUGH) LIMITED,www.cooplands-bakery.co.uk,HU2 8PE,Full accounts
53.7397,-1.76881,BERT MARSHALL BAKERS LIMITED,www.marshallsbakery.co.uk,BD12 9JA,Total Exemption Small
53.86688,-1.90795,GREGGS PLC,www.greggs.co.uk,BD21 3PY,Group
54.45666,-0.66412,E.BOTHAM & SONS LIMITED,www.botham.co.uk,YO22 5BT,Small company
53.68434,-1.83605,LEADINGFORCE LIMITED,www.yorkshirebakery.co.uk,HX5 0EP,Total Exemption Small
53.59115,-0.64973,GREGGS PLC,www.greggs.co.uk,DN15 6LP,Group
53.7957,-1.7552,GREGGS PLC,www.greggs.co.uk,BD1 3PP,Group
54.33829,-1.43423,THOMAS OF YORK LIMITED,,DL7 8JZ,Full accounts
53.86934,-1.66045,GREGGS PLC,www.greggs.co.uk,LS19 7TU,Group
53.77885,-1.52865,GREGGS PLC,www.greggs.co.uk,LS10 2AP,Group
53.7468,-1.54811,GREGGS PLC,www.greggs.co.uk,LS10 4HP,Group
53.78846,-1.74091,JL MOORE FAMILY BAKER LIMITED,www.moorecatering.co.uk,BD4 7UA,Total Exemption Small
53.77897,-0.39707,BLOSSOM'S BAKERY LIMITED,,HU16 4QJ,Not Available
54.4027,-1.73868,THOMAS OF YORK LIMITED,,DL10 4QG,Full accounts
54.61825,-1.06446,GREGGS PLC,www.greggs.co.uk,TS10 3DD,Group
53.67604,-1.49806,CONVENIENCE FOODS LIMITED,www.2sfg.com,WF2 8EE,Full accounts
53.63347,-1.81751,LORD HODGE LIMITED,www.hadfields-bakers.co.uk,HD4 5NH,Total Exemption Small
53.84188,-0.4298,THOMAS OF YORK LIMITED,,HU17 9AA,Full accounts
53.86415,-0.66592,COOPLAND & SON (SCARBOROUGH) LIMITED,www.cooplands-bakery.co.uk,YO43 3AQ,Full accounts
54.57562,-1.23602,GREGGS PLC,www.greggs.co.uk,TS1 2NR,Group
54.00825,-1.46702,THOMAS OF YORK LIMITED,,HG5 8AG,Full accounts
53.79593,-1.55329,GREGGS PLC,www.greggs.co.uk,LS1 4JY,Group
54.08172,-0.19184,THE UPPER CRUST HOT BREAD KITCHEN LTD,,YO15 2SP,Not Available
53.83656,-1.6401,I GOT FOOD, BABE LTD.,,LS18 4RR,Not Available
53.99321,-1.54305,BETTYS & TAYLORS OF HARROGATE LTD,www.bettys.co.uk,HG1 2QU,Full accounts
53.79769,-1.54289,GREGGS PLC,www.greggs.co.uk,LS1 6JS,Group
53.90607,-1.69433,A.TEALE & SON LIMITED,,LS21 3AP,Total Exemption Small
53.94418,-1.81446,LOVE BROWNIES.CO.UK LIMITED,www.lovebrownies.co.uk,LS29 0DN,Micro-entity accounts
53.79408,-1.75128,GREGGS PLC,www.greggs.co.uk,BD1 1HA,Group
54.00302,-0.4362,THORLEYS LIMITED,,YO25 6QE,Total Exemption Small
53.48817,-1.01211,MERCHANT WAY BAKERY LIMITED,,DN9 3GA,Total Exemption Small
53.50343,-1.16175,COOPLAND & SON (SCARBOROUGH) LIMITED,www.cooplands-bakery.co.uk,DN4 0RS,Full accounts
53.74319,-0.33601,GREGGS PLC,www.greggs.co.uk,HU1 2HP,Group
53.71405,-1.69099,TOLSON LIMITED,www.watsonsbakery.co.uk,WF15 6EW,Total Exemption Small
53.55789,-0.64278,CAKES BY LOUISE LIMITED,,DN16 3QN,Not Available
53.99288,-1.5367,BONDGATE BAKERY LTD,,HG1 5LF,Total Exemption Small
53.82586,-1.39617,COUNTRY CAKES LIMITED,,LS15 4LJ,Total Exemption Small
53.69162,-1.31169,GREGGS PLC,www.greggs.co.uk,WF8 1AT,Group
53.95574,-1.12312,THOMAS OF YORK LIMITED,,YO24 4LN,Full accounts
53.70337,-1.78003,LOVEBREAD CIC,www.lovebread.org.uk,HD6 1DA,Total Exemption Small
54.54352,-1.32876,COUNTRY STYLE FOODS LIMITED,www.countrystyle.co.uk,TS18 3RB,Group
53.7898,-1.51642,LOVESTORM CAKES LTD,,LS9 0BW,Total Exemption Small
53.72293,-0.43473,SKELTONS AND CO LIMITED,,HU13 0AA,Total Exemption Small
54.47011,-1.19287,COOPLAND & SON (SCARBOROUGH) LIMITED,www.cooplands-bakery.co.uk,TS9 5DQ,Full accounts
53.50681,-1.15133,CRUSTY COB SHOP LIMITED(THE),,DN4 0PL,Total Exemption Small
53.58137,-1.17872,COOPLAND & SON (SCARBOROUGH) LIMITED,www.cooplands-bakery.co.uk,DN6 8HE,Full accounts
54.30702,-1.81742,THE GLUTEN-FREE KITCHEN LIMITED,www.glutenfreefood.info,DL8 5QA,Total Exemption Small
53.75785,-1.57422,GREGGS PLC,www.greggs.co.uk,LS11 8LU,Group
53.8303,-0.4394,BAKE ME A CAKE LIMITED,,HU17 8PL,Not Available
53.52531,-1.13155,FOSTERS BAKERY (STAINCROSS) LIMITED,www.bake-it.com,DN1 1NG,Medium Company
53.74532,-1.60221,GREGGS PLC,www.greggs.co.uk,LS27 9BG,Group
53.68184,-1.49607,GREGGS PLC,www.greggs.co.uk,WF1 1DS,Group
54.56003,-1.14311,PAUL MORGANS BAKERY LIMITED,www.morgans-bakery.co.uk,TS6 9JD,Total Exemption Small
53.79576,-1.66378,GREGGS PLC,www.greggs.co.uk,LS28 7UA,Group
53.69226,-1.6284,GREGGS PLC,www.greggs.co.uk,WF13 1QH,Group
53.5321,-1.12953,MARVEL BAKERY LIMITED,,DN1 2ST,Not Available
53.96037,-1.08522,THOMAS OF YORK LIMITED,,YO1 8AQ,Full accounts
53.84811,-1.59151,GREGGS PLC,www.greggs.co.uk,LS16 8AA,Group
54.47011,-1.19287,THOMAS OF YORK LIMITED,,TS9 5DQ,Full accounts
53.71977,-1.33772,GOODENOUGH'S BAKERY LIMITED,,WF10 4DD,Total Exemption Small
54.57505,-1.2354,GREGGS PLC,www.greggs.co.uk,TS1 2NX,Group
54.52267,-1.52691,GREGGS PLC,www.greggs.co.uk,DL1 1BA,Group
53.63784,-1.84969,J C CAKES LIMITED,,HD7 4AB,Total Exemption Small
53.65438,-1.82574,PROPERMAID LTD,www.propermaid.co.uk,HD3 3HR,Total Exemption Small
53.78899,-1.58475,GREGGS PLC,www.greggs.co.uk,LS12 4BR,Group
53.79202,-1.73903,PRIMA CONTINENTAL BAKERY LIMITED,,BD3 9QP,Total Exemption Small
54.57553,-1.23509,THOMAS OF YORK LIMITED,,TS1 2PA,Full accounts
53.48157,-1.23037,CRUSTY COB SHOP LIMITED(THE),,DN12 3JH,Total Exemption Small
53.72354,-1.31464,GREGGS PLC,www.greggs.co.uk,WF10 3JJ,Group
53.80434,-1.53536,BAGEL NASH LIMITED,www.bagelnash.com,LS7 1AF,Full accounts
54.40367,-1.7381,GREGGS PLC,www.greggs.co.uk,DL10 4PX,Group
53.70232,-1.63129,A1 FOOD PRODUCTS LTD,,WF17 6JJ,Not Available
54.33829,-1.43423,COOPLAND & SON (SCARBOROUGH) LIMITED,www.cooplands-bakery.co.uk,DL7 8JZ,Full accounts
54.01628,-1.07583,THOMAS OF YORK LIMITED,,YO32 2LU,Full accounts
53.52716,-1.1053,COOPLAND & SON (SCARBOROUGH) LIMITED,www.cooplands-bakery.co.uk,DN2 5JA,Full accounts
54.23256,-1.34374,GREGGS PLC,www.greggs.co.uk,YO7 1HD,Group
53.59475,-1.2899,GREGGS PLC,www.greggs.co.uk,WF9 2RN,Group
53.65942,-1.78227,CREAMS PRODUCTION LTD,,HD1 6EL,Not Available
54.31027,-1.8297,ANDY'S TRADITIONAL BAKERS LIMITED,,DL8 5AW,Total Exemption Small
54.48737,-0.61732,E.BOTHAM & SONS LIMITED,www.botham.co.uk,YO21 3AH,Small company
53.95172,-1.08506,THOMAS OF YORK LIMITED,,YO23 1NA,Full accounts
54.618,-1.06648,GREGGS PLC,www.greggs.co.uk,TS10 3FB,Group
54.58134,-1.23983,PAUL MORGANS BAKERY LIMITED,www.morgans-bakery.co.uk,TS2 1LP,Total Exemption Small
53.54319,-1.07893,SARGENTS BAKERIES LIMITED,www.sargentsbakeries.co.uk,DN2 4SE,Medium Company
53.84188,-0.4298,COOPLAND & SON (SCARBOROUGH) LIMITED,www.cooplands-bakery.co.uk,HU17 9AA,Full accounts
53.80123,-1.77047,CAFE' REGAL LTD,,BD8 8EA,Not Available
54.2466,-1.06331,CINNAMON TWIST LIMITED,,YO62 5AD,Total Exemption Small
53.79985,-1.46587,WISELY FOODS LIMITED,,LS15 7RE,Not Available
54.57711,-1.23837,GREGGS PLC,www.greggs.co.uk,TS1 1TB,Group
53.96239,-2.018479,THE CRAVEN BAKERY LIMITED,www.cravenbakery.co.uk,BD23 1PQ,Total Exemption Small
53.79568,-1.54437,GREGGS PLC,www.greggs.co.uk,LS1 6EA,Group
54.2821,-0.40203,THOMAS OF YORK LIMITED,,YO11 1BA,Full accounts
54.57179,-1.20778,THE HOME OF THE CAKES LIMITED,,TS3 6JS,Not Available
54.23289,-1.34326,THOMAS OF YORK LIMITED,,YO7 1HA,Full accounts
53.86757,-1.90728,GREGGS PLC,www.greggs.co.uk,BD21 3QE,Group
54.46869,-0.90706,STONEHOUSE BAKERY LIMITED,www.stonehousebakery.co.uk,YO21 2LZ,Total Exemption Small
53.72607,-1.35303,GREGGS PLC,www.greggs.co.uk,WF10 1DB,Group
53.7938,-1.75447,GREGGS PLC,www.greggs.co.uk,BD1 1SQ,Group
54.22164,-1.65707,GREGGS PLC,www.greggs.co.uk,HG4 4EB,Group
53.80371,-1.58115,LOVE HANDMADE CAKES LIMITED,www.lovehandmadecakes.com,LS4 2BL,Total Exemption Full
54.23406,-0.41724,IMAGINATIVE ICING LIMITED,www.imaginativeicing.co.uk,YO11 3YS,Total Exemption Small
53.74847,-1.60558,MARTINS CRAFT BAKERY LIMITED,www.martinsbakery.co.uk,LS27 9NH,Group
54.0829,-0.19144,COOPLAND & SON (SCARBOROUGH) LIMITED,www.cooplands-bakery.co.uk,YO15 2DR,Full accounts
54.53884,-1.29128,GREGGS PLC,www.greggs.co.uk,TS17 9EP,Group
53.59143,-0.64784,COOPLAND & SON (SCARBOROUGH) LIMITED,www.cooplands-bakery.co.uk,DN15 6LY,Full accounts
53.73058,-0.38533,GOLD CROWN BAKERIES LIMITED,,HU4 6PA,Total Exemption Small
54.52559,-1.55558,THOMAS OF YORK LIMITED,,DL3 7QW,Full accounts
53.86571,-1.90742,GREGGS PLC,www.greggs.co.uk,BD21 3PT,Group
54.5754,-1.23796,GREGGS PLC,www.greggs.co.uk,TS1 5ET,Group
54.24567,-0.77749,THOMAS OF YORK LIMITED,,YO18 7AE,Full accounts
53.7293,-0.3802,CHAUCER FOODS UK LIMITED,www.chaucerfoods.com,HU3 4UN,Full accounts
54.0051,-0.4395,THOMAS OF YORK LIMITED,,YO25 6AP,Full accounts
53.52426,-1.13066,G H TECHNOLOGIES LIMITED,,DN1 1HZ,Total Exemption Small
53.89284,-1.95241,PERSONAL ICE LIMITED,,BD20 6PY,Total Exemption Small
53.74107,-0.19849,COOPLAND & SON (SCARBOROUGH) LIMITED,www.cooplands-bakery.co.uk,HU12 8JA,Full accounts
54.27777,-0.40996,COOPLAND & SON (SCARBOROUGH) LIMITED,www.cooplands-bakery.co.uk,YO12 5AJ,Full accounts
53.80311,-1.56012,PICNIC SUSSEX LIMITED,,LS2 9NZ,Not Available
53.78794,-1.88687,ASA NICHOLSON LIMITED,,BD13 4HH,Total Exemption Small
54.09436,-0.20967,RICHARDSONS OLD TOWN BAKERY LIMITED,,YO16 4QL,Micro-entity accounts
54.56271,-1.31205,PAUL MORGANS BAKERY LIMITED,www.morgans-bakery.co.uk,TS18 1BW,Total Exemption Small
53.92861,-1.38652,COOPLAND & SON (SCARBOROUGH) LIMITED,www.cooplands-bakery.co.uk,LS22 6LN,Full accounts
53.57236,-0.08027,COOPLAND & SON (SCARBOROUGH) LIMITED,www.cooplands-bakery.co.uk,DN31 1BJ,Full accounts
53.48817,-1.01211,KRYPTEX LIMITED,,DN9 3GA,Total Exemption Small
53.75448,-0.31207,GREGGS PLC,www.greggs.co.uk,HU9 2HX,Group
53.67912,-1.66204,GREGGS PLC,www.greggs.co.uk,WF13 3JR,Group
53.7459,-0.34343,GREGGS PLC,www.greggs.co.uk,HU2 8PW,Group
53.77176,-1.78488,LUSHHH CAKES LIMITED,,BD6 3JG,Not Available
53.70187,-1.86426,BARBER CONFECTIONERS (HALIFAX) LTD,,HX3 0RN,Total Exemption Small
53.92435,-1.37385,CAKES D'LICIOUS LIMITED,,LS22 5DZ,Not Available
54.57603,-1.23669,GREGGS PLC,www.greggs.co.uk,TS1 2LA,Group
53.79618,-1.62063,LORD HODGE LIMITED,www.hadfields-bakers.co.uk,LS13 4JG,Total Exemption Small
54.21951,-1.6581,BOBBY'S BAKERY LTD,,HG4 4HS,Total Exemption Small
53.52313,-1.13927,GREGGS PLC,www.greggs.co.uk,DN1 1LB,Group
53.847183,-1.836811,GREGGS PLC,www.greggs.co.uk,BD16 1AW,Group
53.89989,-1.94957,J.WILD(CONFECTIONERS)LIMITED,www.grandmawilds.co.uk,BD20 6RB,Full accounts
53.57165,-0.07387,COOPLAND & SON (SCARBOROUGH) LIMITED,www.cooplands-bakery.co.uk,DN32 7AH,Full accounts
53.52361,-1.13345,GREGGS PLC,www.greggs.co.uk,DN1 1EW,Group
54.15022,-0.83977,YO BAKEHOUSE (WHOLESALE) LTD,,YO17 6SP,Not Available
54.13573,-0.79683,THOMAS OF YORK LIMITED,,YO17 7HP,Full accounts
54.2359,-0.41091,COOPLAND & SON (SCARBOROUGH) LIMITED,www.cooplands-bakery.co.uk,YO11 3YT,Full accounts
53.7756,-1.54499,GREGGS PLC,www.greggs.co.uk,LS11 5HZ,Group
53.7993,-1.54934,GREGGS PLC,www.greggs.co.uk,LS1 2BH,Group
54.094,-1.39521,HAVENHANDS THE BAKERS LIMITED,www.boroughbridgecupcakes.co.uk,YO51 9AR,Total Exemption Small
53.95574,-1.12312,COOPLAND & SON (SCARBOROUGH) LIMITED,www.cooplands-bakery.co.uk,YO24 4LN,Full accounts
53.68192,-1.49715,GREGGS PLC,www.greggs.co.uk,WF1 1YD,Group
53.80628,-1.4508,COOPLAND & SON (SCARBOROUGH) LIMITED,www.cooplands-bakery.co.uk,LS15 8ET,Full accounts
53.64591,-1.77911,GREGGS PLC,www.greggs.co.uk,HD1 2QB,Group
53.81619,-1.46964,GREGGS PLC,www.greggs.co.uk,LS14 6ER,Group
