latitude,longitude,name,url,postcode,Registered_accounts_type
53.93535,-0.40064,ICECO EUROPE LIMITED,www.bluekeld.co.uk,YO25 9RE,Small company
53.71905,-0.4239,AUNT BESSIE'S LIMITED,www.auntbessies.co.uk,HU13 0DZ,Full accounts
53.58995,-1.30994,THE ICE CO LONDON LIMITED,www.theiceco.co.uk,WF9 3AP,Small company
53.93833,-1.37946,FILMORE AND UNION (HQ) LIMITED,www.filmoreandunion.co.uk,LS22 7TW,Total Exemption Small
53.75401,-1.66217,ASTON FOOD MANAGEMENT LTD,,BD11 1EX,Micro-entity accounts
53.61305,-0.46739,THE PASTRY ROOM LTD,www.thepastryroom.co.uk,DN20 0NH,Total Exemption Small
53.52902,-1.1356,THE TOPPING PIE COMPANY LIMITED,www.toppingspies.co.uk,DN1 2RF,Total Exemption Small
53.79015,-1.71894,ARCADIA FOOD INDUSTRIES LIMITED,www.famos.co.uk,BD4 8AJ,Small company
54.43247,-1.46303,TSW BUSINESS DEVELOPMENT LIMITED,,DL6 2EX,Total Exemption Small
54.47976,-1.63198,THE HONEYBCOMPANY LTD,,DL10 6HQ,Total Exemption Small
53.71894,-1.85184,NESTLE UK LTD.,www.nestle.co.uk,HX3 9XT,Full accounts
53.58707,-0.65338,INNER KITCHEN LIMITED,,DN15 7PA,Not Available
54.57305,-1.2361,GC CONES LIMITED,,TS1 2JN,Total Exemption Small
54.46189,-1.18131,MARLOW FOODS LIMITED,www.cauldronfoods.co.uk,TS9 7AB,Group
53.74297,-0.33774,FRIPURA LIMITED,www.fripura.com,HU1 2LD,Total Exemption Small
54.12551,-0.81859,THE TOFOO COMPANY LIMITED,www.clearspottofu.co.uk,YO17 6YD,Total Exemption Small
54.22116,-1.72365,ROSEBUD PRESERVES LIMITED,www.rosebudpreserves.co.uk,HG4 4LH,Total Exemption Small
53.81527,-1.54352,EXCELLENT FOOD COMPANY YORKSHIRE LIMITED,www.xfoodco.com,LS7 2DF,Total Exemption Small
53.58296,-1.1813,G PEEL LIMITED,,DN6 8DP,Total Exemption Small
53.79682,-1.4265,FARMHOUSE FARE LIMITED,www.farmhousefare.co.uk,LS15 8ZB,Full accounts
53.71774,-1.85215,NESTLE UK LTD.,www.nestle.co.uk,HX3 9HT,Full accounts
53.89651,-1.53317,THE LINDUM SNACK COMPANY LIMITED,www.bigthoughts.co.uk,LS17 9LF,Full accounts
53.61767,-0.94939,THE REAL YORKSHIRE PUDDING CO LIMITED,www.realyorks.co.uk,DN8 5JS,Full accounts
54.52467,-1.51129,JLM GLOBAL FOODS LIMITED,www.jlmglobalfoods.com,DL1 4QB,Total Exemption Small
53.78879,-1.23045,PECAN DELUXE CANDY (EUROPE) LIMITED,www.pecandeluxe.com,LS25 6ES,Full accounts
53.48817,-1.01211,CATHERINES CHOICE LIMITED,www.catherineschoice.co.uk,DN9 3GA,Total Exemption Small
53.79682,-1.4265,HAIN FROZEN FOODS UK LIMITED,www.haindaniels.com,LS15 8ZB,Full accounts
53.58484,-0.13268,CULINARY CO-PACKERS LIMITED,,DN37 9TZ,Not Available
53.86898,-1.8837,CLEARLY SCRUMPTIOUS LTD,www.clearlyscrumptious.co.uk,BD21 4LZ,Total Exemption Small
53.80965,-1.52886,VISION FOODS LIMITED,,LS7 1RQ,Total Exemption Small
53.60559,-0.42205,PIPERS CRISPS LIMITED,www.piperscrisps.com,DN20 0SP,Full accounts
53.72261,-1.89038,SNAX 4 U (HALIFAX) LTD,,HX1 4JQ,Not Available
53.64803,-1.53464,WASSEN INTERNATIONAL LIMITED,www.wassen.com,WF4 3DB,Full accounts
53.64781,-1.84881,BABY BITES ADVENTURE LTD,,HD3 4TJ,Not Available
53.73224,-1.72425,IMPERA NUTRITION LTD,,BD19 3UE,Total Exemption Small
53.58995,-1.30994,ICECO EUROPE LIMITED,www.bluekeld.co.uk,WF9 3AP,Small company
53.79682,-1.4265,DANIELS CHILLED FOODS LIMITED,www.danielschilledfoods.co.uk,LS15 8ZB,Full accounts
53.68391,-1.57316,ZEINA FOODS LIMITED,www.zeinafoods.com,WF5 9JE,Full accounts
53.61299,-0.42847,THE PASTRY ROOM LTD,www.thepastryroom.co.uk,DN20 0NU,Total Exemption Small
53.79529,-1.23026,PECAN DELUXE CANDY (EUROPE) LIMITED,www.pecandeluxe.com,LS25 6PJ,Full accounts
54.0198,-0.49678,ROSE COTTAGE FOODS LIMITED,www.rosecottagepantry.co.uk,YO25 3ET,Total Exemption Small
54.23647,-0.75985,MCSP DESIGN LTD,www.edible-by-design.co,YO18 7NA,Total Exemption Small
53.83577,-1.46978,INNOVATIVE FOODS LTD,,LS14 1AT,Not Available
54.46189,-1.18131,QUORN FOODS LIMITED,,TS9 7AB,Not Available
54.23406,-0.41724,FAIRBANK THE BAKER LTD,,YO11 3YS,Micro-entity accounts
53.58228,-1.17921,FRINCORP LTD,,DN6 8DA,Not Available
53.75594,-0.33781,C.K. FOODS (PROCESSING) LIMITED,www.ck-foods.com,HU2 0JB,Medium Company
53.92819,-1.38605,STURDY FOODS LIMITED,,LS22 6NG,Total Exemption Small
53.73872,-0.33298,D AND G VENTURES LTD,,HU1 1UU,Micro-entity accounts
53.72774,-1.98162,LITTLE BOX KITCHEN LIMITED,,HX7 5HZ,Not Available
53.52254,-1.13014,YORKSHIRE ROAST COMPANY LTD,,DN1 3NA,Not Available
53.69666,-1.5952,NEWLY WEDS FOODS LIMITED,www.newlywedsfoods.co.uk,WF5 9AX,Full accounts
54.12921,-1.51338,RIPON SELECT FOODS LIMITED,www.rsf.co.uk,HG4 1TT,Full accounts
53.77615,-0.33642,CRANSWICK GOURMET PASTRY COMPANY LIMITED,www.cranswick.co.uk,HU7 0YW,Full accounts
53.63813,-1.78488,A.J. PIES AND PASTRIES LIMITED,,HD1 3RR,Small company
54.00957,-1.53479,BUG BOYS LTD.,,HG1 3BS,Not Available
54.46324,-1.61577,PEAR TREE HONEY FARM LIMITED,,DL10 6RT,Total Exemption Full
53.77254,-0.36484,HEALTHY EATING LUNCHBOX (HULL) LIMITED,,HU6 7TQ,Total Exemption Small
53.49634,-0.98301,THE TOPPING PIE COMPANY LIMITED,www.toppingspies.co.uk,DN9 3AS,Total Exemption Small
53.81275,-1.54213,REALLY INDIAN LIMITED,www.reallyindian.com,LS7 2AW,Total Exemption Small
53.75074,-1.58665,VALLEY CO PRODUCTS LIMITED,www.harderbros.com,LS27 8EX,Full accounts
54.03057,-1.67107,TRAINING PARTNER NUTRITION LIMITED,,HG3 2PP,Not Available
54.59942,-1.26392,FRUTAROM (UK) LIMITED,www.frutarom.com,TS23 1LQ,Full accounts
53.6681,-1.78079,PINOS FOODS LTD,,HD2 2RB,Not Available
53.82009,-1.72307,LOVE BITES LIMITED,www.love-bites.co.uk,BD2 2EF,Total Exemption Small
53.86569,-1.68682,THE OATCAKE FACTORY LIMITED,,LS19 7EW,Total Exemption Small
53.77489,-0.33894,MAURI PRODUCTS LIMITED,www.abmauri.com,HU7 0XW,Full accounts
53.8318,-1.71065,SNACKWORLD ENTERPRISES LIMITED,,BD10 0RA,Not Available
53.84623,-1.68917,NATURE'S TONICS LIMITED,,LS19 6LL,Not Available
54.47999,-1.21944,NOBLE FOODS LIMITED,www.noblefoods.co.uk,TS9 5NQ,Full accounts
53.93535,-0.40064,KEYSTREAM LIMITED,www.j-marr.co.uk,YO25 9RE,Small company
54.5871,-1.24972,CAFE CLASS LTD,www.cafeclass.co.uk,TS2 1RN,Total Exemption Small
53.62595,-1.86054,NATURES AID LTD,www.naturesaid.co.uk,HD7 5QH,Medium Company
54.33401,-0.76538,LOADED TABLE LIMITED,,YO18 8HX,Not Available
53.96534,-1.30647,COUNTRY PRODUCTS LTD,www.countryproducts.co.uk,YO26 7QF,Total Exemption Small
53.65045,-1.79075,PROPER NUTTY LIMITED,,HD1 5LS,Total Exemption Small
53.679401,-1.500734,SEUSSFINEST LTD.,,WF1 5PF,Not Available
53.73244,-1.53482,TOSDAY LIMITED,,WF3 2FN,Total Exemption Small
54.04389,-0.69662,RAISTHORPE MANOR FINE FOODS LTD,www.raisthorpemanor.com,YO17 9TF,Total Exemption Small
54.13651,-1.52299,T APPLETON & SON LIMITED,,HG4 1BP,Total Exemption Small
53.80519,-1.76207,THORNTON FOODS LIMITED,,BD8 7DD,Not Available
54.06004,-0.258079,BEE HEALTH LIMITED,www.beehealth.com,YO15 3QY,Full accounts
54.44703,-1.1581,HUNGRYSCARECROW LIMITED,,TS9 7HF,Not Available
53.79728,-1.55489,CARDIUM PRODUCTS LIMITED,,LS1 2TW,Not Available
53.55755,-0.02532,TURNERS NEWS & FOODS LIMITED,www.lifestyle-express.co.uk,DN35 8EU,Total Exemption Small
53.77887,-1.76336,IKRA CATERING LTD,,BD5 7PA,Micro-entity accounts
53.59436,-0.65531,SURMA SECRET SPICES LIMITED,,DN15 7NH,Total Exemption Small
53.81055,-1.51599,ANAND FOODS LIMITED,,LS8 5BY,Not Available
53.77869,-0.34138,SARANT LTD,www.sarant.co.uk,HU7 0YG,Full accounts
53.978235,-1.065381,NESTLE UK LTD.,www.nestle.co.uk,YO91 1XY,Full accounts
54.58246,-0.992,SILVER LINING NUTRITION LTD,,TS12 1QU,Micro-entity accounts
53.79427,-1.79978,DALE MEAT PROCESSING LTD,,BD8 0HR,Not Available
53.45267,-0.1288,THE BIG DIP LIMITED,www.dipsociety.com,LN8 6BP,Total Exemption Small
53.77473,-0.33349,RIVA FOODS LIMITED,www.rivafoods.co.uk,HU7 0XQ,Small company
53.64274,-1.78954,GOLDENGATE FOODS LIMITED,www.crustypie.co.uk,HD1 2NX,Total Exemption Small
53.77466,-1.5039,DANIELS CHILLED FOODS LIMITED,www.danielschilledfoods.co.uk,LS10 1RW,Full accounts
53.736628,-0.697942,ESSENTIAL NUTRITION LIMITED,www.essentialnutrition.co.uk,HU15 1EF,Total Exemption Small
54.08625,-0.20052,WOLDGATE HONEY LTD,,YO16 4JB,Total Exemption Small
54.63242,-1.31463,PASTA (U.K.) LIMITED,www.pasta-uk.co.uk,TS22 5TB,Total Exemption Small
53.74432,-1.75685,MARRDS LTD,,BD12 9HL,Not Available
53.58995,-1.30994,ICECO LIMITED,www.theiceco.co.uk,WF9 3AP,Small company
53.72594,-1.34598,THOMAS FAWCETT & SONS,LIMITED,www.fawcett-maltsters.co.uk,WF10 4LE,Full accounts
54.58561,-1.25666,ON A ROLL SANDWICH COMPANY LIMITED,www.onarollsandwich.co.uk,TS2 1RY,
53.80802,-1.53037,LIME TREE FOODS LIMITED,www.sandwichkinguk.com,LS7 1RF,Total Exemption Small
53.77456,-1.54126,SPEEDBOAT ACQUISITIONCO LIMITED,,LS11 5JL,Full accounts
53.65704,-1.8293,PENNINE FOOD INGREDIENTS LIMITED,www.penninefoods.co.uk,HD3 3PA,Total Exemption Small
53.72993,-0.37922,AUNT BESSIE'S LIMITED,www.auntbessies.co.uk,HU3 4UW,Full accounts
53.679401,-1.500734,ARISTAIOUS OIL LIMITED,,WF1 5PF,Micro-entity accounts
53.85026,-1.64193,MATTHEW FOODS LIMITED,,LS18 5HG,Total Exemption Small
53.97722,-1.52225,DOTS OF FUN LIMITED,,HG2 8QT,Full accounts
53.8053,-1.68815,HALAL CATERING SUPPLIES LTD,,LS28 7TQ,Total Exemption Small
53.92099,-1.80714,YORKSHIRE FLOWER ESSENCES LTD,,LS29 8SL,Not Available
53.77353,-1.58688,TROY FOODS LIMITED,www.troyfoods.co.uk,LS12 6DX,Full accounts
53.58995,-1.30994,KEYSTREAM LIMITED,www.j-marr.co.uk,WF9 3AP,Small company
53.97536,-1.52933,BUILDING BLOCK FOODS LIMITED,,HG2 8EB,Not Available
53.79078,-1.44208,GREEN ASH TREE LIMITED,www.theprepbox.com,LS15 9AQ,Total Exemption Small
53.79474,-1.42981,CALBEE (UK) LTD,www.calbee.co.uk,LS15 8ZA,Full accounts
53.61767,-0.94939,GO2 FOODS LIMITED,,DN8 5JS,Group
54.23188,-0.37895,THE KLEVER FOOD COMPANY LIMITED,,YO11 3TJ,Not Available
53.72519,-0.50442,SEVEN SEAS HEALTHCARE LIMITED,,HU14 3JT,Not Available
53.6702,-1.88746,BICKIEPEGS HEALTHCARE LTD,www.bickiepegs.com,HX4 9PQ,Total Exemption Small
53.97722,-1.52225,ZUBRANCE LIMITED,www.zubrance.co.uk,HG2 8QT,Group
53.72519,-1.8781,SCOFFERS (YORKSHIRE) LIMITED,,HX1 5PG,Total Exemption Small
54.0649,-1.58546,JUST FOOD INTERNATIONAL LTD,,HG3 3BF,Total Exemption Small
53.84404,-1.5434,YORKSHIRE MORE,,LS17 6AZ,Micro-entity accounts
53.77869,-0.34138,HUMDINGER LIMITED,www.humdinger-foods.co.uk,HU7 0YG,Full accounts
53.97127,-1.0776,NESTLE UK LTD.,www.nestle.co.uk,YO31 8JP,Full accounts
53.74297,-0.33774,OIL PRESERVATION TECHNOLOGIES LIMITED,,HU1 2LD,Total Exemption Small
53.58484,-0.13268,SCRATCH MEALS LTD,www.mealsfromscratch.co.uk,DN37 9TZ,Total Exemption Small
53.81561,-1.55619,WOODHOUSE COMMUNITY GROWERS LTD,,LS6 2HN,Micro-entity accounts
53.53732,-0.09181,GREEN GOURMET LIMITED,www.greengourmet.co.uk,DN33 2EW,Medium Company
