latitude,longitude,name,url,postcode,subactivity
53.74302,-0.80631,RP KERR & SON LIMITED,,DN14 7XH,Poultry
53.52856,-1.04274,CLARENCE COURT EGGS LIMITED,,DN3 3TU,Poultry
53.5714,-0.0622,OAKLAND FARMS LIMITED,,DN32 7RG,Poultry
54.29156,-1.58834,MUSTERFIELD POULTRY GROWERS LTD,,DL8 1AU,Poultry
53.73744,-0.01072,K. FRESH LTD,,HU19 2BZ,Poultry
53.64132,-1.03308,EGGS R US LTD,,DN14 9AN,Poultry
53.83288,-0.78005,LCS AGRICULTURE LIMITED,,YO43 4BH,Poultry
53.70932,-1.49308,COLLEY FOLD TURKEYS LIMITED,,WF1 3EB,Poultry
54.09168,-0.3976,BROACHDALE BIRDS LIMITED,,YO25 4EF,Poultry
53.94237,-0.72448,WOT-A-HEN LIMITED,,YO42 1XG,Poultry
53.91856,-1.20129,H BARKER & SON LIMITED,,YO23 3PQ,Poultry
54.19645,-1.43383,YORKSHIRE FARMHOUSE EGGS LIMITED,,YO7 4SQ,Poultry
54.29515,-1.76371,EASTFIELD GAME FARM LIMITED,,DL8 5PU,Poultry
53.75657,-0.21887,WESTDALE PARTNERS LIMITED,,HU12 8TL,Poultry
53.93839,-0.9054,C & K WOOD (U.K.) LIMITED,,YO41 4EB,Poultry
54.08414,-1.15708,FIR TREE FARM (YORKSHIRE) LIMITED,,YO61 1JA,Poultry
54.23655,-1.24638,NORTHFIELDS FARM LIMITED,,YO7 2QA,Poultry
54.00752,-0.37554,LITTLE HAMAR FARM COMPANY,,YO25 8HB,Poultry
54.41489,-1.62388,MILL POULTRY LIMITED,,DL10 6DA,Poultry
54.16191,-0.46873,WALK FARM EGGS LIMITED,,YO12 4PQ,Poultry
54.2407,-1.00404,LOOSE BIRDS (HAROME) LTD.,,YO62 5HZ,Poultry
53.74237,-0.33283,EAST RIDING CHICKENS LIMITED,,HU1 1RS,Poultry
53.85187,-0.82216,R.G.KENDALL & SONS LIMITED,,YO42 4NA,Poultry
53.88417,-0.42185,ARRAM GRANGE PIGS LIMITED,,HU17 7NR,Poultry
53.8527,-1.64332,WHITE ROSE EGGS LIMITED,,LS18 5SL,Poultry
54.04139,-0.37807,RUSTON EGGS LIMITED,,YO25 4DG,Poultry
54.1154,-0.39271,BOARCROSS LIMITED,,YO25 3DS,Poultry
54.1154,-0.39271,CROOKED DALE EGGS LIMITED,,YO25 3DS,Poultry
53.91779,-0.75533,MARTINDALE POULTRY CO. LTD,,YO42 1UL,Poultry
54.05366,-0.62554,LIGHTHOUSE COTTAGE QUALITY PRODUCE LTD,,YO25 3HD,Poultry
54.4366,-1.43785,GRANGE FARM EGGS LTD,,DL6 2HF,Poultry
54.03506,-1.459,WEBSTER FARMING (FARNHAM) LIMITED,,HG5 9NB,Poultry
54.3875,-1.56714,BARKER CHICKENS LIMITED,,DL10 6AZ,Poultry
54.31594,-1.49929,MORTON GRANGE LIMITED,,DL7 9RQ,Poultry
54.00362,-0.43721,MAINLINE GROWERS LIMITED,,YO25 6PS,Poultry
53.84914,-0.86361,ELKANIMA LTD,,YO42 4PR,Poultry
53.77782,-1.61154,CR & G STEPHENSON LIMITED,,LS12 6JU,Poultry
54.56012,-1.45446,THE GOOD EGG FELLAS LIMITED,,DL2 1SU,Poultry
54.11494,-1.42331,EASINGWOLD CHICKENS LIMITED,,YO51 9DZ,Poultry
53.78243,-1.71565,JIM CLARK (POULTRY) LIMITED,,BD4 9JL,Poultry
54.00248,-0.61792,LIGHTHOUSE COTTAGE QUALITY PRODUCE LTD,,YO25 9JU,Poultry
54.01109,-0.381,SOUTHFIELD POULTRY LIMITED,,YO25 8NN,Poultry
53.99169,-1.53592,WEBSTER FARMING (FARNHAM) LIMITED,,HG1 5PA,Poultry
53.93376,-0.55859,CLIVE SOANES (BROILERS) LTD.,,YO25 9UG,Poultry
53.7025,-0.08194,J & R CLAPPISON LIMITED,,HU12 0AL,Poultry
53.93365,-1.37794,OAKLAND FARMS LIMITED,,LS22 7RD,Poultry
53.91824,-1.37525,HERB FED LIMITED,,LS22 5NB,Poultry
53.64744,-1.78445,MEADOW FARM HOUSE LTD,,HD1 1JP,Poultry
53.71242,-1.61623,R.J.F. (REBUILDERS) LIMITED,,WF17 6RF,Poultry
54.49325,-1.46696,DINSDALE FARMING LIMITED,,DL2 1PN,Poultry
54.13787,-1.12934,W M GARBUTT LIMITED,,YO61 4TT,Poultry
53.74892,-1.92285,M AND D POULTRY LIMITED,,HX2 0UB,Poultry
53.77232,-1.29689,MILFORD FARM LIMITED,,LS25 5LJ,Poultry
54.24266,-1.41487,HORIZON GAME LIMITED,,YO7 4EL,Poultry
53.94237,-0.72448,WOT-A-PULLET LIMITED,,YO42 1XG,Poultry
54.1343,-0.798,B & M WATSON LTD,,YO17 7AA,Poultry
54.18427,-0.58892,COUNTY FARM LIMITED,,YO17 8RS,Poultry
54.09311,-1.39582,HOLLY HOUSE CHICKENS LTD,,YO51 9AX,Poultry
54.28152,-0.40536,FOREST POULTRY LIMITED,,YO11 1JU,Poultry
54.08372,-1.39307,H TREWHITT AND SONS LIMITED,,YO51 9HT,Poultry
53.96604,-0.75839,CAWOOD POULTRY LIMITED,,YO42 1TL,Poultry
53.99541,-1.22069,OAKLAND FARMS LIMITED,,YO26 8LA,Poultry
53.49209,-0.78245,N. AXE AND SON LIMITED,,DN9 1AW,Poultry
54.00627,-2.32391,M A & J L PREUSS LIMITED,,BD23 4SB,Poultry
53.93489,-0.9041,RUSTON EGGS LIMITED,,YO41 4DB,Poultry
53.93262,-0.22828,ELLIOTT EGGS LIMITED,,YO25 8DX,Poultry
53.86453,-0.71557,R.G.KENDALL & SONS LIMITED,,YO43 3PZ,Poultry
53.93489,-0.9041,C & K WOOD (U.K.) LIMITED,,YO41 4DB,Poultry
53.85845,-0.23943,PARK FARM EGGS LIMITED,,HU11 5BL,Poultry
54.2776,-0.7596,S B BULMER (LIVESTOCK) LTD,,YO18 8JN,Poultry
53.83491,-1.79507,STORWOOD GAME LIMITED,,BD18 4JH,Poultry
54.00413,-0.43998,WILSON CATCHING SERVICES LIMITED,,YO25 6RA,Poultry
54.19645,-1.43383,HOADS FARM LIMITED,,YO7 4SQ,Poultry
53.77615,-0.33642,CROWN CHICKEN LIMITED,,HU7 0YW,Poultry
54.30213,-0.96655,RAWSON FARMS LTD,,YO62 7JQ,Poultry
53.70466,-0.8758,HARDCASTLE & SON LTD,,DN14 6AA,Poultry
54.17077,-1.34489,ELDMIRE HILL POULTRY LIMITED,,YO7 3JH,Poultry
53.99207,-1.53146,ARM POULTRY LIMITED,,HG1 5RX,Poultry
53.54096,-0.1614,CHERRY VALLEY FARMS LIMITED,,DN37 7DP,Poultry
53.70932,-1.49308,STANACRE POULTRY COMPANY LIMITED,,WF1 3EB,Poultry
53.70964,-0.11198,R.J.F. (REBUILDERS) LIMITED,,HU12 9RD,Poultry
53.97436,-0.92601,CATTON TURKEYS LIMITED,,YO41 1EA,Poultry
